{
"type": "FeatureCollection",
"name": "SELECT",
"features": [
{ "type": "Feature", "properties": { "Layer": "BARRERA", "PaperSpace": null, "SubClasses": null, "Linetype": null, "EntityHandle": "1D1EE34E", "Text": null }, "geometry": { "type": "MultiPolygon", "coordinates": [ [ [ [ 736.633952074514582, -648.603828942694577 ], [ 736.595735997954989, -648.451633160416577 ], [ 736.633952074514582, -648.442037174964071 ], [ 736.633952074514582, -648.603828942694577 ] ] ], [ [ [ 736.633952074514582, -648.603828942694577 ], [ 736.633952074514582, -648.442037174964071 ], [ 737.410080890583686, -651.694767179799442 ], [ 736.633952074514582, -648.603828942694577 ] ] ], [ [ [ 737.410080890583686, -651.694767179799442 ], [ 736.633952074514582, -648.442037174964071 ], [ 737.410080890583686, -651.532975412070186 ], [ 737.410080890583686, -651.694767179799442 ] ] ], [ [ [ 737.410080890583686, -651.694767179799442 ], [ 737.410080890583686, -651.532975412070186 ], [ 737.448296967142937, -651.685171194346935 ], [ 737.410080890583686, -651.694767179799442 ] ] ] ] } },
{ "type": "Feature", "properties": { "Layer": "BARRERA", "PaperSpace": null, "SubClasses": null, "Linetype": null, "EntityHandle": "1D1EE34F", "Text": null }, "geometry": { "type": "LineString", "coordinates": [ [ 736.595735997954989, -648.451633160416577, 0.0 ], [ 737.410080890583686, -651.694767179799442, 0.0 ] ] } },
{ "type": "Feature", "properties": { "Layer": "BARRERA", "PaperSpace": null, "SubClasses": null, "Linetype": null, "EntityHandle": "1D1EE351", "Text": null }, "geometry": { "type": "LineString", "coordinates": [ [ 736.633952074514582, -648.442037174964071, 0.0 ], [ 737.448296967142937, -651.685171194346935, 0.0 ] ] } },
{ "type": "Feature", "properties": { "Layer": "BARRERA", "PaperSpace": null, "SubClasses": null, "Linetype": null, "EntityHandle": "1D1EE353", "Text": null }, "geometry": { "type": "LineString", "coordinates": [ [ 736.633952074514582, -648.442037174964071, 0.0 ], [ 736.595735997954989, -648.451633160416577, 0.0 ] ] } },
{ "type": "Feature", "properties": { "Layer": "BARRERA", "PaperSpace": null, "SubClasses": null, "Linetype": null, "EntityHandle": "1D1EE354", "Text": null }, "geometry": { "type": "MultiPolygon", "coordinates": [ [ [ [ 736.853670846337081, -647.16642086420859 ], [ 736.843953165488415, -647.163037171919541 ], [ 736.853670846337081, -647.135128806444186 ], [ 736.853670846337081, -647.16642086420859 ] ] ], [ [ [ 736.853670846337081, -647.16642086420859 ], [ 736.853670846337081, -647.135128806444186 ], [ 737.661954759554078, -647.447864974912591 ], [ 736.853670846337081, -647.16642086420859 ] ] ], [ [ [ 737.661954759554078, -647.447864974912591 ], [ 736.853670846337081, -647.135128806444186 ], [ 737.661954759554078, -647.416572916965038 ], [ 737.661954759554078, -647.447864974912591 ] ] ], [ [ [ 737.661954759554078, -647.447864974912591 ], [ 737.661954759554078, -647.416572916965038 ], [ 737.673475915242761, -647.453632546452582 ], [ 737.661954759554078, -647.447864974912591 ] ] ], [ [ [ 737.673475915242761, -647.453632546452582 ], [ 737.661954759554078, -647.416572916965038 ], [ 737.673475915242761, -647.420584578414605 ], [ 737.673475915242761, -647.453632546452582 ] ] ], [ [ [ 737.673475915242761, -647.453632546452582 ], [ 737.673475915242761, -647.420584578414605 ], [ 738.239220625667485, -647.736848326097061 ], [ 737.673475915242761, -647.453632546452582 ] ] ], [ [ [ 738.239220625667485, -647.736848326097061 ], [ 737.673475915242761, -647.420584578414605 ], [ 738.239220625667485, -647.703800358251556 ], [ 738.239220625667485, -647.736848326097061 ] ] ], [ [ [ 738.239220625667485, -647.736848326097061 ], [ 738.239220625667485, -647.703800358251556 ], [ 738.252449433579159, -647.710422792505028 ], [ 738.239220625667485, -647.736848326097061 ] ] ] ] } },
{ "type": "Feature", "properties": { "Layer": "BARRERA", "PaperSpace": null, "SubClasses": null, "Linetype": null, "EntityHandle": "1D1EE355", "Text": null }, "geometry": { "type": "LineString", "coordinates": [ [ 736.843953165488415, -647.163037171919541, 0.0 ], [ 736.853670846337081, -647.135128806444186, 0.0 ], [ 737.673475915242761, -647.420584578414605, 0.0 ], [ 738.252449433579159, -647.710422792505028, 0.0 ], [ 738.239220625667485, -647.736848326097061, 0.0 ], [ 737.661954759554078, -647.447864974912591, 0.0 ], [ 736.843953165488415, -647.163037171919541, 0.0 ] ] } },
{ "type": "Feature", "properties": { "Layer": "BARRERA", "PaperSpace": null, "SubClasses": null, "Linetype": null, "EntityHandle": "1D1EE359", "Text": null }, "geometry": { "type": "LineString", "coordinates": [ [ 737.448296967142937, -651.685171194346935, 0.0 ], [ 737.410080890583686, -651.694767179799442, 0.0 ] ] } },
{ "type": "Feature", "properties": { "Layer": "BARRERA", "PaperSpace": null, "SubClasses": null, "Linetype": null, "EntityHandle": "1D1EE361", "Text": null }, "geometry": { "type": "LineString", "coordinates": [ [ 740.835120688450161, -650.365955178048125, 0.0 ], [ 740.856628414647048, -650.345688755136052, 0.0 ] ] } },
{ "type": "Feature", "properties": { "Layer": "BARRERA", "PaperSpace": null, "SubClasses": null, "Linetype": "CONTINUOUS", "EntityHandle": "1D1EE387", "Text": "     PATIO" }, "geometry": { "type": "Point", "coordinates": [ 761.00508371827641, -621.956182754244992, 0.0 ] } },
{ "type": "Feature", "properties": { "Layer": "BARRERA", "PaperSpace": null, "SubClasses": null, "Linetype": "CONTINUOUS", "EntityHandle": "1D1EE387", "Text": "MATERIALES" }, "geometry": { "type": "Point", "coordinates": [ 760.900197634927281, -622.268734017561428, 0.0 ] } },
{ "type": "Feature", "properties": { "Layer": "BARRERA", "PaperSpace": null, "SubClasses": null, "Linetype": null, "EntityHandle": "1D1EE3C7", "Text": null }, "geometry": { "type": "LineString", "coordinates": [ [ 761.308677595585436, -645.432047182511269, 0.0 ], [ 758.923402352331323, -645.581400872348809, 0.0 ], [ 758.223264304094414, -645.067144190364843, 0.0 ], [ 757.969947966640007, -643.18694042635525, 0.0 ], [ 759.47963298541606, -642.334909467521356, 0.0 ], [ 759.489316176672105, -642.352066788613456, 0.0 ], [ 757.991254915536501, -643.197537570298095, 0.0 ], [ 758.241671719919964, -645.056219970384063, 0.0 ], [ 758.929304593151755, -645.561291506922885, 0.0 ], [ 761.315693542279746, -645.411868082519391, 0.0 ] ] } },
{ "type": "Feature", "properties": { "Layer": "BARRERA", "PaperSpace": null, "SubClasses": null, "Linetype": null, "EntityHandle": "1D1EE3D8", "Text": null }, "geometry": { "type": "LineString", "coordinates": [ [ 750.858935872610004, -643.01149313705298, 0.0 ], [ 750.863724507765369, -643.08252743882872, 0.0 ], [ 750.867865584665196, -643.348931514333685, 0.0 ], [ 750.788114967230626, -643.989567535303991, 0.0 ], [ 750.627775663108537, -644.5523694217203, 0.0 ], [ 750.422322232739248, -644.901859927963869, 0.0 ], [ 749.434428372793036, -645.749397887564328, 0.0 ], [ 748.994196550910829, -646.056132211387649, 0.0 ], [ 747.465360174206694, -646.356249668712849, 0.0 ], [ 745.804449522009349, -646.672825598296868, 0.0 ], [ 745.761226353150278, -646.147405632611822, 0.0 ], [ 747.099718908514433, -644.164149421195816, 0.0 ], [ 747.11604901836813, -644.175170554251849, 0.0 ], [ 745.781428761419534, -646.152689146917282, 0.0 ], [ 745.822287708347517, -646.649369678781795, 0.0 ], [ 747.461618282692598, -646.336906994696619, 0.0 ], [ 748.986334488289003, -646.037598345466108, 0.0 ], [ 749.422352486295608, -645.733800030148927, 0.0 ], [ 750.407002241491682, -644.889045266295852, 0.0 ], [ 750.609517376805115, -644.54455300338509, 0.0 ], [ 750.768752048518422, -643.9856284520705, 0.0 ], [ 750.848145373684133, -643.347862556718496, 0.0 ], [ 750.844033600417674, -643.083343643444891, 0.0 ] ] } },
{ "type": "Feature", "properties": { "Layer": "BARRERA", "PaperSpace": null, "SubClasses": null, "Linetype": null, "EntityHandle": "1D1EE406", "Text": null }, "geometry": { "type": "LineString", "coordinates": [ [ 753.349036948866569, -642.42063013574375, 0.0 ], [ 753.279613026217248, -642.263683413506214, 0.0 ], [ 753.100544689131993, -642.220178102279988, 0.0 ], [ 752.111922377857127, -642.488792780767653, 0.0 ], [ 752.344457137015183, -644.74721641839551, 0.0 ], [ 753.327435859728212, -645.73263968254787, 0.0 ], [ 755.468722025711486, -645.64904829061652, 0.0 ], [ 755.816603440458607, -644.966054297835512, 0.0 ], [ 754.603978259036694, -644.743339865056782, 0.0 ], [ 754.600419400079886, -644.762716974766931, 0.0 ], [ 755.787055398870621, -644.980658155186802, 0.0 ], [ 755.456410026477442, -645.629812704728238, 0.0 ], [ 753.335289892399146, -645.712616856412183, 0.0 ], [ 752.363339196579204, -644.738249044522945, 0.0 ], [ 752.133233595719616, -642.503417873667331, 0.0 ], [ 753.100818956580952, -642.24051906214288, 0.0 ], [ 753.265524534248698, -642.280534888065517, 0.0 ], [ 753.332084053062999, -642.431006050074984, 0.0 ] ] } },
{ "type": "Feature", "properties": { "Layer": "BARRERA", "PaperSpace": null, "SubClasses": null, "Linetype": null, "EntityHandle": "1D1EE422", "Text": null }, "geometry": { "type": "LineString", "coordinates": [ [ 758.756835743298097, -642.187854089206667, 0.0 ], [ 757.857511028342287, -642.653999581943594, 0.0 ], [ 757.843889814017643, -642.404641905496192, 0.0 ], [ 757.863561701023968, -642.403567324523806, 0.0 ], [ 757.875519565956665, -642.622474783556868, 0.0 ], [ 758.745838000416256, -642.171364068348225, 0.0 ] ] } },
{ "type": "Feature", "properties": { "Layer": "BARRERA", "PaperSpace": null, "SubClasses": null, "Linetype": "CONTINUOUS", "EntityHandle": "1D1EE4C1", "Text": "ESTANQUE" }, "geometry": { "type": "Point", "coordinates": [ 772.45082572740921, -626.655519436882173, 0.0 ] } },
{ "type": "Feature", "properties": { "Layer": "BARRERA", "PaperSpace": null, "SubClasses": null, "Linetype": "CONTINUOUS", "EntityHandle": "1D1F1665", "Text": "PLANTA" }, "geometry": { "type": "Point", "coordinates": [ 776.369183770935479, -618.389903669200748, -0.0 ] } },
{ "type": "Feature", "properties": { "Layer": "BARRERA", "PaperSpace": null, "SubClasses": null, "Linetype": "CONTINUOUS", "EntityHandle": "1D1F1665", "Text": "YAL" }, "geometry": { "type": "Point", "coordinates": [ 776.293044033160754, -618.709307508916936, -0.0 ] } },
{ "type": "Feature", "properties": { "Layer": "BARRERA", "PaperSpace": null, "SubClasses": null, "Linetype": "CONTINUOUS", "EntityHandle": "1D1F19A2", "Text": "ESTANQUE" }, "geometry": { "type": "Point", "coordinates": [ 768.934206884455421, -625.968284251458272, 0.0 ] } },
{ "type": "Feature", "properties": { "Layer": "BARRERA", "PaperSpace": null, "SubClasses": null, "Linetype": "CONTINUOUS", "EntityHandle": "1D1F19A4", "Text": "ESTANQUE" }, "geometry": { "type": "Point", "coordinates": [ 776.037195602357428, -625.286758142296776, 0.0 ] } },
{ "type": "Feature", "properties": { "Layer": "BARRERA", "PaperSpace": null, "SubClasses": null, "Linetype": "CONTINUOUS", "EntityHandle": "1D1F19A6", "Text": "ESTANQUE" }, "geometry": { "type": "Point", "coordinates": [ 773.073898671503116, -622.619761056278094, 0.0 ] } },
{ "type": "Feature", "properties": { "Layer": "BARRERA", "PaperSpace": null, "SubClasses": null, "Linetype": "CONTINUOUS", "EntityHandle": "1D1F1A04", "Text": "TOLVA" }, "geometry": { "type": "Point", "coordinates": [ 767.638350365080214, -623.371980924439754, 0.0 ] } },
{ "type": "Feature", "properties": { "Layer": "BARRERA", "PaperSpace": null, "SubClasses": null, "Linetype": "CONTINUOUS", "EntityHandle": "1D1F1A04", "Text": "VISCERAS" }, "geometry": { "type": "Point", "coordinates": [ 767.581245561749142, -623.611533804226838, 0.0 ] } }
]
}
