{
"type": "FeatureCollection",
"name": "SELECT",
"features": [
{ "type": "Feature", "properties": { "Layer": "BENCINA", "PaperSpace": null, "SubClasses": null, "Linetype": null, "EntityHandle": "1D1EE36E", "Text": null }, "geometry": { "type": "LineString", "coordinates": [ [ 750.299840998748778, -636.901102770173793, 0.0 ], [ 748.541383308253671, -637.111675480795611, 0.0 ] ] } },
{ "type": "Feature", "properties": { "Layer": "BENCINA", "PaperSpace": null, "SubClasses": null, "Linetype": null, "EntityHandle": "1D1EE36F", "Text": null }, "geometry": { "type": "LineString", "coordinates": [ [ 750.300309746434777, -636.905017204151704, 0.0 ], [ 748.541852055939557, -637.115589914773523, 0.0 ] ] } },
{ "type": "Feature", "properties": { "Layer": "BENCINA", "PaperSpace": null, "SubClasses": null, "Linetype": null, "EntityHandle": "1D1EE370", "Text": null }, "geometry": { "type": "LineString", "coordinates": [ [ 750.277371403320785, -636.685412350890488, 0.0 ], [ 749.082775555207149, -636.828463438894687, 0.0 ] ] } },
{ "type": "Feature", "properties": { "Layer": "BENCINA", "PaperSpace": null, "SubClasses": null, "Linetype": null, "EntityHandle": "1D1EE371", "Text": null }, "geometry": { "type": "LineString", "coordinates": [ [ 750.225398477819226, -636.076198329722729, 0.0 ], [ 749.030802629705477, -636.219249417726928, 0.0 ] ] } },
{ "type": "Feature", "properties": { "Layer": "BENCINA", "PaperSpace": null, "SubClasses": null, "Linetype": null, "EntityHandle": "1D1EE3CD", "Text": null }, "geometry": { "type": "LineString", "coordinates": [ [ 750.404645537922647, -638.465267772550305, 0.0 ], [ 750.178577331674205, -638.4828229305283, 0.0 ] ] } },
{ "type": "Feature", "properties": { "Layer": "BENCINA", "PaperSpace": null, "SubClasses": null, "Linetype": null, "EntityHandle": "1D1EE3CE", "Text": null }, "geometry": { "type": "LineString", "coordinates": [ [ 750.453386106165681, -638.947857926310689, 0.0 ], [ 750.227317899917466, -638.965413084288684, 0.0 ] ] } },
{ "type": "Feature", "properties": { "Layer": "BENCINA", "PaperSpace": null, "SubClasses": null, "Linetype": null, "EntityHandle": "1D1EE3CF", "Text": null }, "geometry": { "type": "LineString", "coordinates": [ [ 750.527334275543467, -639.19321160714378, 0.0 ], [ 748.774577325724408, -639.329320641057734, 0.0 ] ] } },
{ "type": "Feature", "properties": { "Layer": "BENCINA", "PaperSpace": null, "SubClasses": null, "Linetype": null, "EntityHandle": "1D1EE3D0", "Text": null }, "geometry": { "type": "LineString", "coordinates": [ [ 750.509521027598453, -639.214366225785966, 0.0 ], [ 748.776460531391649, -639.348945746282084, 0.0 ] ] } },
{ "type": "Feature", "properties": { "Layer": "BENCINA", "PaperSpace": null, "SubClasses": null, "Linetype": null, "EntityHandle": "1D1EE3D1", "Text": null }, "geometry": { "type": "LineString", "coordinates": [ [ 750.601019329909718, -639.978343415440236, 0.0 ], [ 750.581363955604957, -639.979869738874868, 0.0 ] ] } },
{ "type": "Feature", "properties": { "Layer": "BENCINA", "PaperSpace": null, "SubClasses": null, "Linetype": null, "EntityHandle": "1D1EE3D2", "Text": null }, "geometry": { "type": "LineString", "coordinates": [ [ 750.616280591576015, -640.174871755107461, 0.0 ], [ 750.599785219196747, -640.176152690949039, 0.0 ] ] } },
{ "type": "Feature", "properties": { "Layer": "BENCINA", "PaperSpace": null, "SubClasses": null, "Linetype": null, "EntityHandle": "1D1EE3D3", "Text": null }, "geometry": { "type": "LineString", "coordinates": [ [ 750.648914615247463, -640.488679090832989, 0.0 ], [ 750.624203237863981, -640.490598034416621, 0.0 ] ] } },
{ "type": "Feature", "properties": { "Layer": "BENCINA", "PaperSpace": null, "SubClasses": null, "Linetype": null, "EntityHandle": "1D1EE3D4", "Text": null }, "geometry": { "type": "LineString", "coordinates": [ [ 750.601019329909604, -639.978343415440349, 0.0 ], [ 750.527334275543467, -639.193211607143894, 0.0 ] ] } },
{ "type": "Feature", "properties": { "Layer": "BENCINA", "PaperSpace": null, "SubClasses": null, "Linetype": null, "EntityHandle": "1D1EE3D5", "Text": null }, "geometry": { "type": "LineString", "coordinates": [ [ 750.62741711458375, -640.470577119060295, 0.0 ], [ 750.599785219196292, -640.176152690949039, 0.0 ] ] } },
{ "type": "Feature", "properties": { "Layer": "BENCINA", "PaperSpace": null, "SubClasses": null, "Linetype": null, "EntityHandle": "1D1EE3D6", "Text": null }, "geometry": { "type": "LineString", "coordinates": [ [ 750.581363955604957, -639.979869738875095, 0.0 ], [ 750.509521027598453, -639.214366225785966, 0.0 ] ] } },
{ "type": "Feature", "properties": { "Layer": "BENCINA", "PaperSpace": null, "SubClasses": null, "Linetype": null, "EntityHandle": "1D1EE3D9", "Text": null }, "geometry": { "type": "LineString", "coordinates": [ [ 750.227317899917466, -638.965413084288798, 0.0 ], [ 750.178577331674205, -638.4828229305283, 0.0 ] ] } },
{ "type": "Feature", "properties": { "Layer": "BENCINA", "PaperSpace": null, "SubClasses": null, "Linetype": null, "EntityHandle": "1D1EE3DA", "Text": null }, "geometry": { "type": "LineString", "coordinates": [ [ 750.453386106165567, -638.947857926310689, 0.0 ], [ 750.404645537922647, -638.465267772550305, 0.0 ] ] } }
]
}
