{
"type": "FeatureCollection",
"name": "SELECT",
"features": [
{ "type": "Feature", "properties": { "Layer": "CERCO", "PaperSpace": null, "SubClasses": null, "Linetype": null, "EntityHandle": "1D1EE301", "Text": null }, "geometry": { "type": "LineString", "coordinates": [ [ 779.136052196777541, -638.219919003399241, 0.0 ], [ 778.384565195747996, -638.825111199660569, 0.0 ] ] } },
{ "type": "Feature", "properties": { "Layer": "CERCO", "PaperSpace": null, "SubClasses": null, "Linetype": null, "EntityHandle": "1D1EE32A", "Text": null }, "geometry": { "type": "LineString", "coordinates": [ [ 738.431570265512164, -651.110890925680451, 0.0 ], [ 740.440743709272624, -650.710131679041865, 0.0 ], [ 744.495686479322558, -649.954241932743116, 0.0 ], [ 746.180327635178969, -649.590246476748007, 0.0 ], [ 749.404590214412565, -649.002398183960736, 0.0 ], [ 750.924079140428944, -648.695620459642441, 0.0 ] ] } },
{ "type": "Feature", "properties": { "Layer": "CERCO", "PaperSpace": null, "SubClasses": null, "Linetype": null, "EntityHandle": "1D1EE330", "Text": null }, "geometry": { "type": "LineString", "coordinates": [ [ 734.757106964676382, -636.623736605134241, 0.0 ], [ 735.184434051642484, -638.265004065248377, 0.0 ] ] } },
{ "type": "Feature", "properties": { "Layer": "CERCO", "PaperSpace": null, "SubClasses": null, "Linetype": null, "EntityHandle": "1D1EE347", "Text": null }, "geometry": { "type": "LineString", "coordinates": [ [ 739.14252780923141, -653.705467791306432, 0.0 ], [ 738.747783571691684, -652.269097698977589, 0.0 ], [ 738.431570265512164, -651.110890925680451, 0.0 ] ] } },
{ "type": "Feature", "properties": { "Layer": "CERCO", "PaperSpace": null, "SubClasses": null, "Linetype": null, "EntityHandle": "1D1EE34A", "Text": null }, "geometry": { "type": "LineString", "coordinates": [ [ 738.426793614677649, -647.885392643899991, 0.0 ], [ 737.805156164968707, -648.536964745371051, 0.0 ] ] } },
{ "type": "Feature", "properties": { "Layer": "CERCO", "PaperSpace": null, "SubClasses": null, "Linetype": null, "EntityHandle": "1D1EE352", "Text": null }, "geometry": { "type": "LineString", "coordinates": [ [ 737.805156164968707, -648.536964745371051, 0.0 ], [ 738.431570265512164, -651.110890925680451, 0.0 ] ] } },
{ "type": "Feature", "properties": { "Layer": "CERCO", "PaperSpace": null, "SubClasses": null, "Linetype": null, "EntityHandle": "1D1EE386", "Text": null }, "geometry": { "type": "LineString", "coordinates": [ [ 760.934475629682765, -624.227546115569112, 0.0 ], [ 759.692219043423961, -621.568199117778477, 0.0 ], [ 762.585501043716704, -620.212821055555878, 0.0 ], [ 763.790757663673276, -622.899905580674158, 0.0 ], [ 760.934475629682765, -624.227546115569112, 0.0 ] ] } },
{ "type": "Feature", "properties": { "Layer": "CERCO", "PaperSpace": null, "SubClasses": null, "Linetype": null, "EntityHandle": "1D1EE38C", "Text": null }, "geometry": { "type": "LineString", "coordinates": [ [ 762.585501043716704, -620.212821055555878, 0.0 ], [ 762.559118301227272, -620.050775365525396, 0.0 ] ] } },
{ "type": "Feature", "properties": { "Layer": "CERCO", "PaperSpace": null, "SubClasses": null, "Linetype": null, "EntityHandle": "1D1EE3CA", "Text": null }, "geometry": { "type": "LineString", "coordinates": [ [ 765.873344064991329, -645.885940145041332, 0.0 ], [ 761.934863541969094, -646.654479515762091, 0.0 ] ] } },
{ "type": "Feature", "properties": { "Layer": "CERCO", "PaperSpace": null, "SubClasses": null, "Linetype": null, "EntityHandle": "1D1EE42C", "Text": null }, "geometry": { "type": "LineString", "coordinates": [ [ 756.641716976880616, -647.634304633833835, 0.0 ], [ 750.924079140428944, -648.695620459642441, 0.0 ] ] } },
{ "type": "Feature", "properties": { "Layer": "CERCO", "PaperSpace": null, "SubClasses": null, "Linetype": null, "EntityHandle": "1D1EE42D", "Text": null }, "geometry": { "type": "LineString", "coordinates": [ [ 761.934863541969094, -646.654479515762091, 0.0 ], [ 756.641716976880616, -647.634304633833835, 0.0 ] ] } },
{ "type": "Feature", "properties": { "Layer": "CERCO", "PaperSpace": null, "SubClasses": null, "Linetype": null, "EntityHandle": "1D1EE431", "Text": null }, "geometry": { "type": "LineString", "coordinates": [ [ 775.595291236553521, -641.093747692433226, 0.0 ], [ 773.853567553567814, -642.556700834666344, 0.0 ], [ 772.621280790022411, -643.60262221244966, 0.0 ], [ 771.57967676765918, -644.175501965367744, 0.0 ] ] } },
{ "type": "Feature", "properties": { "Layer": "CERCO", "PaperSpace": null, "SubClasses": null, "Linetype": null, "EntityHandle": "1D1EE440", "Text": null }, "geometry": { "type": "LineString", "coordinates": [ [ 776.833483541788041, -640.049293601001409, 0.0 ], [ 775.595291236553521, -641.093747692433226, 0.0 ] ] } },
{ "type": "Feature", "properties": { "Layer": "CERCO", "PaperSpace": null, "SubClasses": null, "Linetype": null, "EntityHandle": "1D1EE441", "Text": null }, "geometry": { "type": "LineString", "coordinates": [ [ 778.384565195747996, -638.825111199660569, 0.0 ], [ 776.833483541788041, -640.049293601001409, 0.0 ] ] } },
{ "type": "Feature", "properties": { "Layer": "CERCO", "PaperSpace": null, "SubClasses": null, "Linetype": null, "EntityHandle": "1D1EE442", "Text": null }, "geometry": { "type": "LineString", "coordinates": [ [ 765.873344064991329, -645.885940145041332, 0.0 ], [ 766.259941507712256, -645.804676128004417, 0.0 ], [ 766.479442129703898, -645.745444236838352, 0.0 ], [ 767.211343868639005, -645.626504496220832, 0.0 ], [ 768.323843589827106, -645.376088660751634, 0.0 ], [ 769.035673407562967, -645.203184084791474, 0.0 ], [ 769.985024784937195, -644.881296092381717, 0.0 ], [ 770.999728645757273, -644.429540307686011, 0.0 ], [ 771.57967676765918, -644.175501965367744, 0.0 ] ] } },
{ "type": "Feature", "properties": { "Layer": "CERCO", "PaperSpace": null, "SubClasses": null, "Linetype": null, "EntityHandle": "1D1EE4AA", "Text": null }, "geometry": { "type": "LineString", "coordinates": [ [ 791.97746595974013, -628.611332543747722, 0.0 ], [ 782.648579677208318, -635.642248704206281, 0.0 ] ] } },
{ "type": "Feature", "properties": { "Layer": "CERCO", "PaperSpace": null, "SubClasses": null, "Linetype": null, "EntityHandle": "1D1EE4AB", "Text": null }, "geometry": { "type": "LineString", "coordinates": [ [ 782.648579677208318, -635.642248704206281, 0.0 ], [ 779.136052196777541, -638.219919003399241, 0.0 ] ] } },
{ "type": "Feature", "properties": { "Layer": "CERCO", "PaperSpace": null, "SubClasses": null, "Linetype": null, "EntityHandle": "1D1EE4AD", "Text": null }, "geometry": { "type": "LineString", "coordinates": [ [ 783.87530136422572, -634.65588186669504, 0.0 ], [ 784.123171345555647, -634.720738120596252, 0.0 ] ] } },
{ "type": "Feature", "properties": { "Layer": "CERCO", "PaperSpace": null, "SubClasses": null, "Linetype": null, "EntityHandle": "1D1EE4AE", "Text": null }, "geometry": { "type": "LineString", "coordinates": [ [ 783.934635711501983, -634.808960067459566, 0.0 ], [ 784.049553198925537, -634.56337291827856, 0.0 ] ] } }
]
}
