{
"type": "FeatureCollection",
"name": "SELECT",
"features": [
{ "type": "Feature", "properties": { "Layer": "CIMENTACION", "PaperSpace": null, "SubClasses": null, "Linetype": null, "EntityHandle": "1D1F08F9", "Text": "100cm." }, "geometry": { "type": "Point", "coordinates": [ 759.650071014396872, -639.65830029493452, 0.0 ] } },
{ "type": "Feature", "properties": { "Layer": "CIMENTACION", "PaperSpace": null, "SubClasses": null, "Linetype": null, "EntityHandle": "1D1F0905", "Text": "70cm." }, "geometry": { "type": "Point", "coordinates": [ 758.163124389904397, -639.04570085190835, 0.0 ] } },
{ "type": "Feature", "properties": { "Layer": "CIMENTACION", "PaperSpace": null, "SubClasses": null, "Linetype": null, "EntityHandle": "1D1F0909", "Text": "70cm." }, "geometry": { "type": "Point", "coordinates": [ 758.228538021214035, -639.168135650135241, 0.0 ] } },
{ "type": "Feature", "properties": { "Layer": "CIMENTACION", "PaperSpace": null, "SubClasses": null, "Linetype": null, "EntityHandle": "1D1F090D", "Text": "70cm." }, "geometry": { "type": "Point", "coordinates": [ 757.93465213985769, -639.322117773910122, 0.0 ] } },
{ "type": "Feature", "properties": { "Layer": "CIMENTACION", "PaperSpace": null, "SubClasses": null, "Linetype": null, "EntityHandle": "1D1F0911", "Text": "70cm." }, "geometry": { "type": "Point", "coordinates": [ 758.62313105213434, -640.448396089851485, 0.0 ] } },
{ "type": "Feature", "properties": { "Layer": "CIMENTACION", "PaperSpace": null, "SubClasses": null, "Linetype": null, "EntityHandle": "1D1F091D", "Text": "70cm." }, "geometry": { "type": "Point", "coordinates": [ 758.839956145034876, -639.575457223427634, 0.0 ] } },
{ "type": "Feature", "properties": { "Layer": "CIMENTACION", "PaperSpace": null, "SubClasses": null, "Linetype": null, "EntityHandle": "1D1F0925", "Text": "150cm." }, "geometry": { "type": "Point", "coordinates": [ 760.195220296136768, -636.486477641387182, 0.0 ] } },
{ "type": "Feature", "properties": { "Layer": "CIMENTACION", "PaperSpace": null, "SubClasses": null, "Linetype": null, "EntityHandle": "1D1F0929", "Text": "150cm." }, "geometry": { "type": "Point", "coordinates": [ 760.700890415982599, -636.231718882666769, 0.0 ] } },
{ "type": "Feature", "properties": { "Layer": "CIMENTACION", "PaperSpace": null, "SubClasses": null, "Linetype": null, "EntityHandle": "1D1F092D", "Text": "150cm." }, "geometry": { "type": "Point", "coordinates": [ 761.601802564767354, -635.777835507453005, 0.0 ] } },
{ "type": "Feature", "properties": { "Layer": "CIMENTACION", "PaperSpace": null, "SubClasses": null, "Linetype": null, "EntityHandle": "1D1F0931", "Text": "150cm." }, "geometry": { "type": "Point", "coordinates": [ 762.112123633893134, -635.520733580688898, 0.0 ] } },
{ "type": "Feature", "properties": { "Layer": "CIMENTACION", "PaperSpace": null, "SubClasses": null, "Linetype": null, "EntityHandle": "1D1F0935", "Text": "150cm." }, "geometry": { "type": "Point", "coordinates": [ 763.172560018242393, -634.986481216596417, 0.0 ] } },
{ "type": "Feature", "properties": { "Layer": "CIMENTACION", "PaperSpace": null, "SubClasses": null, "Linetype": null, "EntityHandle": "1D1F0953", "Text": "50cm." }, "geometry": { "type": "Point", "coordinates": [ 764.035009901689818, -633.250220792930463, 0.0 ] } },
{ "type": "Feature", "properties": { "Layer": "CIMENTACION", "PaperSpace": null, "SubClasses": null, "Linetype": null, "EntityHandle": "1D1F0957", "Text": "90cm." }, "geometry": { "type": "Point", "coordinates": [ 762.318472182810524, -630.492358612801809, 0.0 ] } },
{ "type": "Feature", "properties": { "Layer": "CIMENTACION", "PaperSpace": null, "SubClasses": null, "Linetype": null, "EntityHandle": "1D1F095B", "Text": "90cm." }, "geometry": { "type": "Point", "coordinates": [ 762.137863220394479, -630.588283670789906, 0.0 ] } },
{ "type": "Feature", "properties": { "Layer": "CIMENTACION", "PaperSpace": null, "SubClasses": null, "Linetype": null, "EntityHandle": "1D1F0C13", "Text": "70cm." }, "geometry": { "type": "Point", "coordinates": [ 748.364569262327564, -628.251871801505558, 0.0 ] } },
{ "type": "Feature", "properties": { "Layer": "CIMENTACION", "PaperSpace": null, "SubClasses": null, "Linetype": null, "EntityHandle": "1D1F17C4", "Text": "90cm." }, "geometry": { "type": "Point", "coordinates": [ 757.555323851580056, -642.507093257451061, 0.0 ] } },
{ "type": "Feature", "properties": { "Layer": "CIMENTACION", "PaperSpace": null, "SubClasses": null, "Linetype": null, "EntityHandle": "1D1F1952", "Text": "80cm." }, "geometry": { "type": "Point", "coordinates": [ 755.256491454635125, -635.237559896296489, 0.0 ] } },
{ "type": "Feature", "properties": { "Layer": "CIMENTACION", "PaperSpace": null, "SubClasses": null, "Linetype": null, "EntityHandle": "1D1F1958", "Text": "50cm." }, "geometry": { "type": "Point", "coordinates": [ 754.120403157892952, -635.145121919395478, 0.0 ] } },
{ "type": "Feature", "properties": { "Layer": "CIMENTACION", "PaperSpace": null, "SubClasses": null, "Linetype": null, "EntityHandle": "1D1F1965", "Text": "130cm." }, "geometry": { "type": "Point", "coordinates": [ 753.534951151057385, -635.347514802985415, 0.0 ] } }
]
}
