{
"type": "FeatureCollection",
"name": "SELECT",
"features": [
{ "type": "Feature", "properties": { "Layer": "ESCALERA", "PaperSpace": null, "SubClasses": null, "Linetype": null, "EntityHandle": "1D1EE37E", "Text": null }, "geometry": { "type": "LineString", "coordinates": [ [ 754.631276151154225, -629.504999020516607, 0.0 ], [ 754.671824162780808, -629.552418119977574, 0.0 ], [ 754.696889778325044, -629.599933936263824, 0.0 ] ] } },
{ "type": "Feature", "properties": { "Layer": "ESCALERA", "PaperSpace": null, "SubClasses": null, "Linetype": null, "EntityHandle": "1D1EE37F", "Text": null }, "geometry": { "type": "LineString", "coordinates": [ [ 754.631276151154225, -629.504999020516607, 0.0 ], [ 754.124078373945963, -629.757158944579714, 0.0 ] ] } },
{ "type": "Feature", "properties": { "Layer": "ESCALERA", "PaperSpace": null, "SubClasses": null, "Linetype": null, "EntityHandle": "1D1EE380", "Text": null }, "geometry": { "type": "LineString", "coordinates": [ [ 753.785208849509786, -629.92757323162698, 0.0 ], [ 754.129286456001182, -629.75452919713382, 0.0 ], [ 754.089481208051438, -629.71364361586825, 0.0 ], [ 754.595284151293527, -629.466145327633171, 0.0 ] ] } },
{ "type": "Feature", "properties": { "Layer": "ESCALERA", "PaperSpace": null, "SubClasses": null, "Linetype": null, "EntityHandle": "1D1EE381", "Text": null }, "geometry": { "type": "LineString", "coordinates": [ [ 754.671824162780808, -629.552418119977574, 0.0 ], [ 753.825455005233152, -629.984460507022504, 0.0 ] ] } },
{ "type": "Feature", "properties": { "Layer": "ESCALERA", "PaperSpace": null, "SubClasses": null, "Linetype": null, "EntityHandle": "1D1EE382", "Text": null }, "geometry": { "type": "LineString", "coordinates": [ [ 754.595284151293527, -629.466145327633171, 0.0 ], [ 754.631276151154225, -629.504999020516607, 0.0 ] ] } },
{ "type": "Feature", "properties": { "Layer": "ESCALERA", "PaperSpace": null, "SubClasses": null, "Linetype": null, "EntityHandle": "1D1EE383", "Text": null }, "geometry": { "type": "LineString", "coordinates": [ [ 753.785208849509786, -629.92757323162698, 0.0 ], [ 753.825455005233152, -629.984460507022504, 0.0 ], [ 753.854693075689852, -630.022483968165147, 0.0 ], [ 754.696889778325044, -629.599933936263824, 0.0 ] ] } },
{ "type": "Feature", "properties": { "Layer": "ESCALERA", "PaperSpace": null, "SubClasses": null, "Linetype": null, "EntityHandle": "1D1EE46A", "Text": null }, "geometry": { "type": "LineString", "coordinates": [ [ 783.636069143728832, -610.73624672276776, 0.0 ], [ 784.122861464761286, -611.579064951321584, 0.0 ] ] } },
{ "type": "Feature", "properties": { "Layer": "ESCALERA", "PaperSpace": null, "SubClasses": null, "Linetype": null, "EntityHandle": "1D1EE46B", "Text": null }, "geometry": { "type": "LineString", "coordinates": [ [ 785.975079920253847, -613.67644825806542, 0.0 ], [ 784.032453513305768, -610.916598311395205, 0.0 ] ] } },
{ "type": "Feature", "properties": { "Layer": "ESCALERA", "PaperSpace": null, "SubClasses": null, "Linetype": null, "EntityHandle": "1D1EE46C", "Text": null }, "geometry": { "type": "LineString", "coordinates": [ [ 784.067482082033052, -610.908778381423531, 0.0 ], [ 786.001812438962361, -613.656212022423688, 0.0 ] ] } },
{ "type": "Feature", "properties": { "Layer": "ESCALERA", "PaperSpace": null, "SubClasses": null, "Linetype": null, "EntityHandle": "1D1EE46D", "Text": null }, "geometry": { "type": "LineString", "coordinates": [ [ 786.111554751947779, -613.573138245341056, 0.0 ], [ 784.203698353507093, -610.842636122062231, 0.0 ] ] } },
{ "type": "Feature", "properties": { "Layer": "ESCALERA", "PaperSpace": null, "SubClasses": null, "Linetype": null, "EntityHandle": "1D1EE46E", "Text": null }, "geometry": { "type": "LineString", "coordinates": [ [ 784.208401982575083, -610.802595617921043, 0.0 ], [ 786.13420761198131, -613.555990268584878, 0.0 ] ] } },
{ "type": "Feature", "properties": { "Layer": "ESCALERA", "PaperSpace": null, "SubClasses": null, "Linetype": null, "EntityHandle": "1D1EE46F", "Text": null }, "geometry": { "type": "LineString", "coordinates": [ [ 786.276115927795672, -613.448567165581608, 0.0 ], [ 784.318934081567363, -610.745628841887424, 0.0 ] ] } },
{ "type": "Feature", "properties": { "Layer": "ESCALERA", "PaperSpace": null, "SubClasses": null, "Linetype": null, "EntityHandle": "1D1EE470", "Text": null }, "geometry": { "type": "LineString", "coordinates": [ [ 784.346499214421897, -610.737374198188263, 0.0 ], [ 786.283013491786505, -613.443345782069287, 0.0 ] ] } },
{ "type": "Feature", "properties": { "Layer": "ESCALERA", "PaperSpace": null, "SubClasses": null, "Linetype": null, "EntityHandle": "1D1EE476", "Text": null }, "geometry": { "type": "LineString", "coordinates": [ [ 783.02787101309616, -609.707438254259955, 0.0 ], [ 783.636069143728832, -610.73624672276776, 0.0 ] ] } },
{ "type": "Feature", "properties": { "Layer": "ESCALERA", "PaperSpace": null, "SubClasses": null, "Linetype": null, "EntityHandle": "1D1EE477", "Text": null }, "geometry": { "type": "LineString", "coordinates": [ [ 784.318934081567363, -610.745628841887424, 0.0 ], [ 783.167230633784584, -608.913997539295792, 0.0 ] ] } },
{ "type": "Feature", "properties": { "Layer": "ESCALERA", "PaperSpace": null, "SubClasses": null, "Linetype": null, "EntityHandle": "1D1EE478", "Text": null }, "geometry": { "type": "LineString", "coordinates": [ [ 782.466349076731035, -609.296927722222335, 0.0 ], [ 782.948363237161971, -609.181402615219667, 0.0 ] ] } },
{ "type": "Feature", "properties": { "Layer": "ESCALERA", "PaperSpace": null, "SubClasses": null, "Linetype": null, "EntityHandle": "1D1EE479", "Text": null }, "geometry": { "type": "LineString", "coordinates": [ [ 782.461984887172321, -609.298979070768496, 0.0 ], [ 783.035858298221342, -609.029234952171805, 0.0 ] ] } },
{ "type": "Feature", "properties": { "Layer": "ESCALERA", "PaperSpace": null, "SubClasses": null, "Linetype": null, "EntityHandle": "1D1EE47A", "Text": null }, "geometry": { "type": "LineString", "coordinates": [ [ 783.192894423965072, -608.892787739653272, 0.0 ], [ 783.057246065237564, -609.004894115382058, 0.0 ], [ 783.035858298221342, -609.029234952171805, 0.0 ], [ 782.967003671236739, -609.176372524102021, 0.0 ], [ 782.948363237141507, -609.181402615403499, 0.0 ] ] } },
{ "type": "Feature", "properties": { "Layer": "ESCALERA", "PaperSpace": null, "SubClasses": null, "Linetype": null, "EntityHandle": "1D1EE47B", "Text": null }, "geometry": { "type": "LineString", "coordinates": [ [ 782.714258536465309, -609.237510864384717, 0.0 ], [ 783.02787101309616, -609.707438254259955, 0.0 ] ] } },
{ "type": "Feature", "properties": { "Layer": "ESCALERA", "PaperSpace": null, "SubClasses": null, "Linetype": null, "EntityHandle": "1D1EE47C", "Text": null }, "geometry": { "type": "LineString", "coordinates": [ [ 784.032453513305768, -610.916598311395205, 0.0 ], [ 782.948363237161971, -609.181402615219667, 0.0 ] ] } },
{ "type": "Feature", "properties": { "Layer": "ESCALERA", "PaperSpace": null, "SubClasses": null, "Linetype": null, "EntityHandle": "1D1EE47D", "Text": null }, "geometry": { "type": "LineString", "coordinates": [ [ 782.967003671236739, -609.176372524102021, 0.0 ], [ 784.067482082033052, -610.908778381423531, 0.0 ] ] } },
{ "type": "Feature", "properties": { "Layer": "ESCALERA", "PaperSpace": null, "SubClasses": null, "Linetype": null, "EntityHandle": "1D1EE47E", "Text": null }, "geometry": { "type": "LineString", "coordinates": [ [ 784.203698353507093, -610.842636122062231, 0.0 ], [ 783.035858298221342, -609.029234952171805, 0.0 ] ] } },
{ "type": "Feature", "properties": { "Layer": "ESCALERA", "PaperSpace": null, "SubClasses": null, "Linetype": null, "EntityHandle": "1D1EE47F", "Text": null }, "geometry": { "type": "LineString", "coordinates": [ [ 783.057246065237564, -609.004894115382058, 0.0 ], [ 784.208401982575083, -610.802595617921043, 0.0 ] ] } },
{ "type": "Feature", "properties": { "Layer": "ESCALERA", "PaperSpace": null, "SubClasses": null, "Linetype": null, "EntityHandle": "1D1EE480", "Text": null }, "geometry": { "type": "LineString", "coordinates": [ [ 783.192894423942334, -608.892787739647815, 0.0 ], [ 784.346499214421897, -610.737374198188263, 0.0 ] ] } },
{ "type": "Feature", "properties": { "Layer": "ESCALERA", "PaperSpace": null, "SubClasses": null, "Linetype": null, "EntityHandle": "1D1EE481", "Text": null }, "geometry": { "type": "LineString", "coordinates": [ [ 785.026715325780401, -612.86866590707757, 0.0 ], [ 785.722181741263967, -613.694557180446736, 0.0 ] ] } },
{ "type": "Feature", "properties": { "Layer": "ESCALERA", "PaperSpace": null, "SubClasses": null, "Linetype": null, "EntityHandle": "1D1EE482", "Text": null }, "geometry": { "type": "LineString", "coordinates": [ [ 784.442584520054993, -612.04701283384486, 0.0 ], [ 785.026715325780401, -612.86866590707757, 0.0 ] ] } },
{ "type": "Feature", "properties": { "Layer": "ESCALERA", "PaperSpace": null, "SubClasses": null, "Linetype": null, "EntityHandle": "1D1EE483", "Text": null }, "geometry": { "type": "LineString", "coordinates": [ [ 784.122861464761286, -611.579064951321584, 0.0 ], [ 784.442584520054993, -612.04701283384486, 0.0 ] ] } }
]
}
