{
"type": "FeatureCollection",
"name": "SELECT",
"features": [
{ "type": "Feature", "properties": { "Layer": "ESTANQUE-AGUA", "PaperSpace": null, "SubClasses": null, "Linetype": null, "EntityHandle": "1D1EE4C0", "Text": null }, "geometry": { "type": "LineString", "coordinates": [ [ 773.375756795909638, -625.841227009841532, 0.0 ], [ 773.805120715004705, -626.165723478302652, 0.0 ], [ 773.985493861202031, -626.446859061443661, 0.0 ], [ 774.021188802896177, -627.057925346496972, 0.0 ], [ 773.566958424317022, -627.578209959020455, 0.0 ], [ 772.990774081820746, -627.659414851789734, 0.0 ], [ 772.496905468860859, -627.374159200007171, 0.0 ], [ 772.229452674082495, -626.764161187925311, 0.0 ], [ 772.600759255005528, -625.973632615841552, 0.0 ], [ 773.375756795909638, -625.841227009841532, 0.0 ] ] } }
]
}
