{
"type": "FeatureCollection",
"name": "SELECT",
"features": [
{ "type": "Feature", "properties": { "Layer": "CAMARA", "PaperSpace": null, "SubClasses": null, "Linetype": null, "EntityHandle": "1D1EE3A1", "Text": null }, "geometry": { "type": "LineString", "coordinates": [ [ 763.494161388179805, -627.854914574457098, 0.0 ], [ 762.919540068460151, -626.889282394570273, 0.0 ], [ 763.471101391176944, -626.576176844165957, 0.0 ], [ 764.045722710874543, -627.541809024047438, 0.0 ], [ 763.494161388179805, -627.854914574457098, 0.0 ] ] } },
{ "type": "Feature", "properties": { "Layer": "CAMARA", "PaperSpace": null, "SubClasses": null, "Linetype": null, "EntityHandle": "1D1EE3A2", "Text": null }, "geometry": { "type": "LineString", "coordinates": [ [ 764.533898315122428, -626.186945106886242, 0.0 ], [ 764.679771368608272, -626.334295614616394, 0.0 ], [ 764.534573474591298, -626.469997008966857, 0.0 ], [ 764.372158304060122, -626.324865714515568, 0.0 ], [ 764.533898315122428, -626.186945106886242, 0.0 ] ] } },
{ "type": "Feature", "properties": { "Layer": "CAMARA", "PaperSpace": null, "SubClasses": null, "Linetype": null, "EntityHandle": "1D1EE3A3", "Text": null }, "geometry": { "type": "LineString", "coordinates": [ [ 762.819578843949785, -626.142260435424873, 0.0 ], [ 762.960780500567807, -626.182312047004643, 0.0 ] ] } },
{ "type": "Feature", "properties": { "Layer": "CAMARA", "PaperSpace": null, "SubClasses": null, "Linetype": null, "EntityHandle": "1D1EE3A4", "Text": null }, "geometry": { "type": "LineString", "coordinates": [ [ 762.764555227263941, -626.305867586511908, 0.0 ], [ 762.819578843949785, -626.142260435424873, 0.0 ] ] } },
{ "type": "Feature", "properties": { "Layer": "CAMARA", "PaperSpace": null, "SubClasses": null, "Linetype": null, "EntityHandle": "1D1EE3A5", "Text": null }, "geometry": { "type": "LineString", "coordinates": [ [ 762.905756883839331, -626.345919198270167, 0.0 ], [ 762.960780500567807, -626.182312047004643, 0.0 ] ] } },
{ "type": "Feature", "properties": { "Layer": "CAMARA", "PaperSpace": null, "SubClasses": null, "Linetype": null, "EntityHandle": "1D1EE3A6", "Text": null }, "geometry": { "type": "LineString", "coordinates": [ [ 762.764555227263941, -626.305867586511908, 0.0 ], [ 762.905756883839331, -626.345919198270167, 0.0 ] ] } },
{ "type": "Feature", "properties": { "Layer": "CAMARA", "PaperSpace": null, "SubClasses": null, "Linetype": null, "EntityHandle": "1D1EE3A7", "Text": null }, "geometry": { "type": "LineString", "coordinates": [ [ 762.005209633959339, -627.418838971404057, 0.0 ], [ 761.968123801956153, -627.246621707705458, 0.0 ], [ 762.174886562532038, -627.201438183632035, 0.0 ], [ 762.206447355216369, -627.384941209430963, 0.0 ], [ 762.005209633959339, -627.418838971404057, 0.0 ] ] } },
{ "type": "Feature", "properties": { "Layer": "CAMARA", "PaperSpace": null, "SubClasses": null, "Linetype": null, "EntityHandle": "1D1EE3C2", "Text": null }, "geometry": { "type": "LineString", "coordinates": [ [ 770.078303297557682, -630.49404358313609, 0.0 ], [ 770.078019536201737, -630.502169445196728, 0.0 ], [ 770.077169634590632, -630.510255718874191, 0.0 ], [ 770.075757733359751, -630.518263008655936, 0.0 ], [ 770.073790711149968, -630.526152303831054, 0.0 ], [ 770.071278151095612, -630.53388516854659, 0.0 ], [ 770.068232294136692, -630.54142392906283, 0.0 ], [ 770.064667979382307, -630.548731857296389, 0.0 ], [ 770.060602571815593, -630.555773349755441, 0.0 ], [ 770.056055877693439, -630.562514100996623, 0.0 ], [ 770.051050048052844, -630.568921270757414, 0.0 ], [ 770.045609470792328, -630.574963643950696, 0.0 ], [ 770.039760651857591, -630.580611782741926, 0.0 ], [ 770.033532086106561, -630.585838169966337, 0.0 ], [ 770.026954118485492, -630.590617343190956, 0.0 ], [ 770.020058796191279, -630.594926018764113, 0.0 ], [ 770.012879712541235, -630.598743205251481, 0.0 ], [ 770.005451843309061, -630.602050305704324, 0.0 ], [ 769.997811376327149, -630.604831208261658, 0.0 ], [ 769.989995535182629, -630.607072364645774, 0.0 ], [ 769.982042397867758, -630.6087628561678, 0.0 ], [ 769.973990711268243, -630.609894446923363, 0.0 ], [ 769.965879702391703, -630.610461623915739, 0.0 ], [ 769.957748887258276, -630.610461623915739, 0.0 ], [ 769.949637878381736, -630.609894446923363, 0.0 ], [ 769.941586191782221, -630.6087628561678, 0.0 ], [ 769.93363305446735, -630.607072364645774, 0.0 ], [ 769.92581721332283, -630.604831208261658, 0.0 ], [ 769.918176746340919, -630.602050305704324, 0.0 ], [ 769.910748877108745, -630.598743205251481, 0.0 ], [ 769.903569793458701, -630.594926018764113, 0.0 ], [ 769.896674471164488, -630.590617343190956, 0.0 ], [ 769.890096503543418, -630.585838169966337, 0.0 ], [ 769.883867937792388, -630.580611782741926, 0.0 ], [ 769.878019118857651, -630.574963643950696, 0.0 ], [ 769.872578541597136, -630.568921270757414, 0.0 ], [ 769.867572711956541, -630.562514100996623, 0.0 ], [ 769.863026017834386, -630.555773349755441, 0.0 ], [ 769.858960610267673, -630.548731857296389, 0.0 ], [ 769.855396295513287, -630.54142392906283, 0.0 ], [ 769.852350438554367, -630.53388516854659, 0.0 ], [ 769.849837878500011, -630.526152303831054, 0.0 ], [ 769.847870856290228, -630.518263008655936, 0.0 ], [ 769.846458955059347, -630.510255718874191, 0.0 ], [ 769.845609053448243, -630.502169445196728, 0.0 ], [ 769.845325292092298, -630.49404358313609, 0.0 ], [ 769.845609053448243, -630.485917721075452, 0.0 ], [ 769.846458955059347, -630.477831447397989, 0.0 ], [ 769.847870856290228, -630.469824157616245, 0.0 ], [ 769.849837878500011, -630.461934862441126, 0.0 ], [ 769.852350438554367, -630.45420199772559, 0.0 ], [ 769.855396295513287, -630.44666323720935, 0.0 ], [ 769.858960610267673, -630.439355308975792, 0.0 ], [ 769.863026017834386, -630.432313816516739, 0.0 ], [ 769.867572711956541, -630.425573065275557, 0.0 ], [ 769.872578541597136, -630.419165895514766, 0.0 ], [ 769.878019118857651, -630.413123522321484, 0.0 ], [ 769.883867937792388, -630.407475383530254, 0.0 ], [ 769.890096503543418, -630.402248996305843, 0.0 ], [ 769.896674471164488, -630.397469823081224, 0.0 ], [ 769.903569793458701, -630.393161147508067, 0.0 ], [ 769.910748877108745, -630.3893439610207, 0.0 ], [ 769.918176746340919, -630.386036860567856, 0.0 ], [ 769.92581721332283, -630.383255958010523, 0.0 ], [ 769.93363305446735, -630.381014801626407, 0.0 ], [ 769.941586191782221, -630.37932431010438, 0.0 ], [ 769.949637878381736, -630.378192719348817, 0.0 ], [ 769.957748887258276, -630.377625542356441, 0.0 ], [ 769.965879702391703, -630.377625542356441, 0.0 ], [ 769.973990711268243, -630.378192719348817, 0.0 ], [ 769.982042397867758, -630.37932431010438, 0.0 ], [ 769.989995535182629, -630.381014801626407, 0.0 ], [ 769.997811376327149, -630.383255958010523, 0.0 ], [ 770.005451843309061, -630.386036860567856, 0.0 ], [ 770.012879712541235, -630.3893439610207, 0.0 ], [ 770.020058796191279, -630.393161147508067, 0.0 ], [ 770.026954118485492, -630.397469823081224, 0.0 ], [ 770.033532086106561, -630.402248996305843, 0.0 ], [ 770.039760651857591, -630.407475383530254, 0.0 ], [ 770.045609470792328, -630.413123522321484, 0.0 ], [ 770.051050048052844, -630.419165895514766, 0.0 ], [ 770.056055877693439, -630.425573065275557, 0.0 ], [ 770.060602571815593, -630.432313816516739, 0.0 ], [ 770.064667979382307, -630.439355308975792, 0.0 ], [ 770.068232294136692, -630.44666323720935, 0.0 ], [ 770.071278151095612, -630.45420199772559, 0.0 ], [ 770.073790711149968, -630.461934862441126, 0.0 ], [ 770.075757733359751, -630.469824157616245, 0.0 ], [ 770.077169634590632, -630.477831447397989, 0.0 ], [ 770.078019536201737, -630.485917721075452, 0.0 ], [ 770.078303297557682, -630.49404358313609, 0.0 ] ] } },
{ "type": "Feature", "properties": { "Layer": "CAMARA", "PaperSpace": null, "SubClasses": null, "Linetype": null, "EntityHandle": "1D1EE3C3", "Text": null }, "geometry": { "type": "LineString", "coordinates": [ [ 770.479775993939597, -630.319582394327881, 0.0 ], [ 770.765136350596094, -630.13463107181019, 0.0 ] ] } },
{ "type": "Feature", "properties": { "Layer": "CAMARA", "PaperSpace": null, "SubClasses": null, "Linetype": null, "EntityHandle": "1D1EE3C4", "Text": null }, "geometry": { "type": "LineString", "coordinates": [ [ 770.765136350596094, -630.13463107181019, 0.0 ], [ 770.624543233491181, -629.893416989369598, 0.0 ] ] } },
{ "type": "Feature", "properties": { "Layer": "CAMARA", "PaperSpace": null, "SubClasses": null, "Linetype": null, "EntityHandle": "1D1EE3C5", "Text": null }, "geometry": { "type": "LineString", "coordinates": [ [ 770.339182876857194, -630.078368311892746, 0.0 ], [ 770.624543233491181, -629.893416989369598, 0.0 ] ] } },
{ "type": "Feature", "properties": { "Layer": "CAMARA", "PaperSpace": null, "SubClasses": null, "Linetype": null, "EntityHandle": "1D1EE3C6", "Text": null }, "geometry": { "type": "LineString", "coordinates": [ [ 770.479775993939597, -630.319582394327881, 0.0 ], [ 770.339182876857194, -630.078368311892746, 0.0 ] ] } }
]
}
