{"type":"FeatureCollection","name":"plano-exteriores","metadata":{"source_pdf":"AQUA014-HID-PL-015_C1.pdf","render_size_px":[6272,3600],"coord_system":"render-px (pixels of plano-base.png)","extracted_at":"2026-05-28T10:52:46Z","n_features":50,"n_segments":294},"features":[{"type":"Feature","properties":{"id":"p:exteriores:0","n":6,"sc":"#808080"},"geometry":{"type":"LineString","coordinates":[[4622.4,44.5],[4624.8,605.6],[6085.9,598.9],[6038.4,2510.2],[1116,2531.8],[1151.0,1145.1],[3465.1,1192.6]]}},{"type":"Feature","properties":{"id":"p:exteriores:1","n":3,"sc":"#808080"},"geometry":{"type":"LineString","coordinates":[[4723.2,2707.0],[2372.6,2706.1],[4723.2,2707.0],[4724.2,3848.5]]}},{"type":"Feature","properties":{"id":"p:exteriores:2","n":2,"sc":"#808080"},"geometry":{"type":"LineString","coordinates":[[2373.1,3848.5],[2372.6,2706.1],[2373.1,3848.5]]}},{"type":"Feature","properties":{"id":"p:exteriores:3","n":2,"sc":"#808080"},"geometry":{"type":"LineString","coordinates":[[4724.2,3848.5],[4723.2,2707.0],[2372.6,2706.1]]}},{"type":"Feature","properties":{"id":"p:exteriores:4","n":4,"sc":"#808080"},"geometry":{"type":"LineString","coordinates":[[2305.0,3151.0],[2305.4,2591.4],[1365.6,2617.8],[1383.8,3170.2],[2305.0,3151.0]]}},{"type":"Feature","properties":{"id":"p:exteriores:5","n":2,"sc":"#808080"},"geometry":{"type":"LineString","coordinates":[[4723.7,3469.3],[5095.2,3599.8],[5274.2,3848.5]]}},{"type":"Feature","properties":{"id":"p:exteriores:6","n":6,"sc":"#808080"},"geometry":{"type":"LineString","coordinates":[[4885.0,2515.5],[4888.8,3195.2],[5210.9,3308.5],[5445.6,3389.6],[5689.0,3264.8],[6127.2,2475.7],[6208.8,2166.6]]}},{"type":"Feature","properties":{"id":"p:exteriores:7","n":2,"sc":"#808080"},"geometry":{"type":"LineString","coordinates":[[1635.4,3518.7],[1374.2,3205.8],[1021.0,2752.6]]}},{"type":"Feature","properties":{"id":"p:exteriores:8","n":5,"sc":"#808080"},"geometry":{"type":"LineString","coordinates":[[664.3,1682.7],[696.5,1502.7],[766.1,550.9],[776.6,380.5],[840,-492.6],[886.6,-1009.1]]}},{"type":"Feature","properties":{"id":"p:exteriores:9","n":2,"sc":"#808080"},"geometry":{"type":"LineString","coordinates":[[4796.2,2516],[4800,3164],[4723.2,3136.6]]}},{"type":"Feature","properties":{"id":"p:exteriores:10","n":3,"sc":"#808080"},"geometry":{"type":"LineString","coordinates":[[1151.0,1145.1],[1164,620.5],[1249.0,400.2],[2299.2,395.8]]}},{"type":"Feature","properties":{"id":"p:exteriores:11","n":1,"sc":"#808080"},"geometry":{"type":"LineString","coordinates":[[4723.7,3296.5],[2373.1,3295.5]]}},{"type":"Feature","properties":{"id":"p:exteriores:12","n":1,"sc":"#808080"},"geometry":{"type":"LineString","coordinates":[[2305.4,2871.7],[1374.7,2893.8]]}},{"type":"Feature","properties":{"id":"p:exteriores:13","n":7,"sc":"#808080"},"geometry":{"type":"LineString","coordinates":[[4684.3,43.0],[4713.1,42.1],[4720.8,41.6],[4720.8,39.2],[4726.6,39.2],[4726.1,44.5],[4720.8,44.5],[4720.8,41.6]]}},{"type":"Feature","properties":{"id":"p:exteriores:14","n":7,"sc":"#808080"},"geometry":{"type":"LineString","coordinates":[[4726.6,41.6],[4755.8,41.1],[4762.6,40.6],[4763.0,37.8],[4768.3,37.8],[4768.8,43.5],[4763.0,43.5],[4762.6,40.6]]}},{"type":"Feature","properties":{"id":"p:exteriores:15","n":7,"sc":"#808080"},"geometry":{"type":"LineString","coordinates":[[4768.3,40.6],[4798.1,39.7],[4805.3,39.7],[4804.8,36.8],[4810.1,36.8],[4811.0,42.6],[4804.8,42.6],[4805.3,39.7]]}},{"type":"Feature","properties":{"id":"p:exteriores:16","n":7,"sc":"#808080"},"geometry":{"type":"LineString","coordinates":[[4811.0,39.7],[4839.8,38.7],[4847.0,38.7],[4847.0,35.8],[4852.8,35.8],[4852.8,41.6],[4847.0,41.1],[4847.0,38.7]]}},{"type":"Feature","properties":{"id":"p:exteriores:17","n":7,"sc":"#808080"},"geometry":{"type":"LineString","coordinates":[[4853.3,38.2],[4882.1,37.8],[4889.3,37.3],[4888.8,34.9],[4895.0,34.4],[4895.0,40.2],[4888.8,40.6],[4889.3,37.3]]}},{"type":"Feature","properties":{"id":"p:exteriores:18","n":7,"sc":"#808080"},"geometry":{"type":"LineString","coordinates":[[4895.0,37.3],[4923.8,36.8],[4931.0,36.3],[4931.0,33.4],[4936.8,33.4],[4937.3,39.7],[4931.5,39.2],[4931.0,36.3]]}},{"type":"Feature","properties":{"id":"p:exteriores:19","n":7,"sc":"#808080"},"geometry":{"type":"LineString","coordinates":[[4936.8,35.8],[4966.1,35.4],[4973.8,35.4],[4972.8,32.5],[4979.0,32],[4979.5,38.2],[4973.3,38.7],[4973.8,35.4]]}},{"type":"Feature","properties":{"id":"p:exteriores:20","n":7,"sc":"#808080"},"geometry":{"type":"LineString","coordinates":[[4979.0,35.4],[5007.8,34.4],[5015.5,34.4],[5015.5,31.5],[5021.3,31.5],[5021.3,37.3],[5015.5,37.3],[5015.5,34.4]]}},{"type":"Feature","properties":{"id":"p:exteriores:21","n":7,"sc":"#808080"},"geometry":{"type":"LineString","coordinates":[[5021.3,33.9],[5050.6,33.4],[5057.3,33.0],[5057.3,30.6],[5063.5,30.1],[5063.5,35.8],[5057.3,36.3],[5057.3,33.0]]}},{"type":"Feature","properties":{"id":"p:exteriores:22","n":7,"sc":"#808080"},"geometry":{"type":"LineString","coordinates":[[5063.0,33.0],[5092.3,32.5],[5099.0,32],[5099.5,29.1],[5105.3,29.1],[5105.3,35.4],[5100,35.4],[5099.0,32]]}},{"type":"Feature","properties":{"id":"p:exteriores:23","n":7,"sc":"#808080"},"geometry":{"type":"LineString","coordinates":[[5105.3,32],[5134.6,31.0],[5141.8,31.0],[5141.8,28.6],[5147.5,27.7],[5147.5,33.9],[5142.2,33.9],[5141.8,31.0]]}},{"type":"Feature","properties":{"id":"p:exteriores:24","n":7,"sc":"#808080"},"geometry":{"type":"LineString","coordinates":[[5147.5,31.5],[5176.3,30.6],[5184,29.6],[5184,27.2],[5189.3,27.2],[5189.3,33.0],[5184,33.0],[5184,29.6]]}},{"type":"Feature","properties":{"id":"p:exteriores:25","n":7,"sc":"#808080"},"geometry":{"type":"LineString","coordinates":[[5189.8,30.1],[5219.0,29.1],[5225.8,29.1],[5226.2,25.8],[5231.5,25.8],[5231.5,31.5],[5225.8,31.5],[5225.8,29.1]]}},{"type":"Feature","properties":{"id":"p:exteriores:26","n":7,"sc":"#808080"},"geometry":{"type":"LineString","coordinates":[[5231.5,29.1],[5260.8,28.2],[5268.5,27.7],[5267.5,24.8],[5273.3,24.8],[5274.2,30.6],[5268,31.0],[5268.5,27.7]]}},{"type":"Feature","properties":{"id":"p:exteriores:27","n":7,"sc":"#808080"},"geometry":{"type":"LineString","coordinates":[[5273.8,27.7],[5302.6,27.2],[5310.2,27.2],[5310.2,23.8],[5316,23.8],[5316,29.6],[5310.2,29.6],[5310.2,27.2]]}},{"type":"Feature","properties":{"id":"p:exteriores:28","n":7,"sc":"#808080"},"geometry":{"type":"LineString","coordinates":[[5316,26.7],[5344.8,25.8],[5352.5,25.8],[5352,22.9],[5358.2,22.4],[5358.2,28.2],[5352,28.6],[5352.5,25.8]]}},{"type":"Feature","properties":{"id":"p:exteriores:29","n":7,"sc":"#808080"},"geometry":{"type":"LineString","coordinates":[[5357.8,25.8],[5387.0,25.3],[5394.2,24.8],[5394.2,21.4],[5400,21.4],[5400,27.2],[5394.7,27.7],[5394.2,24.8]]}},{"type":"Feature","properties":{"id":"p:exteriores:30","n":7,"sc":"#808080"},"geometry":{"type":"LineString","coordinates":[[5400,24.3],[5429.3,23.8],[5436.5,23.8],[5436,20.5],[5442.2,20.5],[5442.7,26.2],[5436.5,26.7],[5436.5,23.8]]}},{"type":"Feature","properties":{"id":"p:exteriores:31","n":7,"sc":"#808080"},"geometry":{"type":"LineString","coordinates":[[5442.2,23.8],[5471.0,22.9],[5478.2,22.9],[5478.7,19.5],[5484.5,20],[5484.5,25.3],[5478.7,25.3],[5478.2,22.9]]}},{"type":"Feature","properties":{"id":"p:exteriores:32","n":7,"sc":"#808080"},"geometry":{"type":"LineString","coordinates":[[5484.5,22.4],[5513.3,21.4],[5520.5,21.4],[5520.5,18.6],[5526.7,18.6],[5526.2,23.8],[5520.5,24.3],[5520.5,21.4]]}},{"type":"Feature","properties":{"id":"p:exteriores:33","n":7,"sc":"#808080"},"geometry":{"type":"LineString","coordinates":[[5526.2,21.4],[5555.5,21.0],[5562.2,20.5],[5562.7,17.6],[5568.5,17.6],[5568.5,23.4],[5563.2,23.4],[5562.2,20.5]]}},{"type":"Feature","properties":{"id":"p:exteriores:34","n":7,"sc":"#808080"},"geometry":{"type":"LineString","coordinates":[[5568.5,20],[5597.8,19.5],[5605.0,19.5],[5604.5,16.6],[5610.2,16.2],[5610.7,21.9],[5605.0,21.9],[5605.0,19.5]]}},{"type":"Feature","properties":{"id":"p:exteriores:35","n":7,"sc":"#808080"},"geometry":{"type":"LineString","coordinates":[[5610.7,19.5],[5639.5,18.6],[5647.2,18.1],[5647.2,15.7],[5652.5,15.7],[5652.5,21.0],[5646.7,21.0],[5647.2,18.1]]}},{"type":"Feature","properties":{"id":"p:exteriores:36","n":8,"sc":"#808080"},"geometry":{"type":"LineString","coordinates":[[5653.0,18.1],[5660.2,18.1],[5660.2,39.2],[5660.6,46.4],[5664,46.4],[5663.5,52.2],[5657.8,52.6],[5657.8,46.9],[5660.6,46.4]]}},{"type":"Feature","properties":{"id":"p:exteriores:37","n":7,"sc":"#808080"},"geometry":{"type":"LineString","coordinates":[[5661.1,52.6],[5661.1,81.0],[5661.1,88.6],[5664.5,88.6],[5664,94.4],[5658.7,94.4],[5658.7,88.6],[5661.1,88.6]]}},{"type":"Feature","properties":{"id":"p:exteriores:38","n":7,"sc":"#808080"},"geometry":{"type":"LineString","coordinates":[[5661.6,94.9],[5661.6,123.2],[5661.6,130.9],[5665.0,130.9],[5665.0,136.6],[5659.2,136.6],[5659.2,130.9],[5661.6,130.9]]}},{"type":"Feature","properties":{"id":"p:exteriores:39","n":7,"sc":"#808080"},"geometry":{"type":"LineString","coordinates":[[5661.6,136.6],[5662.1,165.4],[5662.1,173.1],[5665.4,173.1],[5665.4,178.9],[5659.7,178.9],[5659.7,173.1],[5662.1,173.1]]}},{"type":"Feature","properties":{"id":"p:exteriores:40","n":7,"sc":"#808080"},"geometry":{"type":"LineString","coordinates":[[5662.1,178.9],[5662.6,207.7],[5662.6,215.4],[5666.4,214.9],[5666.4,220.6],[5660.2,221.1],[5660.2,215.4],[5662.6,215.4]]}},{"type":"Feature","properties":{"id":"p:exteriores:41","n":7,"sc":"#808080"},"geometry":{"type":"LineString","coordinates":[[5662.6,221.1],[5663.0,249.9],[5663.5,257.1],[5666.9,257.1],[5666.9,262.9],[5660.6,263.4],[5660.6,257.6],[5663.5,257.1]]}},{"type":"Feature","properties":{"id":"p:exteriores:42","n":7,"sc":"#808080"},"geometry":{"type":"LineString","coordinates":[[5663.5,262.9],[5664,291.7],[5664,299.4],[5666.9,298.9],[5667.4,305.1],[5661.6,305.1],[5661.1,298.9],[5664,299.4]]}},{"type":"Feature","properties":{"id":"p:exteriores:43","n":7,"sc":"#808080"},"geometry":{"type":"LineString","coordinates":[[5664,304.6],[5665.0,333.9],[5665.0,341.6],[5667.4,341.1],[5667.8,347.4],[5662.1,347.4],[5661.6,341.1],[5665.0,341.6]]}},{"type":"Feature","properties":{"id":"p:exteriores:44","n":7,"sc":"#808080"},"geometry":{"type":"LineString","coordinates":[[5664.5,346.9],[5665.4,376.2],[5665.4,383.8],[5667.8,383.4],[5668.3,389.6],[5662.6,389.6],[5662.1,383.4],[5665.4,383.8]]}},{"type":"Feature","properties":{"id":"p:exteriores:45","n":7,"sc":"#808080"},"geometry":{"type":"LineString","coordinates":[[5665.4,389.1],[5665.9,418.4],[5665.9,425.6],[5668.8,425.1],[5669.3,431.4],[5663.0,431.8],[5662.6,425.6],[5665.9,425.6]]}},{"type":"Feature","properties":{"id":"p:exteriores:46","n":7,"sc":"#808080"},"geometry":{"type":"LineString","coordinates":[[5665.9,431.4],[5666.4,460.6],[5666.9,467.4],[5669.3,467.4],[5669.8,473.6],[5663.5,474.1],[5663.0,467.8],[5666.9,467.4]]}},{"type":"Feature","properties":{"id":"p:exteriores:47","n":7,"sc":"#808080"},"geometry":{"type":"LineString","coordinates":[[5666.9,473.1],[5667.4,502.4],[5667.4,509.6],[5669.8,509.6],[5670.2,515.8],[5664.5,515.8],[5664,509.6],[5667.4,509.6]]}},{"type":"Feature","properties":{"id":"p:exteriores:48","n":7,"sc":"#808080"},"geometry":{"type":"LineString","coordinates":[[5667.4,515.4],[5667.8,544.6],[5667.8,551.8],[5670.2,551.8],[5670.7,558.1],[5665.0,558.1],[5664.5,551.8],[5667.8,551.8]]}},{"type":"Feature","properties":{"id":"p:exteriores:49","n":2,"sc":"#808080"},"geometry":{"type":"LineString","coordinates":[[5667.8,557.6],[5668.3,586.9],[5668.3,600.8]]}}]}