{
"type": "FeatureCollection",
"name": "SELECT",
"features": [
{ "type": "Feature", "properties": { "Layer": "VENTANAS", "PaperSpace": null, "SubClasses": null, "Linetype": "CONTINUOUS", "EntityHandle": "1D1F082E", "Text": "1" }, "geometry": { "type": "Point", "coordinates": [ 758.976878618824799, -639.795130255997151, 0.0 ] } },
{ "type": "Feature", "properties": { "Layer": "VENTANAS", "PaperSpace": null, "SubClasses": null, "Linetype": "CONTINUOUS", "EntityHandle": "1D1F082F", "Text": "2" }, "geometry": { "type": "Point", "coordinates": [ 759.029710087519334, -639.768513537196327, 0.0 ] } },
{ "type": "Feature", "properties": { "Layer": "VENTANAS", "PaperSpace": null, "SubClasses": null, "Linetype": "CONTINUOUS", "EntityHandle": "1D1F0830", "Text": "3" }, "geometry": { "type": "Point", "coordinates": [ 759.082543103980697, -639.741896038623736, 0.0 ] } },
{ "type": "Feature", "properties": { "Layer": "VENTANAS", "PaperSpace": null, "SubClasses": null, "Linetype": "CONTINUOUS", "EntityHandle": "1D1F0831", "Text": "4" }, "geometry": { "type": "Point", "coordinates": [ 759.137739560199975, -639.714087829041546, 0.0 ] } },
{ "type": "Feature", "properties": { "Layer": "VENTANAS", "PaperSpace": null, "SubClasses": null, "Linetype": "CONTINUOUS", "EntityHandle": "1D1F0832", "Text": "5" }, "geometry": { "type": "Point", "coordinates": [ 759.185051692825937, -639.690251775244519, 0.0 ] } },
{ "type": "Feature", "properties": { "Layer": "VENTANAS", "PaperSpace": null, "SubClasses": null, "Linetype": "CONTINUOUS", "EntityHandle": "1D1F0833", "Text": "6" }, "geometry": { "type": "Point", "coordinates": [ 759.239274603788203, -639.662934041906624, 0.0 ] } },
{ "type": "Feature", "properties": { "Layer": "VENTANAS", "PaperSpace": null, "SubClasses": null, "Linetype": "CONTINUOUS", "EntityHandle": "1D1F0834", "Text": "7" }, "geometry": { "type": "Point", "coordinates": [ 759.295712368904105, -639.634500455618422, 0.0 ] } },
{ "type": "Feature", "properties": { "Layer": "VENTANAS", "PaperSpace": null, "SubClasses": null, "Linetype": "CONTINUOUS", "EntityHandle": "1D1F0835", "Text": "8" }, "geometry": { "type": "Point", "coordinates": [ 759.343239641102059, -639.610556013589303, 0.0 ] } },
{ "type": "Feature", "properties": { "Layer": "VENTANAS", "PaperSpace": null, "SubClasses": null, "Linetype": "CONTINUOUS", "EntityHandle": "1D1F0837", "Text": "1" }, "geometry": { "type": "Point", "coordinates": [ 760.469512705277793, -643.915348201302777, 0.0 ] } },
{ "type": "Feature", "properties": { "Layer": "VENTANAS", "PaperSpace": null, "SubClasses": null, "Linetype": "CONTINUOUS", "EntityHandle": "1D1F0844", "Text": "2" }, "geometry": { "type": "Point", "coordinates": [ 760.445541940963608, -643.867768682057317, 0.0 ] } },
{ "type": "Feature", "properties": { "Layer": "VENTANAS", "PaperSpace": null, "SubClasses": null, "Linetype": "CONTINUOUS", "EntityHandle": "1D1F0845", "Text": "3" }, "geometry": { "type": "Point", "coordinates": [ 760.415309208661142, -643.807759795832567, 0.0 ] } },
{ "type": "Feature", "properties": { "Layer": "VENTANAS", "PaperSpace": null, "SubClasses": null, "Linetype": "CONTINUOUS", "EntityHandle": "1D1F0846", "Text": "4" }, "geometry": { "type": "Point", "coordinates": [ 760.388578100053564, -643.754701275054003, 0.0 ] } },
{ "type": "Feature", "properties": { "Layer": "VENTANAS", "PaperSpace": null, "SubClasses": null, "Linetype": "CONTINUOUS", "EntityHandle": "1D1F0847", "Text": "5" }, "geometry": { "type": "Point", "coordinates": [ 760.361210146435155, -643.70037868196323, 0.0 ] } },
{ "type": "Feature", "properties": { "Layer": "VENTANAS", "PaperSpace": null, "SubClasses": null, "Linetype": "CONTINUOUS", "EntityHandle": "1D1F0848", "Text": "6" }, "geometry": { "type": "Point", "coordinates": [ 760.336070126489517, -643.650478309694449, 0.0 ] } },
{ "type": "Feature", "properties": { "Layer": "VENTANAS", "PaperSpace": null, "SubClasses": null, "Linetype": "CONTINUOUS", "EntityHandle": "1D1F0849", "Text": "7" }, "geometry": { "type": "Point", "coordinates": [ 760.304246305524771, -643.587311274959916, 0.0 ] } },
{ "type": "Feature", "properties": { "Layer": "VENTANAS", "PaperSpace": null, "SubClasses": null, "Linetype": "CONTINUOUS", "EntityHandle": "1D1F084A", "Text": "8" }, "geometry": { "type": "Point", "coordinates": [ 760.277515196917534, -643.534252754181352, 0.0 ] } },
{ "type": "Feature", "properties": { "Layer": "VENTANAS", "PaperSpace": null, "SubClasses": null, "Linetype": "CONTINUOUS", "EntityHandle": "1D1F084B", "Text": "9" }, "geometry": { "type": "Point", "coordinates": [ 760.25428571200564, -643.488144598848521, 0.0 ] } },
{ "type": "Feature", "properties": { "Layer": "VENTANAS", "PaperSpace": null, "SubClasses": null, "Linetype": "CONTINUOUS", "EntityHandle": "1D1F084C", "Text": "10" }, "geometry": { "type": "Point", "coordinates": [ 760.222779289680375, -643.425607567999805, 0.0 ] } },
{ "type": "Feature", "properties": { "Layer": "VENTANAS", "PaperSpace": null, "SubClasses": null, "Linetype": "CONTINUOUS", "EntityHandle": "1D1F084D", "Text": "11" }, "geometry": { "type": "Point", "coordinates": [ 760.195841360024474, -643.37213852856064, 0.0 ] } },
{ "type": "Feature", "properties": { "Layer": "VENTANAS", "PaperSpace": null, "SubClasses": null, "Linetype": "CONTINUOUS", "EntityHandle": "1D1F084E", "Text": "12" }, "geometry": { "type": "Point", "coordinates": [ 760.165078264834847, -643.311076926166379, 0.0 ] } },
{ "type": "Feature", "properties": { "Layer": "VENTANAS", "PaperSpace": null, "SubClasses": null, "Linetype": "CONTINUOUS", "EntityHandle": "1D1F084F", "Text": "13" }, "geometry": { "type": "Point", "coordinates": [ 760.127031382811538, -643.235557750735325, 0.0 ] } },
{ "type": "Feature", "properties": { "Layer": "VENTANAS", "PaperSpace": null, "SubClasses": null, "Linetype": "CONTINUOUS", "EntityHandle": "1D1F0B00", "Text": "1" }, "geometry": { "type": "Point", "coordinates": [ 768.719300957338305, -633.585858811653452, 0.0 ] } },
{ "type": "Feature", "properties": { "Layer": "VENTANAS", "PaperSpace": null, "SubClasses": null, "Linetype": "CONTINUOUS", "EntityHandle": "1D1F0B01", "Text": "2" }, "geometry": { "type": "Point", "coordinates": [ 768.686295689965391, -633.544480451893833, 0.0 ] } },
{ "type": "Feature", "properties": { "Layer": "VENTANAS", "PaperSpace": null, "SubClasses": null, "Linetype": "CONTINUOUS", "EntityHandle": "1D1F0B02", "Text": "3" }, "geometry": { "type": "Point", "coordinates": [ 768.646291681445632, -633.504798080865044, 0.0 ] } },
{ "type": "Feature", "properties": { "Layer": "VENTANAS", "PaperSpace": null, "SubClasses": null, "Linetype": "CONTINUOUS", "EntityHandle": "1D1F0B03", "Text": "4" }, "geometry": { "type": "Point", "coordinates": [ 768.616221322695196, -633.471718077650962, 0.0 ] } },
{ "type": "Feature", "properties": { "Layer": "VENTANAS", "PaperSpace": null, "SubClasses": null, "Linetype": "CONTINUOUS", "EntityHandle": "1D1F0B04", "Text": "5" }, "geometry": { "type": "Point", "coordinates": [ 768.586764652569968, -633.439286678369058, 0.0 ] } },
{ "type": "Feature", "properties": { "Layer": "VENTANAS", "PaperSpace": null, "SubClasses": null, "Linetype": "CONTINUOUS", "EntityHandle": "1D1F0B05", "Text": "6" }, "geometry": { "type": "Point", "coordinates": [ 768.556694293819533, -633.40620667515509, 0.0 ] } },
{ "type": "Feature", "properties": { "Layer": "VENTANAS", "PaperSpace": null, "SubClasses": null, "Linetype": "CONTINUOUS", "EntityHandle": "1D1F0B06", "Text": "7" }, "geometry": { "type": "Point", "coordinates": [ 768.524098234308781, -633.373054906022617, 0.0 ] } },
{ "type": "Feature", "properties": { "Layer": "VENTANAS", "PaperSpace": null, "SubClasses": null, "Linetype": "CONTINUOUS", "EntityHandle": "1D1F0B07", "Text": "8" }, "geometry": { "type": "Point", "coordinates": [ 768.386480145997893, -633.234102435263708, 0.0 ] } },
{ "type": "Feature", "properties": { "Layer": "VENTANAS", "PaperSpace": null, "SubClasses": null, "Linetype": "CONTINUOUS", "EntityHandle": "1D1F0B08", "Text": "9" }, "geometry": { "type": "Point", "coordinates": [ 768.433160630146745, -633.189934830492348, 0.0 ] } },
{ "type": "Feature", "properties": { "Layer": "VENTANAS", "PaperSpace": null, "SubClasses": null, "Linetype": "CONTINUOUS", "EntityHandle": "1D1F0B09", "Text": "10" }, "geometry": { "type": "Point", "coordinates": [ 768.471709783678421, -633.15346083480631, 0.0 ] } },
{ "type": "Feature", "properties": { "Layer": "VENTANAS", "PaperSpace": null, "SubClasses": null, "Linetype": "CONTINUOUS", "EntityHandle": "1D1F0B0A", "Text": "11" }, "geometry": { "type": "Point", "coordinates": [ 768.508249991954926, -633.118887639887248, 0.0 ] } },
{ "type": "Feature", "properties": { "Layer": "VENTANAS", "PaperSpace": null, "SubClasses": null, "Linetype": "CONTINUOUS", "EntityHandle": "1D1F0B0B", "Text": "12" }, "geometry": { "type": "Point", "coordinates": [ 768.542175506600188, -633.086788385780324, 0.0 ] } },
{ "type": "Feature", "properties": { "Layer": "VENTANAS", "PaperSpace": null, "SubClasses": null, "Linetype": "CONTINUOUS", "EntityHandle": "1D1F0B0C", "Text": "13" }, "geometry": { "type": "Point", "coordinates": [ 768.579754741602756, -633.051232096477179, 0.0 ] } },
{ "type": "Feature", "properties": { "Layer": "VENTANAS", "PaperSpace": null, "SubClasses": null, "Linetype": "CONTINUOUS", "EntityHandle": "1D1F0B0D", "Text": "14" }, "geometry": { "type": "Point", "coordinates": [ 768.606473172655569, -633.025951958013138, 0.0 ] } },
{ "type": "Feature", "properties": { "Layer": "VENTANAS", "PaperSpace": null, "SubClasses": null, "Linetype": "CONTINUOUS", "EntityHandle": "1D1F1668", "Text": "1" }, "geometry": { "type": "Point", "coordinates": [ 776.597510010254268, -615.407435388660133, 0.0 ] } },
{ "type": "Feature", "properties": { "Layer": "VENTANAS", "PaperSpace": null, "SubClasses": null, "Linetype": "CONTINUOUS", "EntityHandle": "1D1F1669", "Text": "2" }, "geometry": { "type": "Point", "coordinates": [ 776.645786156628901, -615.381069848068364, 0.0 ] } },
{ "type": "Feature", "properties": { "Layer": "VENTANAS", "PaperSpace": null, "SubClasses": null, "Linetype": "CONTINUOUS", "EntityHandle": "1D1F166A", "Text": "3" }, "geometry": { "type": "Point", "coordinates": [ 776.689537660053134, -615.357175396540697, 0.0 ] } },
{ "type": "Feature", "properties": { "Layer": "VENTANAS", "PaperSpace": null, "SubClasses": null, "Linetype": "CONTINUOUS", "EntityHandle": "1D1F166B", "Text": "4" }, "geometry": { "type": "Point", "coordinates": [ 776.722729005611541, -615.339048270944886, 0.0 ] } },
{ "type": "Feature", "properties": { "Layer": "VENTANAS", "PaperSpace": null, "SubClasses": null, "Linetype": "CONTINUOUS", "EntityHandle": "1D1F166C", "Text": "5" }, "geometry": { "type": "Point", "coordinates": [ 776.861286728118102, -615.263376339123624, 0.0 ] } },
{ "type": "Feature", "properties": { "Layer": "VENTANAS", "PaperSpace": null, "SubClasses": null, "Linetype": "CONTINUOUS", "EntityHandle": "1D1F166D", "Text": "6" }, "geometry": { "type": "Point", "coordinates": [ 776.918582169689898, -615.368286121431652, 0.0 ] } }
]
}
