{
"type": "FeatureCollection",
"name": "SELECT",
"features": [
{ "type": "Feature", "properties": { "Layer": "MURO", "PaperSpace": null, "SubClasses": null, "Linetype": null, "EntityHandle": "1D1EE303", "Text": null }, "geometry": { "type": "MultiPolygon", "coordinates": [ [ [ [ 733.674762533920898, -632.010123972649126 ], [ 733.629243292125807, -631.796506755080372 ], [ 733.674762533920898, -631.778774146066212 ], [ 733.674762533920898, -632.010123972649126 ] ] ], [ [ [ 733.674762533920898, -632.010123972649126 ], [ 733.674762533920898, -631.821060852319533 ], [ 734.200819018219704, -634.478854075092272 ], [ 733.674762533920898, -632.010123972649126 ] ] ], [ [ [ 734.200819018219704, -634.478854075092272 ], [ 733.674762533920898, -631.821060852319533 ], [ 734.200819018219704, -634.289790954784962 ], [ 734.200819018219704, -634.478854075092272 ] ] ], [ [ [ 733.674762533920898, -631.821060852319533 ], [ 733.674762533920898, -631.778774146066212 ], [ 734.200819018219704, -631.616128749143741 ], [ 733.674762533920898, -631.821060852319533 ] ] ], [ [ [ 734.200819018219704, -631.616128749143741 ], [ 733.674762533920898, -631.778774146066212 ], [ 734.200819018219704, -631.573842042904175 ], [ 734.200819018219704, -631.616128749143741 ] ] ], [ [ [ 734.200819018219704, -634.478854075092272 ], [ 734.200819018219704, -634.289790954784962 ], [ 734.239356240880966, -634.63911744741074 ], [ 734.200819018219704, -634.478854075092272 ] ] ], [ [ [ 734.239356240880966, -634.63911744741074 ], [ 734.200819018219704, -634.289790954784962 ], [ 734.239356240880966, -634.470642259709166 ], [ 734.239356240880966, -634.63911744741074 ] ] ], [ [ [ 734.200819018219704, -631.616128749143741 ], [ 734.200819018219704, -631.573842042904175 ], [ 734.239356240880966, -631.601116075930463 ], [ 734.200819018219704, -631.616128749143741 ] ] ], [ [ [ 734.239356240880966, -631.601116075930463 ], [ 734.200819018219704, -631.573842042904175 ], [ 734.239356240880966, -631.558829369691921 ], [ 734.239356240880966, -631.601116075930463 ] ] ], [ [ [ 734.239356240880966, -634.63911744741074 ], [ 734.239356240880966, -634.470642259709166 ], [ 734.718796616828058, -636.632949025526955 ], [ 734.239356240880966, -634.63911744741074 ] ] ], [ [ [ 734.718796616828058, -636.632949025526955 ], [ 734.239356240880966, -634.470642259709166 ], [ 734.718796616828058, -636.464420954701495 ], [ 734.718796616828058, -636.632949025526955 ] ] ], [ [ [ 734.239356240880966, -631.601116075930463 ], [ 734.239356240880966, -631.558829369691921 ], [ 734.718796616828058, -631.414343880314959 ], [ 734.239356240880966, -631.601116075930463 ] ] ], [ [ [ 734.718796616828058, -631.414343880314959 ], [ 734.239356240880966, -631.558829369691921 ], [ 734.718796616828058, -631.372057174089036 ], [ 734.718796616828058, -631.414343880314959 ] ] ], [ [ [ 734.718796616828058, -636.632949025526955 ], [ 734.718796616828058, -636.464420954701495 ], [ 734.757106964676382, -636.623736605134241 ], [ 734.718796616828058, -636.632949025526955 ] ] ], [ [ [ 734.718796616828058, -631.414343880314959 ], [ 734.718796616828058, -631.372057174089036 ], [ 734.757106964676382, -631.399419589117656 ], [ 734.718796616828058, -631.414343880314959 ] ] ], [ [ [ 734.757106964676382, -631.399419589117656 ], [ 734.718796616828058, -631.372057174089036 ], [ 734.757106964676382, -631.357132882892643 ], [ 734.757106964676382, -631.399419589117656 ] ] ], [ [ [ 734.757106964676382, -631.399419589117656 ], [ 734.757106964676382, -631.357132882892643 ], [ 737.24164971030541, -630.431533847778383 ], [ 734.757106964676382, -631.399419589117656 ] ] ], [ [ [ 737.24164971030541, -630.431533847778383 ], [ 734.757106964676382, -631.357132882892643 ], [ 737.24164971030541, -630.389247141618171 ], [ 737.24164971030541, -630.431533847778383 ] ] ], [ [ [ 737.24164971030541, -630.431533847778383 ], [ 737.24164971030541, -630.389247141618171 ], [ 737.256017612008691, -630.425936645952788 ], [ 737.24164971030541, -630.431533847778383 ] ] ], [ [ [ 737.256017612008691, -630.425936645952788 ], [ 737.24164971030541, -630.389247141618171 ], [ 737.256017612008691, -630.383591133438813 ], [ 737.256017612008691, -630.425936645952788 ] ] ], [ [ [ 737.256017612008691, -630.425936645952788 ], [ 737.256017612008691, -630.383591133438813 ], [ 739.906771126213812, -629.382452088004584 ], [ 737.256017612008691, -630.425936645952788 ] ] ], [ [ [ 739.906771126213812, -629.382452088004584 ], [ 737.256017612008691, -630.383591133438813 ], [ 739.906771126213812, -629.340106575473783 ], [ 739.906771126213812, -629.382452088004584 ] ] ], [ [ [ 739.906771126213812, -629.382452088004584 ], [ 739.906771126213812, -629.340106575473783 ], [ 739.921153676510926, -629.376790313321067 ], [ 739.906771126213812, -629.382452088004584 ] ] ], [ [ [ 739.921153676510926, -629.376790313321067 ], [ 739.906771126213812, -629.340106575473783 ], [ 739.921153676510926, -629.334490426152115 ], [ 739.921153676510926, -629.376790313321067 ] ] ], [ [ [ 739.921153676510926, -629.376790313321067 ], [ 739.921153676510926, -629.334490426152115 ], [ 743.602752817379837, -627.939186405218379 ], [ 739.921153676510926, -629.376790313321067 ] ] ], [ [ [ 743.602752817379837, -627.939186405218379 ], [ 739.921153676510926, -629.334490426152115 ], [ 743.602752817379837, -627.896886517909252 ], [ 743.602752817379837, -627.939186405218379 ] ] ], [ [ [ 743.602752817379837, -627.939186405218379 ], [ 743.602752817379837, -627.896886517909252 ], [ 743.617167775783173, -627.933557601064877 ], [ 743.602752817379837, -627.939186405218379 ] ] ], [ [ [ 743.617167775783173, -627.933557601064877 ], [ 743.602752817379837, -627.896886517909252 ], [ 743.617167775783173, -627.891182564394285 ], [ 743.617167775783173, -627.933557601064877 ] ] ], [ [ [ 743.617167775783173, -627.933557601064877 ], [ 743.617167775783173, -627.891182564394285 ], [ 749.474039393516591, -625.616011998999284 ], [ 743.617167775783173, -627.933557601064877 ] ] ], [ [ [ 749.474039393516591, -625.616011998999284 ], [ 743.617167775783173, -627.891182564394285 ], [ 749.474039393516591, -625.573636962405544 ], [ 749.474039393516591, -625.616011998999284 ] ] ], [ [ [ 749.474039393516591, -625.616011998999284 ], [ 749.474039393516591, -625.573636962405544 ], [ 749.488501076692955, -625.610289556639032 ], [ 749.474039393516591, -625.616011998999284 ] ] ], [ [ [ 749.488501076692955, -625.610289556639032 ], [ 749.474039393516591, -625.573636962405544 ], [ 749.488501076692955, -625.567947360521543 ], [ 749.488501076692955, -625.610289556639032 ] ] ], [ [ [ 749.488501076692955, -625.610289556639032 ], [ 749.488501076692955, -625.567947360521543 ], [ 756.88139867927589, -622.701731568266268 ], [ 749.488501076692955, -625.610289556639032 ] ] ], [ [ [ 756.88139867927589, -622.701731568266268 ], [ 749.488501076692955, -625.567947360521543 ], [ 756.88139867927589, -622.659389372169244 ], [ 756.88139867927589, -622.701731568266268 ] ] ], [ [ [ 756.88139867927589, -622.701731568266268 ], [ 756.88139867927589, -622.659389372169244 ], [ 756.896068851463156, -622.695959941388764 ], [ 756.88139867927589, -622.701731568266268 ] ] ], [ [ [ 756.896068851463156, -622.695959941388764 ], [ 756.88139867927589, -622.659389372169244 ], [ 756.896068851463156, -622.653390601860337 ], [ 756.896068851463156, -622.695959941388764 ] ] ], [ [ [ 756.896068851463156, -622.695959941388764 ], [ 756.896068851463156, -622.653390601860337 ], [ 759.641350145098727, -621.573388801650594 ], [ 756.896068851463156, -622.695959941388764 ] ] ], [ [ [ 759.641350145098727, -621.573388801650594 ], [ 756.896068851463156, -622.653390601860337 ], [ 759.641350145098727, -621.530819462016552 ], [ 759.641350145098727, -621.573388801650594 ] ] ], [ [ [ 759.641350145098727, -621.573388801650594 ], [ 759.641350145098727, -621.530819462016552 ], [ 759.656263525946542, -621.567290581051338 ], [ 759.641350145098727, -621.573388801650594 ] ] ] ] } },
{ "type": "Feature", "properties": { "Layer": "MURO", "PaperSpace": null, "SubClasses": null, "Linetype": null, "EntityHandle": "1D1EE304", "Text": null }, "geometry": { "type": "LineString", "coordinates": [ [ 734.239356240880966, -634.470642259709166, 0.0 ], [ 733.674762533920898, -631.821060852319533, 0.0 ], [ 737.256017612008691, -630.425936645952788, 0.0 ], [ 739.921153676510926, -629.376790313321067, 0.0 ], [ 743.617167775783173, -627.933557601064877, 0.0 ], [ 749.488501076692955, -625.610289556639032, 0.0 ], [ 756.896068851463156, -622.695959941388764, 0.0 ], [ 759.656263525946542, -621.567290581051338, 0.0 ], [ 759.641350145098727, -621.530819462016552, 0.0 ], [ 756.88139867927589, -622.659389372169244, 0.0 ], [ 749.474039393516591, -625.573636962405544, 0.0 ], [ 743.602752817379837, -627.896886517909252, 0.0 ], [ 739.906771126213812, -629.340106575473783, 0.0 ], [ 737.24164971030541, -630.389247141618171, 0.0 ], [ 733.629243292125807, -631.796506755080372, 0.0 ], [ 734.200819018219704, -634.478854075092272, 0.0 ], [ 734.718796616828058, -636.632949025526955, 0.0 ], [ 734.757106964676382, -636.623736605134241, 0.0 ], [ 734.239356240880966, -634.470642259709166, 0.0 ] ] } },
{ "type": "Feature", "properties": { "Layer": "MURO", "PaperSpace": null, "SubClasses": null, "Linetype": null, "EntityHandle": "1D1EE32C", "Text": "a  QUEILEN  " }, "geometry": { "type": "Point", "coordinates": [ 736.561350695074793, -652.139517371885063, 0.0 ] } },
{ "type": "Feature", "properties": { "Layer": "MURO", "PaperSpace": null, "SubClasses": null, "Linetype": null, "EntityHandle": "1D1EE356", "Text": null }, "geometry": { "type": "MultiLineString", "coordinates": [ [ [ 738.191940543757823, -648.246599843581066, 0.0 ], [ 737.936766145972456, -648.269662541175421, 0.0 ] ], [ [ 738.084201495832303, -648.122721686340242, 0.0 ], [ 738.059396330316076, -648.392728687256522, 0.0 ] ] ] } },
{ "type": "Feature", "properties": { "Layer": "MURO", "PaperSpace": null, "SubClasses": null, "Linetype": null, "EntityHandle": "1D1EE35A", "Text": null }, "geometry": { "type": "MultiLineString", "coordinates": [ [ [ 737.989749875800726, -649.574602689683843, 0.0 ], [ 738.237619857140658, -649.639458943476143, 0.0 ] ], [ [ 738.0490842231128, -649.727680890347187, 0.0 ], [ 738.164001710529305, -649.482093741119115, 0.0 ] ] ] } },
{ "type": "Feature", "properties": { "Layer": "MURO", "PaperSpace": null, "SubClasses": null, "Linetype": null, "EntityHandle": "1D1EE35B", "Text": null }, "geometry": { "type": "MultiLineString", "coordinates": [ [ [ 738.892191267903172, -650.955566617400336, 0.0 ], [ 739.140061249243104, -651.020422871192636, 0.0 ] ], [ [ 738.951525615215246, -651.108644818063681, 0.0 ], [ 739.066443102631752, -650.863057668835609, 0.0 ] ] ] } },
{ "type": "Feature", "properties": { "Layer": "MURO", "PaperSpace": null, "SubClasses": null, "Linetype": null, "EntityHandle": "1D1EE362", "Text": null }, "geometry": { "type": "MultiLineString", "coordinates": [ [ [ 740.573866619940191, -650.633036263708959, 0.0 ], [ 740.821736601280122, -650.697892517501259, 0.0 ] ], [ [ 740.633200967252264, -650.786114464372304, 0.0 ], [ 740.74811845466877, -650.540527315144232, 0.0 ] ] ] } },
{ "type": "Feature", "properties": { "Layer": "MURO", "PaperSpace": null, "SubClasses": null, "Linetype": null, "EntityHandle": "1D1EE368", "Text": null }, "geometry": { "type": "LineString", "coordinates": [ [ 736.899424939619848, -653.401230267348069, 0.0 ], [ 736.862761728962141, -653.58349468891447, 0.0 ], [ 736.730224022361654, -653.432968010707896, 0.0 ] ] } },
{ "type": "Feature", "properties": { "Layer": "MURO", "PaperSpace": null, "SubClasses": null, "Linetype": null, "EntityHandle": "1D1EE36A", "Text": null }, "geometry": { "type": "LineString", "coordinates": [ [ 748.502257657852851, -637.116360719629824, 0.0 ], [ 748.688014239134986, -638.839740126169204, 0.0 ], [ 748.859578253878567, -640.627628671678963, 0.0 ] ] } },
{ "type": "Feature", "properties": { "Layer": "MURO", "PaperSpace": null, "SubClasses": null, "Linetype": null, "EntityHandle": "1D1EE36B", "Text": null }, "geometry": { "type": "LineString", "coordinates": [ [ 748.541383308253671, -637.111675480795611, 0.0 ], [ 748.727214471853017, -638.835746833770941, 0.0 ], [ 748.89886889974548, -640.624577585872885, 0.0 ] ] } },
{ "type": "Feature", "properties": { "Layer": "MURO", "PaperSpace": null, "SubClasses": null, "Linetype": null, "EntityHandle": "1D1EE3CB", "Text": null }, "geometry": { "type": "MultiLineString", "coordinates": [ [ [ 748.257824441251728, -649.159674482155538, 0.0 ], [ 748.50569442259166, -649.224530735947837, 0.0 ] ], [ [ 748.317158788563802, -649.312752682818882, 0.0 ], [ 748.432076275980307, -649.06716553359081, 0.0 ] ] ] } },
{ "type": "Feature", "properties": { "Layer": "MURO", "PaperSpace": null, "SubClasses": null, "Linetype": null, "EntityHandle": "1D1EE3F0", "Text": null }, "geometry": { "type": "MultiLineString", "coordinates": [ [ [ 744.391820933349322, -649.92094402456496, 0.0 ], [ 744.639690914689254, -649.98580027835726, 0.0 ] ], [ [ 744.451155280661396, -650.074022225228305, 0.0 ], [ 744.566072768077902, -649.828435076000233, 0.0 ] ] ] } },
{ "type": "Feature", "properties": { "Layer": "MURO", "PaperSpace": null, "SubClasses": null, "Linetype": null, "EntityHandle": "1D1EE42E", "Text": null }, "geometry": { "type": "MultiLineString", "coordinates": [ [ [ 756.00238268715168, -647.702498306762891, 0.0 ], [ 756.250252668491612, -647.767354560555191, 0.0 ] ], [ [ 756.061717034463754, -647.855576507426235, 0.0 ], [ 756.17663452188026, -647.609989358198163, 0.0 ] ] ] } },
{ "type": "Feature", "properties": { "Layer": "MURO", "PaperSpace": null, "SubClasses": null, "Linetype": null, "EntityHandle": "1D1EE42F", "Text": null }, "geometry": { "type": "MultiLineString", "coordinates": [ [ [ 759.87644976341403, -646.983388629661022, 0.0 ], [ 760.124319744753961, -647.048244883453322, 0.0 ] ], [ [ 759.935784110726104, -647.136466830324366, 0.0 ], [ 760.050701598142609, -646.890879681096294, 0.0 ] ] ] } },
{ "type": "Feature", "properties": { "Layer": "MURO", "PaperSpace": null, "SubClasses": null, "Linetype": null, "EntityHandle": "1D1EE43D", "Text": null }, "geometry": { "type": "MultiLineString", "coordinates": [ [ [ 774.51708865314572, -641.870846142737605, 0.0 ], [ 774.764958634485652, -641.935702396529905, 0.0 ] ], [ [ 774.576423000457794, -642.02392434340095, 0.0 ], [ 774.691340487874299, -641.778337194172877, 0.0 ] ] ] } },
{ "type": "Feature", "properties": { "Layer": "MURO", "PaperSpace": null, "SubClasses": null, "Linetype": null, "EntityHandle": "1D1EE43E", "Text": null }, "geometry": { "type": "MultiLineString", "coordinates": [ [ [ 777.552839686041807, -639.358928527746457, 0.0 ], [ 777.800709667381739, -639.423784781538757, 0.0 ] ], [ [ 777.612174033353881, -639.512006728409801, 0.0 ], [ 777.727091520770387, -639.266419579181729, 0.0 ] ] ] } },
{ "type": "Feature", "properties": { "Layer": "MURO", "PaperSpace": null, "SubClasses": null, "Linetype": null, "EntityHandle": "1D1EE446", "Text": null }, "geometry": { "type": "MultiLineString", "coordinates": [ [ [ 763.7473642583426, -646.247497732823831, 0.0 ], [ 763.995234239682532, -646.312353986616131, 0.0 ] ], [ [ 763.806698605654674, -646.400575933487175, 0.0 ], [ 763.921616093071179, -646.154988784259103, 0.0 ] ] ] } },
{ "type": "Feature", "properties": { "Layer": "MURO", "PaperSpace": null, "SubClasses": null, "Linetype": null, "EntityHandle": "1D1EE449", "Text": null }, "geometry": { "type": "MultiLineString", "coordinates": [ [ [ 767.612040305888513, -645.479517598374628, 0.0 ], [ 767.859910287228445, -645.544373852166927, 0.0 ] ], [ [ 767.671374653200587, -645.632595799037972, 0.0 ], [ 767.786292140617093, -645.3870086498099, 0.0 ] ] ] } },
{ "type": "Feature", "properties": { "Layer": "MURO", "PaperSpace": null, "SubClasses": null, "Linetype": null, "EntityHandle": "1D1EE44D", "Text": null }, "geometry": { "type": "MultiLineString", "coordinates": [ [ [ 771.338568360303384, -644.199477326155488, 0.0 ], [ 771.586438341643316, -644.264333579947788, 0.0 ] ], [ [ 771.397902707615458, -644.352555526818833, 0.0 ], [ 771.512820195031964, -644.106968377590761, 0.0 ] ] ] } },
{ "type": "Feature", "properties": { "Layer": "MURO", "PaperSpace": null, "SubClasses": null, "Linetype": null, "EntityHandle": "1D1EE4AC", "Text": null }, "geometry": { "type": "MultiLineString", "coordinates": [ [ [ 780.684395623657565, -636.96751224242746, 0.0 ], [ 780.932265604997497, -637.03236849621976, 0.0 ] ], [ [ 780.743729970969639, -637.120590443090805, 0.0 ], [ 780.858647458386145, -636.875003293862733, 0.0 ] ] ] } },
{ "type": "Feature", "properties": { "Layer": "MURO", "PaperSpace": null, "SubClasses": null, "Linetype": null, "EntityHandle": "1D1F0C90", "Text": null }, "geometry": { "type": "LineString", "coordinates": [ [ 748.859578253878567, -640.627628671678963, 0.0 ], [ 748.89886889974548, -640.624577585872885, 0.0 ] ] } },
{ "type": "Feature", "properties": { "Layer": "MURO", "PaperSpace": null, "SubClasses": null, "Linetype": null, "EntityHandle": "1D1F0C91", "Text": null }, "geometry": { "type": "LineString", "coordinates": [ [ 748.502257657852851, -637.116360719629824, 0.0 ], [ 748.541383308253671, -637.111675480795611, 0.0 ] ] } },
{ "type": "Feature", "properties": { "Layer": "MURO", "PaperSpace": null, "SubClasses": null, "Linetype": null, "EntityHandle": "1D1F1A72", "Text": null }, "geometry": { "type": "MultiLineString", "coordinates": [ [ [ 734.64604723799664, -627.745617768464399, 0.0 ], [ 734.893917219336572, -627.810474022256699, 0.0 ] ], [ [ 734.705381585308714, -627.898695969127743, 0.0 ], [ 734.82029907272522, -627.653108819899671, 0.0 ] ] ] } },
{ "type": "Feature", "properties": { "Layer": "MURO", "PaperSpace": null, "SubClasses": null, "Linetype": null, "EntityHandle": "1D1F1A73", "Text": null }, "geometry": { "type": "MultiLineString", "coordinates": [ [ [ 733.084014208431313, -629.723429666377228, 0.0 ], [ 733.331884189771245, -629.788285920169528, 0.0 ] ], [ [ 733.143348555743387, -629.876507867040573, 0.0 ], [ 733.258266043159892, -629.630920717812501, 0.0 ] ] ] } },
{ "type": "Feature", "properties": { "Layer": "MURO", "PaperSpace": null, "SubClasses": null, "Linetype": null, "EntityHandle": "1D1F1A74", "Text": null }, "geometry": { "type": "MultiLineString", "coordinates": [ [ [ 733.375112367885549, -631.086163014875069, 0.0 ], [ 733.622982349225481, -631.151019268667369, 0.0 ] ], [ [ 733.434446715197623, -631.239241215538414, 0.0 ], [ 733.549364202614129, -630.993654066310341, 0.0 ] ] ] } },
{ "type": "Feature", "properties": { "Layer": "MURO", "PaperSpace": null, "SubClasses": null, "Linetype": null, "EntityHandle": "1D1F1A75", "Text": null }, "geometry": { "type": "MultiLineString", "coordinates": [ [ [ 737.23270231501499, -626.538146438546732, 0.0 ], [ 737.480572296354921, -626.603002692339032, 0.0 ] ], [ [ 737.292036662327064, -626.691224639210077, 0.0 ], [ 737.406954149743569, -626.445637489982005, 0.0 ] ] ] } },
{ "type": "Feature", "properties": { "Layer": "MURO", "PaperSpace": null, "SubClasses": null, "Linetype": null, "EntityHandle": "1D1F1A76", "Text": null }, "geometry": { "type": "MultiLineString", "coordinates": [ [ [ 739.419735502607637, -625.518261347430553, 0.0 ], [ 739.667605483947568, -625.583117601222852, 0.0 ] ], [ [ 739.479069849919711, -625.671339548093897, 0.0 ], [ 739.593987337336216, -625.425752398865825, 0.0 ] ] ] } },
{ "type": "Feature", "properties": { "Layer": "MURO", "PaperSpace": null, "SubClasses": null, "Linetype": null, "EntityHandle": "1D1F1A77", "Text": null }, "geometry": { "type": "MultiLineString", "coordinates": [ [ [ 742.246501036209679, -624.201491109973063, 0.0 ], [ 742.494371017549611, -624.266347363765362, 0.0 ] ], [ [ 742.305835383521753, -624.354569310636407, 0.0 ], [ 742.420752870938259, -624.108982161408335, 0.0 ] ] ] } },
{ "type": "Feature", "properties": { "Layer": "MURO", "PaperSpace": null, "SubClasses": null, "Linetype": null, "EntityHandle": "1D1F1A78", "Text": null }, "geometry": { "type": "MultiLineString", "coordinates": [ [ [ 743.900750571253411, -623.431725986623633, 0.0 ], [ 744.148620552593343, -623.496582240415933, 0.0 ] ], [ [ 743.960084918565485, -623.584804187286977, 0.0 ], [ 744.075002405981991, -623.339217038058905, 0.0 ] ] ] } },
{ "type": "Feature", "properties": { "Layer": "MURO", "PaperSpace": null, "SubClasses": null, "Linetype": null, "EntityHandle": "1D1F1A79", "Text": null }, "geometry": { "type": "MultiLineString", "coordinates": [ [ [ 746.127607257631212, -622.393664227916361, 0.0 ], [ 746.375477238971143, -622.458520481708661, 0.0 ] ], [ [ 746.186941604943286, -622.546742428579705, 0.0 ], [ 746.301859092359791, -622.301155279351633, 0.0 ] ] ] } },
{ "type": "Feature", "properties": { "Layer": "MURO", "PaperSpace": null, "SubClasses": null, "Linetype": null, "EntityHandle": "1D1F1A7A", "Text": null }, "geometry": { "type": "MultiLineString", "coordinates": [ [ [ 749.025321094564674, -621.042966012875581, 0.0 ], [ 749.273191075904606, -621.107822266667881, 0.0 ] ], [ [ 749.084655441876748, -621.196044213538926, 0.0 ], [ 749.199572929293254, -620.950457064310854, 0.0 ] ] ] } },
{ "type": "Feature", "properties": { "Layer": "MURO", "PaperSpace": null, "SubClasses": null, "Linetype": null, "EntityHandle": "1D1F1A7B", "Text": null }, "geometry": { "type": "MultiLineString", "coordinates": [ [ [ 751.331485588291002, -619.969750422385118, 0.0 ], [ 751.579355569630934, -620.034606676177418, 0.0 ] ], [ [ 751.390819935603076, -620.122828623048463, 0.0 ], [ 751.505737423019582, -619.877241473820391, 0.0 ] ] ] } },
{ "type": "Feature", "properties": { "Layer": "MURO", "PaperSpace": null, "SubClasses": null, "Linetype": null, "EntityHandle": "1D1F1A7C", "Text": null }, "geometry": { "type": "MultiLineString", "coordinates": [ [ [ 754.548736573815404, -618.469351670154197, 0.0 ], [ 754.796606555155336, -618.534207923946497, 0.0 ] ], [ [ 754.608070921127478, -618.622429870817541, 0.0 ], [ 754.722988408543983, -618.376842721589469, 0.0 ] ] ] } },
{ "type": "Feature", "properties": { "Layer": "MURO", "PaperSpace": null, "SubClasses": null, "Linetype": null, "EntityHandle": "1D1F1A7D", "Text": null }, "geometry": { "type": "MultiLineString", "coordinates": [ [ [ 759.97485224053753, -615.942777758972738, 0.0 ], [ 760.222722221877461, -616.007634012765038, 0.0 ] ], [ [ 760.034186587849604, -616.095855959636083, 0.0 ], [ 760.149104075266109, -615.850268810408011, 0.0 ] ] ] } },
{ "type": "Feature", "properties": { "Layer": "MURO", "PaperSpace": null, "SubClasses": null, "Linetype": null, "EntityHandle": "1D1F1A7E", "Text": null }, "geometry": { "type": "MultiLineString", "coordinates": [ [ [ 766.978272552705562, -612.66658261378177, 0.0 ], [ 767.226142534045493, -612.73143886757407, 0.0 ] ], [ [ 767.037606900017636, -612.819660814445115, 0.0 ], [ 767.152524387434141, -612.574073665217043, 0.0 ] ] ] } },
{ "type": "Feature", "properties": { "Layer": "MURO", "PaperSpace": null, "SubClasses": null, "Linetype": null, "EntityHandle": "1D1F1A7F", "Text": null }, "geometry": { "type": "MultiLineString", "coordinates": [ [ [ 774.470654759847548, -609.190670712348833, 0.0 ], [ 774.71852474118748, -609.255526966141133, 0.0 ] ], [ [ 774.529989107159622, -609.343748913012178, 0.0 ], [ 774.644906594576128, -609.098161763784105, 0.0 ] ] ] } },
{ "type": "Feature", "properties": { "Layer": "MURO", "PaperSpace": null, "SubClasses": null, "Linetype": null, "EntityHandle": "1D1F1A80", "Text": null }, "geometry": { "type": "MultiLineString", "coordinates": [ [ [ 773.660789741150779, -604.26301142939144, 0.0 ], [ 773.908659722490711, -604.32786768318374, 0.0 ] ], [ [ 773.720124088462853, -604.416089630054785, 0.0 ], [ 773.835041575879359, -604.170502480826713, 0.0 ] ] ] } },
{ "type": "Feature", "properties": { "Layer": "MURO", "PaperSpace": null, "SubClasses": null, "Linetype": null, "EntityHandle": "1D1F1A81", "Text": null }, "geometry": { "type": "MultiLineString", "coordinates": [ [ [ 773.655194408277339, -600.060518038670921, 0.0 ], [ 773.903064389617271, -600.125374292463221, 0.0 ] ], [ [ 773.714528755589413, -600.213596239334265, 0.0 ], [ 773.829446243005918, -599.968009090106193, 0.0 ] ] ] } },
{ "type": "Feature", "properties": { "Layer": "MURO", "PaperSpace": null, "SubClasses": null, "Linetype": null, "EntityHandle": "1D1F1A82", "Text": null }, "geometry": { "type": "MultiLineString", "coordinates": [ [ [ 775.069089574626446, -597.823952134399065, 0.0 ], [ 775.316959555966378, -597.888808388191364, 0.0 ] ], [ [ 775.12842392193852, -597.977030335062409, 0.0 ], [ 775.243341409355025, -597.731443185834337, 0.0 ] ] ] } },
{ "type": "Feature", "properties": { "Layer": "MURO", "PaperSpace": null, "SubClasses": null, "Linetype": null, "EntityHandle": "1D1F1A83", "Text": null }, "geometry": { "type": "MultiLineString", "coordinates": [ [ [ 777.413547160369149, -596.426787419083439, 0.0 ], [ 777.66141714170908, -596.491643672875739, 0.0 ] ], [ [ 777.472881507681223, -596.579865619746784, 0.0 ], [ 777.587798995097728, -596.334278470518711, 0.0 ] ] ] } },
{ "type": "Feature", "properties": { "Layer": "MURO", "PaperSpace": null, "SubClasses": null, "Linetype": null, "EntityHandle": "1D1F1A84", "Text": null }, "geometry": { "type": "MultiLineString", "coordinates": [ [ [ 779.524704123558649, -595.168110983218298, 0.0 ], [ 779.772574104898581, -595.232967237010598, 0.0 ] ], [ [ 779.584038470870723, -595.321189183881643, 0.0 ], [ 779.698955958287229, -595.075602034653571, 0.0 ] ] ] } },
{ "type": "Feature", "properties": { "Layer": "MURO", "PaperSpace": null, "SubClasses": null, "Linetype": null, "EntityHandle": "1D1F1A85", "Text": null }, "geometry": { "type": "MultiLineString", "coordinates": [ [ [ 734.725903366033094, -636.91705759281308, 0.0 ], [ 734.973773347373026, -636.98191384660538, 0.0 ] ], [ [ 734.785237713345168, -637.070135793476425, 0.0 ], [ 734.900155200761674, -636.824548644248353, 0.0 ] ] ] } },
{ "type": "Feature", "properties": { "Layer": "MURO", "PaperSpace": null, "SubClasses": null, "Linetype": null, "EntityHandle": "1D1F1A86", "Text": null }, "geometry": { "type": "MultiLineString", "coordinates": [ [ [ 734.97846784629121, -637.883953447586919, 0.0 ], [ 735.226337827631141, -637.948809701379218, 0.0 ] ], [ [ 735.037802193603284, -638.037031648250263, 0.0 ], [ 735.152719681019789, -637.791444499022191, 0.0 ] ] ] } },
{ "type": "Feature", "properties": { "Layer": "MURO", "PaperSpace": null, "SubClasses": null, "Linetype": null, "EntityHandle": "1D1F1A87", "Text": null }, "geometry": { "type": "MultiLineString", "coordinates": [ [ [ 737.303145009798868, -638.148609187068246, 0.0 ], [ 737.5510149911388, -638.213465440860546, 0.0 ] ], [ [ 737.362479357110942, -638.30168738773159, 0.0 ], [ 737.477396844527448, -638.056100238503518, 0.0 ] ] ] } },
{ "type": "Feature", "properties": { "Layer": "MURO", "PaperSpace": null, "SubClasses": null, "Linetype": null, "EntityHandle": "1D1F1A88", "Text": null }, "geometry": { "type": "MultiLineString", "coordinates": [ [ [ 739.212337259468541, -638.076535680327652, 0.0 ], [ 739.460207240808472, -638.141391934119952, 0.0 ] ], [ [ 739.271671606780615, -638.229613880990996, 0.0 ], [ 739.38658909419712, -637.984026731762924, 0.0 ] ] ] } },
{ "type": "Feature", "properties": { "Layer": "MURO", "PaperSpace": null, "SubClasses": null, "Linetype": null, "EntityHandle": "1D1F1A89", "Text": null }, "geometry": { "type": "MultiLineString", "coordinates": [ [ [ 740.806858077565835, -639.075867328987329, 0.0 ], [ 741.054728058905766, -639.140723582779628, 0.0 ] ], [ [ 740.866192424877909, -639.228945529650673, 0.0 ], [ 740.981109912294414, -638.983358380422601, 0.0 ] ] ] } },
{ "type": "Feature", "properties": { "Layer": "MURO", "PaperSpace": null, "SubClasses": null, "Linetype": null, "EntityHandle": "1D1F1A8A", "Text": null }, "geometry": { "type": "MultiLineString", "coordinates": [ [ [ 741.32180095056458, -640.628693482742847, 0.0 ], [ 741.569670931904511, -640.693549736535147, 0.0 ] ], [ [ 741.381135297876654, -640.781771683406191, 0.0 ], [ 741.496052785293159, -640.536184534178119, 0.0 ] ] ] } },
{ "type": "Feature", "properties": { "Layer": "MURO", "PaperSpace": null, "SubClasses": null, "Linetype": null, "EntityHandle": "1D1F1A8B", "Text": null }, "geometry": { "type": "MultiLineString", "coordinates": [ [ [ 741.984548189111592, -642.598450155874957, 0.0 ], [ 742.232418170451524, -642.663306409667257, 0.0 ] ], [ [ 742.043882536423666, -642.751528356538302, 0.0 ], [ 742.158800023840172, -642.505941207310229, 0.0 ] ] ] } },
{ "type": "Feature", "properties": { "Layer": "MURO", "PaperSpace": null, "SubClasses": null, "Linetype": null, "EntityHandle": "1D1F1A8C", "Text": null }, "geometry": { "type": "MultiLineString", "coordinates": [ [ [ 742.641972895397771, -644.567856752041848, 0.0 ], [ 742.889842876737703, -644.632713005834148, 0.0 ] ], [ [ 742.701307242709845, -644.720934952705193, 0.0 ], [ 742.816224730126351, -644.475347803477121, 0.0 ] ] ] } },
{ "type": "Feature", "properties": { "Layer": "MURO", "PaperSpace": null, "SubClasses": null, "Linetype": null, "EntityHandle": "1D1F1A8D", "Text": null }, "geometry": { "type": "MultiLineString", "coordinates": [ [ [ 742.216806140295716, -645.987991667769165, 0.0 ], [ 742.464676121635648, -646.052847921561465, 0.0 ] ], [ [ 742.27614048760779, -646.14106986843251, 0.0 ], [ 742.391057975024296, -645.895482719204438, 0.0 ] ] ] } },
{ "type": "Feature", "properties": { "Layer": "MURO", "PaperSpace": null, "SubClasses": null, "Linetype": null, "EntityHandle": "1D1F1A8E", "Text": null }, "geometry": { "type": "MultiLineString", "coordinates": [ [ [ 741.071136738199016, -646.224283131141306, 0.0 ], [ 741.319006719538947, -646.289139384933605, 0.0 ] ], [ [ 741.13047108551109, -646.37736133180465, 0.0 ], [ 741.245388572927595, -646.131774182576578, 0.0 ] ] ] } },
{ "type": "Feature", "properties": { "Layer": "MURO", "PaperSpace": null, "SubClasses": null, "Linetype": null, "EntityHandle": "1D1F1A8F", "Text": null }, "geometry": { "type": "MultiLineString", "coordinates": [ [ [ 739.502387561953924, -646.537378112171723, 0.0 ], [ 739.750257543293856, -646.602234365964023, 0.0 ] ], [ [ 739.561721909265998, -646.690456312835067, 0.0 ], [ 739.676639396682504, -646.444869163606995, 0.0 ] ] ] } },
{ "type": "Feature", "properties": { "Layer": "MURO", "PaperSpace": null, "SubClasses": null, "Linetype": null, "EntityHandle": "1D1F1AE2", "Text": "a  CHONCHI  " }, "geometry": { "type": "Point", "coordinates": [ 731.538256800186787, -631.81796975476766, 0.0 ] } },
{ "type": "Feature", "properties": { "Layer": "MURO", "PaperSpace": null, "SubClasses": null, "Linetype": null, "EntityHandle": "1D1F1AE3", "Text": null }, "geometry": { "type": "LineString", "coordinates": [ [ 731.398979904507314, -631.821718226499684, 0.0 ], [ 731.42683487196723, -631.637901439528491, 0.0 ], [ 731.566458631554497, -631.781879668026932, 0.0 ] ] } },
{ "type": "Feature", "properties": { "Layer": "MURO", "PaperSpace": null, "SubClasses": null, "Linetype": null, "EntityHandle": "1D1F1B00", "Text": "CAMINO PÚBLICO  " }, "geometry": { "type": "Point", "coordinates": [ 734.17376430518641, -642.411287199620688, 0.0 ] } }
]
}
