{
"type": "FeatureCollection",
"name": "entities",
"features": [
{ "type": "Feature", "properties": { "Layer": "06_TEXTOS_Y_COTAS", "SubClasses": "AcDbEntity:AcDbLine", "Linetype": "CENTER2", "EntityHandle": "1C1E1BE1" }, "geometry": { "type": "LineString", "coordinates": [ [ 1.310309172348525, 61.181195605982282, 0.0 ], [ 7.11419777697472, 61.181195605982282, 0.0 ] ] } },
{ "type": "Feature", "properties": { "Layer": "06_TEXTOS_Y_COTAS", "SubClasses": "AcDbEntity:AcDbLine", "Linetype": "CENTER2", "EntityHandle": "1C1E1C02" }, "geometry": { "type": "LineString", "coordinates": [ [ 1.310309172348525, 59.751195605982389, 0.0 ], [ 43.504197776974017, 59.751195605981962, 0.0 ] ] } },
{ "type": "Feature", "properties": { "Layer": "06_TEXTOS_Y_COTAS", "SubClasses": "AcDbEntity:AcDbLine", "Linetype": "CENTER2", "EntityHandle": "1C1E1D2E" }, "geometry": { "type": "LineString", "coordinates": [ [ 41.884197776974361, 61.331195605982373, 0.0 ], [ 41.884197776975498, 56.723277859396553, 0.0 ] ] } },
{ "type": "Feature", "properties": { "Layer": "06_TEXTOS_Y_COTAS", "SubClasses": "AcDbEntity:AcDbLine", "Linetype": "CENTER2", "EntityHandle": "1C1E1D30" }, "geometry": { "type": "LineString", "coordinates": [ [ 43.434197776974429, 61.231195605982151, 0.0 ], [ 43.434197776973967, 56.723277212925467, 0.0 ] ] } },
{ "type": "Feature", "properties": { "Layer": "06_TEXTOS_Y_COTAS", "SubClasses": "AcDbEntity:AcDbLine", "Linetype": "CENTER2", "EntityHandle": "1C1E1D41" }, "geometry": { "type": "LineString", "coordinates": [ [ 40.80419777697432, 61.331195605982288, 0.0 ], [ 40.804197776975343, 56.721726612920463, 0.0 ] ] } },
{ "type": "Feature", "properties": { "Layer": "06_TEXTOS_Y_COTAS", "SubClasses": "AcDbEntity:AcDbLine", "Linetype": "CENTER2", "EntityHandle": "1C1E1D44" }, "geometry": { "type": "LineString", "coordinates": [ [ 39.254197776974138, 61.231195605982151, 0.0 ], [ 39.254197776974138, 56.723019901916558, 0.0 ] ] } },
{ "type": "Feature", "properties": { "Layer": "06_TEXTOS_Y_COTAS", "SubClasses": "AcDbEntity:AcDbLine", "Linetype": "CENTER2", "EntityHandle": "1C1E1D4D" }, "geometry": { "type": "LineString", "coordinates": [ [ 35.949287421612098, 56.723435235439872, 0.0 ], [ 35.949287421610052, 60.371195605982052, 0.0 ] ] } },
{ "type": "Feature", "properties": { "Layer": "06_TEXTOS_Y_COTAS", "SubClasses": "AcDbEntity:AcDbLine", "Linetype": "CENTER2", "EntityHandle": "1C1E1F79" }, "geometry": { "type": "LineString", "coordinates": [ [ 39.904197776975593, 95.93119560598177, 0.0 ], [ 39.904197776974677, 104.184294010784001, 0.0 ] ] } },
{ "type": "Feature", "properties": { "Layer": "06_TEXTOS_Y_COTAS", "SubClasses": "AcDbEntity:AcDbLine", "Linetype": "CENTER2", "EntityHandle": "1C1E1F8F" }, "geometry": { "type": "LineString", "coordinates": [ [ 1.310309172348525, 102.391195605981594, 0.0 ], [ 91.417214586438377, 102.391195605981594, 0.0 ] ] } },
{ "type": "Feature", "properties": { "Layer": "06_TEXTOS_Y_COTAS", "SubClasses": "AcDbEntity:AcDbLine", "Linetype": "CENTER2", "EntityHandle": "1C1E1F93" }, "geometry": { "type": "LineString", "coordinates": [ [ 27.684197776975338, 100.851195605981403, 0.0 ], [ 91.417214586438377, 100.851195605981601, 0.0 ] ] } },
{ "type": "Feature", "properties": { "Layer": "06_TEXTOS_Y_COTAS", "SubClasses": "AcDbEntity:AcDbLine", "Linetype": "CENTER2", "EntityHandle": "1C1E1F95" }, "geometry": { "type": "LineString", "coordinates": [ [ 63.474197776974393, 104.184294010783901, 0.0 ], [ 63.474197776974393, 95.901195605981883, 0.0 ] ] } },
{ "type": "Feature", "properties": { "Layer": "06_TEXTOS_Y_COTAS", "SubClasses": "AcDbEntity:AcDbLine", "Linetype": "CENTER2", "EntityHandle": "1C1E1F9E" }, "geometry": { "type": "LineString", "coordinates": [ [ 79.494197776974829, 87.781195605983072, 0.0 ], [ 79.494197776974829, 104.184294010784001, 0.0 ] ] } },
{ "type": "Feature", "properties": { "Layer": "06_TEXTOS_Y_COTAS", "SubClasses": "AcDbEntity:AcDbLine", "Linetype": "CENTER2", "EntityHandle": "1C1E200F" }, "geometry": { "type": "LineString", "coordinates": [ [ 81.01919777697492, 104.184294010784001, 0.0 ], [ 81.01919777697492, 92.46119560598288, 0.0 ] ] } },
{ "type": "Feature", "properties": { "Layer": "06_TEXTOS_Y_COTAS", "SubClasses": "AcDbEntity:AcDbLine", "Linetype": "CENTER2", "EntityHandle": "1C1E2013" }, "geometry": { "type": "LineString", "coordinates": [ [ 79.544197776974897, 94.526195605983048, 0.0 ], [ 91.405273825590371, 94.526195605982963, 0.0 ] ] } },
{ "type": "Feature", "properties": { "Layer": "06_TEXTOS_Y_COTAS", "SubClasses": "AcDbEntity:AcDbLine", "Linetype": "CENTER2", "EntityHandle": "1C1E2018" }, "geometry": { "type": "LineString", "coordinates": [ [ 79.544197776974897, 91.82119560598295, 0.0 ], [ 91.417214586438377, 91.82119560598295, 0.0 ] ] } },
{ "type": "Feature", "properties": { "Layer": "06_TEXTOS_Y_COTAS", "SubClasses": "AcDbEntity:AcDbLine", "Linetype": "CENTER2", "EntityHandle": "1C1E2023" }, "geometry": { "type": "LineString", "coordinates": [ [ 59.624197776974938, 76.48019560598155, 0.0 ], [ 59.624197776975727, 56.732872651169572, 0.0 ] ] } },
{ "type": "Feature", "properties": { "Layer": "06_TEXTOS_Y_COTAS", "SubClasses": "AcDbEntity:AcDbLine", "Linetype": "CENTER2", "EntityHandle": "1C1E2028" }, "geometry": { "type": "LineString", "coordinates": [ [ 63.474197776974393, 95.901195605981883, 0.0 ], [ 63.474197776974279, 56.723530394030767, 0.0 ] ] } },
{ "type": "Feature", "properties": { "Layer": "06_TEXTOS_Y_COTAS", "SubClasses": "AcDbEntity:AcDbLine", "Linetype": "CENTER2", "EntityHandle": "1C1E202E" }, "geometry": { "type": "LineString", "coordinates": [ [ 63.524197776974923, 81.651195605983247, 0.0 ], [ 91.417214586438377, 81.651195605983247, 0.0 ] ] } },
{ "type": "Feature", "properties": { "Layer": "06_TEXTOS_Y_COTAS", "SubClasses": "AcDbEntity:AcDbLine", "Linetype": "CENTER2", "EntityHandle": "1C1E2049" }, "geometry": { "type": "LineString", "coordinates": [ [ 77.774197776974461, 64.011195605982863, 0.0 ], [ 91.417214586438377, 64.011195605984284, 0.0 ] ] } },
{ "type": "Feature", "properties": { "Layer": "06_TEXTOS_Y_COTAS", "SubClasses": "AcDbEntity:AcDbLine", "Linetype": "CENTER2", "EntityHandle": "1C1E2069" }, "geometry": { "type": "LineString", "coordinates": [ [ 79.004197776975047, 62.821195605982581, 0.0 ], [ 79.004197776973911, 56.72328683328908, 0.0 ] ] } },
{ "type": "Feature", "properties": { "Layer": "06_TEXTOS_Y_COTAS", "SubClasses": "AcDbEntity:AcDbLine", "Linetype": "CENTER2", "EntityHandle": "1C1E206D" }, "geometry": { "type": "LineString", "coordinates": [ [ 80.654197776973888, 56.723449261653883, 0.0 ], [ 80.65419777697457, 62.921195605982632, 0.0 ] ] } },
{ "type": "Feature", "properties": { "Layer": "06_TEXTOS_Y_COTAS", "SubClasses": "AcDbEntity:AcDbLine", "Linetype": "CENTER2", "EntityHandle": "1C1E2077" }, "geometry": { "type": "LineString", "coordinates": [ [ 77.84419777697542, 56.720899075480453, 0.0 ], [ 77.844197776974283, 66.661195605982982, 0.0 ] ] } },
{ "type": "Feature", "properties": { "Layer": "06_TEXTOS_Y_COTAS", "SubClasses": "AcDbEntity:AcDbLine", "Linetype": "CENTER2", "EntityHandle": "1C1E2079" }, "geometry": { "type": "LineString", "coordinates": [ [ 91.417214586438377, 66.71119560598288, 0.0 ], [ 59.034197776973883, 66.711195605982283, 0.0 ] ] } },
{ "type": "Feature", "properties": { "Layer": "06_TEXTOS_Y_COTAS", "SubClasses": "AcDbEntity:AcDbLine", "Linetype": "CENTER2", "EntityHandle": "1C1E207B" }, "geometry": { "type": "LineString", "coordinates": [ [ 58.849197776974393, 66.661195605982272, 0.0 ], [ 58.849197776975423, 56.723522216115668, 0.0 ] ] } },
{ "type": "Feature", "properties": { "Layer": "06_TEXTOS_Y_COTAS", "SubClasses": "AcDbEntity:AcDbLine", "Linetype": "CENTER2", "EntityHandle": "1C1E2092" }, "geometry": { "type": "LineString", "coordinates": [ [ 88.594197776975193, 104.184294010784001, 0.0 ], [ 88.594197776974625, 66.761195605983289, 0.0 ] ] } },
{ "type": "Feature", "properties": { "Layer": "06_TEXTOS_Y_COTAS", "SubClasses": "AcDbEntity:AcDbLine", "Linetype": "CENTER2", "EntityHandle": "1C1E2094" }, "geometry": { "type": "LineString", "coordinates": [ [ 82.349197776975188, 104.184294010783901, 0.0 ], [ 82.349197776975188, 91.871195605983189, 0.0 ] ] } },
{ "type": "Feature", "properties": { "Layer": "06_TEXTOS_Y_COTAS", "SubClasses": "AcDbEntity:AcDbLine", "Linetype": "CENTER2", "EntityHandle": "1C1E2170" }, "geometry": { "type": "LineString", "coordinates": [ [ 5.924197776974211, 69.71119560598197, 0.0 ], [ 1.310309172348525, 69.711195605982141, 0.0 ] ] } },
{ "type": "Feature", "properties": { "Layer": "06_TEXTOS_Y_COTAS", "SubClasses": "AcDbEntity:AcDbLine", "Linetype": "CENTER2", "EntityHandle": "1C1E2172" }, "geometry": { "type": "LineString", "coordinates": [ [ 3.874197776975393, 104.184294010784001, 0.0 ], [ 3.874197776974938, 66.091195605981881, 0.0 ] ] } },
{ "type": "Feature", "properties": { "Layer": "06_TEXTOS_Y_COTAS", "SubClasses": "AcDbEntity:AcDbLine", "Linetype": "CENTER2", "EntityHandle": "1C1E21A8" }, "geometry": { "type": "LineString", "coordinates": [ [ 88.92419777697512, 66.761195605983289, 0.0 ], [ 88.924197776974324, 56.723017620807582, 0.0 ] ] } },
{ "type": "Feature", "properties": { "Layer": "06_TEXTOS_Y_COTAS", "SubClasses": "AcDbEntity:AcDbLine", "Linetype": "CENTER2", "EntityHandle": "1C1E21AE" }, "geometry": { "type": "LineString", "coordinates": [ [ 87.034197776974793, 62.851195605982582, 0.0 ], [ 91.417214586438377, 62.851195605982468, 0.0 ] ] } },
{ "type": "Feature", "properties": { "Layer": "06_TEXTOS_Y_COTAS", "SubClasses": "AcDbEntity:AcDbLine", "Linetype": "CENTER2", "EntityHandle": "1C1E21B5" }, "geometry": { "type": "LineString", "coordinates": [ [ 87.104197776972683, 56.723297080930557, 0.0 ], [ 87.104197776974502, 62.921195605982462, 0.0 ] ] } },
{ "type": "Feature", "properties": { "Layer": "06_TEXTOS_Y_COTAS", "SubClasses": "AcDbEntity:AcDbLine", "Linetype": "CENTER2", "EntityHandle": "1C1E21BB" }, "geometry": { "type": "LineString", "coordinates": [ [ 85.09419777697326, 56.723489208979458, 0.0 ], [ 85.094197776975193, 62.821195605982581, 0.0 ] ] } },
{ "type": "Feature", "properties": { "Layer": "06_TEXTOS_Y_COTAS", "SubClasses": "AcDbEntity:AcDbLine", "Linetype": "CENTER2", "EntityHandle": "1C1E21C8" }, "geometry": { "type": "LineString", "coordinates": [ [ 85.164197776974447, 60.901195605982558, 0.0 ], [ 91.417214586438377, 60.901195605982792, 0.0 ] ] } },
{ "type": "Feature", "properties": { "Layer": "06_TEXTOS_Y_COTAS", "SubClasses": "AcDbEntity:AcDbLine", "Linetype": "CENTER2", "EntityHandle": "1C1E21CD" }, "geometry": { "type": "LineString", "coordinates": [ [ 80.724197776975188, 59.791195605982978, 0.0 ], [ 91.417214586438377, 59.791195605982857, 0.0 ] ] } },
{ "type": "Feature", "properties": { "Layer": "06_TEXTOS_Y_COTAS", "SubClasses": "AcDbEntity:AcDbLine", "Linetype": "HIDDEN", "EntityHandle": "1C1E220A" }, "geometry": { "type": "LineString", "coordinates": [ [ 75.806382050511047, 60.09119560598279, 0.0 ], [ 79.664197776974447, 60.091195605982882, 0.0 ] ] } },
{ "type": "Feature", "properties": { "Layer": "06_TEXTOS_Y_COTAS", "SubClasses": "AcDbEntity:AcDbLine", "Linetype": "HIDDEN", "EntityHandle": "1C1E220B" }, "geometry": { "type": "LineString", "coordinates": [ [ 75.806382050511047, 60.09119560598279, 0.0 ], [ 75.956382050511138, 60.411195605982783, 0.0 ] ] } },
{ "type": "Feature", "properties": { "Layer": "06_TEXTOS_Y_COTAS", "SubClasses": "AcDbEntity:AcDbLine", "Linetype": "HIDDEN", "EntityHandle": "1C1E220C" }, "geometry": { "type": "LineString", "coordinates": [ [ 75.806382050511047, 60.09119560598279, 0.0 ], [ 75.956382050511138, 59.771195605982648, 0.0 ] ] } },
{ "type": "Feature", "properties": { "Layer": "06_TEXTOS_Y_COTAS", "SubClasses": "AcDbEntity:AcDbLine", "Linetype": "CENTER2", "EntityHandle": "1C1E224D" }, "geometry": { "type": "LineString", "coordinates": [ [ 43.234197776974497, 66.736195605984449, 0.0 ], [ 1.310309172348525, 66.736195605982061, 0.0 ] ] } },
{ "type": "Feature", "properties": { "Layer": "06_TEXTOS_Y_COTAS", "SubClasses": "AcDbEntity:AcDbLine", "Linetype": "CENTER2", "EntityHandle": "1C1E2254" }, "geometry": { "type": "LineString", "coordinates": [ [ 3.52419777697537, 56.72139942055378, 0.0 ], [ 3.524197776974916, 66.761195605981953, 0.0 ] ] } },
{ "type": "Feature", "properties": { "Layer": "06_TEXTOS_Y_COTAS", "SubClasses": "AcDbEntity:AcDbLine", "Linetype": "HIDDEN", "EntityHandle": "1C1E3BEC" }, "geometry": { "type": "LineString", "coordinates": [ [ 74.734197776975407, 60.731195605982627, 0.0 ], [ 74.734197776975407, 59.331195605982657, 0.0 ] ] } },
{ "type": "Feature", "properties": { "Layer": "06_TEXTOS_Y_COTAS", "SubClasses": "AcDbEntity:AcDbLine", "Linetype": "HIDDEN", "EntityHandle": "1C1E3BED" }, "geometry": { "type": "LineString", "coordinates": [ [ 74.634197776975043, 60.931195605982573, 0.0 ], [ 74.634197776975498, 59.233837333633659, 0.0 ] ] } },
{ "type": "Feature", "properties": { "Layer": "06_TEXTOS_Y_COTAS", "SubClasses": "AcDbEntity:AcDbLine", "Linetype": "HIDDEN", "EntityHandle": "1C1E3BEE" }, "geometry": { "type": "LineString", "coordinates": [ [ 74.734197776975407, 59.331195605982657, 0.0 ], [ 77.393217601332026, 59.25999853985607, 0.0 ] ] } },
{ "type": "Feature", "properties": { "Layer": "06_TEXTOS_Y_COTAS", "SubClasses": "AcDbEntity:AcDbLine", "Linetype": "HIDDEN", "EntityHandle": "1C1E3BEF" }, "geometry": { "type": "LineString", "coordinates": [ [ 74.634197776975498, 59.233837333633659, 0.0 ], [ 77.390540992557249, 59.160034367446798, 0.0 ] ] } },
{ "type": "Feature", "properties": { "Layer": "06_TEXTOS_Y_COTAS", "SubClasses": "AcDbEntity:AcDbLine", "Linetype": "HIDDEN", "EntityHandle": "1C1E3BF0" }, "geometry": { "type": "LineString", "coordinates": [ [ 75.63419777697527, 60.611195605982658, 0.0 ], [ 75.634197776975498, 59.306544425029777, 0.0 ] ] } },
{ "type": "Feature", "properties": { "Layer": "06_TEXTOS_Y_COTAS", "SubClasses": "AcDbEntity:AcDbLine", "Linetype": "HIDDEN", "EntityHandle": "1C1E3BF1" }, "geometry": { "type": "LineString", "coordinates": [ [ 75.941197776974946, 60.611195605982658, 0.0 ], [ 75.9411977769754, 59.501195605982787, 0.0 ] ] } },
{ "type": "Feature", "properties": { "Layer": "06_TEXTOS_Y_COTAS", "SubClasses": "AcDbEntity:AcDbLine", "Linetype": "HIDDEN", "EntityHandle": "1C1E3BF2" }, "geometry": { "type": "LineString", "coordinates": [ [ 76.24819777697553, 60.611195605982658, 0.0 ], [ 76.248197776975189, 59.501195605982787, 0.0 ] ] } },
{ "type": "Feature", "properties": { "Layer": "06_TEXTOS_Y_COTAS", "SubClasses": "AcDbEntity:AcDbLine", "Linetype": "HIDDEN", "EntityHandle": "1C1E3BF3" }, "geometry": { "type": "LineString", "coordinates": [ [ 76.555197776975433, 60.611195605982658, 0.0 ], [ 76.555197776975433, 59.501195605982787, 0.0 ] ] } },
{ "type": "Feature", "properties": { "Layer": "06_TEXTOS_Y_COTAS", "SubClasses": "AcDbEntity:AcDbLine", "Linetype": "HIDDEN", "EntityHandle": "1C1E3BF4" }, "geometry": { "type": "LineString", "coordinates": [ [ 76.862197776975222, 60.611195605982658, 0.0 ], [ 76.862197776975222, 59.501195605982787, 0.0 ] ] } },
{ "type": "Feature", "properties": { "Layer": "06_TEXTOS_Y_COTAS", "SubClasses": "AcDbEntity:AcDbLine", "Linetype": "HIDDEN", "EntityHandle": "1C1E3BF5" }, "geometry": { "type": "LineString", "coordinates": [ [ 77.169197776974897, 60.611195605982658, 0.0 ], [ 77.169197776975352, 59.501195605982787, 0.0 ] ] } },
{ "type": "Feature", "properties": { "Layer": "06_TEXTOS_Y_COTAS", "SubClasses": "AcDbEntity:AcDbLine", "Linetype": "HIDDEN", "EntityHandle": "1C1E3BF6" }, "geometry": { "type": "LineString", "coordinates": [ [ 77.476197776975255, 60.611195605982658, 0.0 ], [ 77.47619777697571, 59.501195605982787, 0.0 ] ] } },
{ "type": "Feature", "properties": { "Layer": "06_TEXTOS_Y_COTAS", "SubClasses": "AcDbEntity:AcDbLine", "Linetype": "HIDDEN", "EntityHandle": "1C1E3BF7" }, "geometry": { "type": "LineString", "coordinates": [ [ 77.783197776975385, 60.611195605982658, 0.0 ], [ 77.783197776975385, 59.501195605982637, 0.0 ] ] } },
{ "type": "Feature", "properties": { "Layer": "06_TEXTOS_Y_COTAS", "SubClasses": "AcDbEntity:AcDbLine", "Linetype": "HIDDEN", "EntityHandle": "1C1E3BF8" }, "geometry": { "type": "LineString", "coordinates": [ [ 78.090197776975288, 60.611195605982658, 0.0 ], [ 78.090197776975288, 59.501195605982637, 0.0 ] ] } },
{ "type": "Feature", "properties": { "Layer": "06_TEXTOS_Y_COTAS", "SubClasses": "AcDbEntity:AcDbLine", "Linetype": "HIDDEN", "EntityHandle": "1C1E3BF9" }, "geometry": { "type": "LineString", "coordinates": [ [ 78.397197776975531, 60.611195605982658, 0.0 ], [ 78.397197776975531, 59.501195605982637, 0.0 ] ] } },
{ "type": "Feature", "properties": { "Layer": "06_TEXTOS_Y_COTAS", "SubClasses": "AcDbEntity:AcDbLine", "Linetype": "HIDDEN", "EntityHandle": "1C1E3BFA" }, "geometry": { "type": "LineString", "coordinates": [ [ 78.704197776975889, 60.611195605982658, 0.0 ], [ 78.704197776975889, 59.501195605982637, 0.0 ] ] } },
{ "type": "Feature", "properties": { "Layer": "06_TEXTOS_Y_COTAS", "SubClasses": "AcDbEntity:AcDbLine", "Linetype": "HIDDEN", "EntityHandle": "1C1E3BFB" }, "geometry": { "type": "LineString", "coordinates": [ [ 79.011197776975564, 60.611195605982658, 0.0 ], [ 79.011197776975564, 59.501195605982637, 0.0 ] ] } },
{ "type": "Feature", "properties": { "Layer": "06_TEXTOS_Y_COTAS", "SubClasses": "AcDbEntity:AcDbLine", "Linetype": "HIDDEN", "EntityHandle": "1C1E3BFC" }, "geometry": { "type": "LineString", "coordinates": [ [ 79.318197776975239, 60.611195605982658, 0.0 ], [ 79.318197776975239, 59.501195605982637, 0.0 ] ] } },
{ "type": "Feature", "properties": { "Layer": "06_TEXTOS_Y_COTAS", "SubClasses": "AcDbEntity:AcDbLine", "Linetype": "HIDDEN", "EntityHandle": "1C1E3BFD" }, "geometry": { "type": "LineString", "coordinates": [ [ 77.563217601332212, 59.25999853985607, 0.0 ], [ 77.563217601332212, 59.359998539856058, 0.0 ] ] } },
{ "type": "Feature", "properties": { "Layer": "06_TEXTOS_Y_COTAS", "SubClasses": "AcDbEntity:AcDbLine", "Linetype": "HIDDEN", "EntityHandle": "1C1E3BFE" }, "geometry": { "type": "LineString", "coordinates": [ [ 77.563217601332212, 59.359998539856058, 0.0 ], [ 77.393217601332026, 59.359998539856058, 0.0 ] ] } },
{ "type": "Feature", "properties": { "Layer": "06_TEXTOS_Y_COTAS", "SubClasses": "AcDbEntity:AcDbLine", "Linetype": "HIDDEN", "EntityHandle": "1C1E3BFF" }, "geometry": { "type": "LineString", "coordinates": [ [ 77.393217601332026, 59.359998539856058, 0.0 ], [ 77.393217601332026, 59.25999853985607, 0.0 ] ] } },
{ "type": "Feature", "properties": { "Layer": "06_TEXTOS_Y_COTAS", "SubClasses": "AcDbEntity:AcDbLine", "Linetype": "HIDDEN", "EntityHandle": "1C1E3C00" }, "geometry": { "type": "LineString", "coordinates": [ [ 79.664197776973879, 59.351195605982639, 0.0 ], [ 79.664197776973879, 59.350889381739172, 0.0 ] ] } },
{ "type": "Feature", "properties": { "Layer": "06_TEXTOS_Y_COTAS", "SubClasses": "AcDbEntity:AcDbLine", "Linetype": "CENTER2", "EntityHandle": "1C1E3C03" }, "geometry": { "type": "LineString", "coordinates": [ [ 79.664197776973879, 59.40119560598265, 0.0 ], [ 91.417214586438377, 59.40119560598265, 0.0 ] ] } },
{ "type": "Feature", "properties": { "Layer": "06_TEXTOS_Y_COTAS", "SubClasses": "AcDbEntity:AcDbLine", "Linetype": "HIDDEN", "EntityHandle": "1C1E3C04" }, "geometry": { "type": "LineString", "coordinates": [ [ 79.664197776973879, 59.501195605982637, 0.0 ], [ 75.63419777697527, 59.501195605982787, 0.0 ] ] } },
{ "type": "Feature", "properties": { "Layer": "06_TEXTOS_Y_COTAS", "SubClasses": "AcDbEntity:AcDbLine", "Linetype": "HIDDEN", "EntityHandle": "1C1E3C05" }, "geometry": { "type": "LineString", "coordinates": [ [ 79.664197776973879, 59.501195605982637, 0.0 ], [ 79.664197776973879, 59.451195605982633, 0.0 ] ] } },
{ "type": "Feature", "properties": { "Layer": "06_TEXTOS_Y_COTAS", "SubClasses": "AcDbEntity:AcDbLine", "Linetype": "HIDDEN", "EntityHandle": "1C1E3C06" }, "geometry": { "type": "LineString", "coordinates": [ [ 77.563217601332212, 59.25999853985607, 0.0 ], [ 79.612929530522933, 59.446530003507888, 0.0 ] ] } },
{ "type": "Feature", "properties": { "Layer": "06_TEXTOS_Y_COTAS", "SubClasses": "AcDbEntity:AcDbLine", "Linetype": "HIDDEN", "EntityHandle": "1C1E3C07" }, "geometry": { "type": "LineString", "coordinates": [ [ 77.572280525178826, 59.16041006958298, 0.0 ], [ 79.612929530522933, 59.346116773215563, 0.0 ] ] } },
{ "type": "Feature", "properties": { "Layer": "06_TEXTOS_Y_COTAS", "SubClasses": "AcDbEntity:AcDbLine", "Linetype": "HIDDEN", "EntityHandle": "1C1E3C08" }, "geometry": { "type": "LineString", "coordinates": [ [ 77.390540992557249, 59.160034367446798, 0.0 ], [ 77.572280525178826, 59.16041006958298, 0.0 ] ] } },
{ "type": "Feature", "properties": { "Layer": "06_TEXTOS_Y_COTAS", "SubClasses": "AcDbEntity:AcDbLine", "Linetype": "HIDDEN", "EntityHandle": "1C1E3C09" }, "geometry": { "type": "LineString", "coordinates": [ [ 77.33356044591153, 59.261595900808572, 0.0 ], [ 77.33356044591153, 59.16156006037707, 0.0 ] ] } },
{ "type": "Feature", "properties": { "Layer": "06_TEXTOS_Y_COTAS", "SubClasses": "AcDbEntity:AcDbLine", "Linetype": "HIDDEN", "EntityHandle": "1C1E3C0A" }, "geometry": { "type": "LineString", "coordinates": [ [ 75.633560445911712, 59.307114558212561, 0.0 ], [ 75.633560445911712, 59.207078717781059, 0.0 ] ] } },
{ "type": "Feature", "properties": { "Layer": "06_TEXTOS_Y_COTAS", "SubClasses": "AcDbEntity:AcDbLine", "Linetype": "HIDDEN", "EntityHandle": "1C1E3C0B" }, "geometry": { "type": "LineString", "coordinates": [ [ 77.632929530522915, 59.266342586549058, 0.0 ], [ 77.632929530522915, 59.165929356256783, 0.0 ] ] } },
{ "type": "Feature", "properties": { "Layer": "06_TEXTOS_Y_COTAS", "SubClasses": "AcDbEntity:AcDbLine", "Linetype": "HIDDEN", "EntityHandle": "1C1E3C0D" }, "geometry": { "type": "LineString", "coordinates": [ [ 75.63277585263836, 59.256562359172392, 0.0 ], [ 77.33356044591153, 59.211797983840462, 0.0 ] ] } },
{ "type": "Feature", "properties": { "Layer": "06_TEXTOS_Y_COTAS", "SubClasses": "AcDbEntity:AcDbLine", "Linetype": "HIDDEN", "EntityHandle": "1C1E3C0E" }, "geometry": { "type": "LineString", "coordinates": [ [ 77.632929530522915, 59.216548257044877, 0.0 ], [ 79.612929530522933, 59.396322443711277, 0.0 ] ] } },
{ "type": "Feature", "properties": { "Layer": "06_TEXTOS_Y_COTAS", "SubClasses": "AcDbEntity:AcDbLine", "Linetype": "HIDDEN", "EntityHandle": "1C1E3C0F" }, "geometry": { "type": "LineString", "coordinates": [ [ 79.612929530522933, 59.446530003507888, 0.0 ], [ 75.63419777697527, 59.451195605982633, 0.0 ] ] } },
{ "type": "Feature", "properties": { "Layer": "06_TEXTOS_Y_COTAS", "SubClasses": "AcDbEntity:AcDbLine", "Linetype": "HIDDEN", "EntityHandle": "1C1E3C11" }, "geometry": { "type": "LineString", "coordinates": [ [ 75.63419777697527, 60.611195605982658, 0.0 ], [ 79.664197776974447, 60.611195605982658, 0.0 ] ] } },
{ "type": "Feature", "properties": { "Layer": "06_TEXTOS_Y_COTAS", "SubClasses": "AcDbEntity:AcDbLine", "Linetype": "HIDDEN", "EntityHandle": "1C1E3C85" }, "geometry": { "type": "LineString", "coordinates": [ [ 79.594197776975193, 91.521195605983053, 0.0 ], [ 80.294197776974897, 91.521195605983053, 0.0 ] ] } },
{ "type": "Feature", "properties": { "Layer": "06_TEXTOS_Y_COTAS", "SubClasses": "AcDbEntity:AcDbLine", "Linetype": "HIDDEN", "EntityHandle": "1C1E3C86" }, "geometry": { "type": "LineString", "coordinates": [ [ 79.594197776975193, 91.271195605983053, 0.0 ], [ 80.294197776974897, 91.271195605983053, 0.0 ] ] } },
{ "type": "Feature", "properties": { "Layer": "06_TEXTOS_Y_COTAS", "SubClasses": "AcDbEntity:AcDbLine", "Linetype": "HIDDEN", "EntityHandle": "1C1E3C87" }, "geometry": { "type": "LineString", "coordinates": [ [ 79.594197776975193, 91.021195605983053, 0.0 ], [ 80.294197776974897, 91.021195605983053, 0.0 ] ] } },
{ "type": "Feature", "properties": { "Layer": "06_TEXTOS_Y_COTAS", "SubClasses": "AcDbEntity:AcDbLine", "Linetype": "HIDDEN", "EntityHandle": "1C1E3C88" }, "geometry": { "type": "LineString", "coordinates": [ [ 79.594197776975193, 90.771195605983053, 0.0 ], [ 80.294197776974897, 90.771195605983053, 0.0 ] ] } },
{ "type": "Feature", "properties": { "Layer": "06_TEXTOS_Y_COTAS", "SubClasses": "AcDbEntity:AcDbLine", "Linetype": "HIDDEN", "EntityHandle": "1C1E3C89" }, "geometry": { "type": "LineString", "coordinates": [ [ 79.594197776975193, 90.521195605983053, 0.0 ], [ 80.294197776974897, 90.521195605983053, 0.0 ] ] } },
{ "type": "Feature", "properties": { "Layer": "06_TEXTOS_Y_COTAS", "SubClasses": "AcDbEntity:AcDbLine", "Linetype": "HIDDEN", "EntityHandle": "1C1E3C8A" }, "geometry": { "type": "LineString", "coordinates": [ [ 79.594197776975193, 90.271195605983053, 0.0 ], [ 80.294197776974897, 90.271195605983053, 0.0 ] ] } },
{ "type": "Feature", "properties": { "Layer": "06_TEXTOS_Y_COTAS", "SubClasses": "AcDbEntity:AcDbLine", "Linetype": "HIDDEN", "EntityHandle": "1C1E3C8B" }, "geometry": { "type": "LineString", "coordinates": [ [ 79.594197776975193, 90.021195605983053, 0.0 ], [ 80.294197776974897, 90.021195605983053, 0.0 ] ] } },
{ "type": "Feature", "properties": { "Layer": "06_TEXTOS_Y_COTAS", "SubClasses": "AcDbEntity:AcDbLine", "Linetype": "HIDDEN", "EntityHandle": "1C1E3C8C" }, "geometry": { "type": "LineString", "coordinates": [ [ 79.594197776975193, 89.771195605983053, 0.0 ], [ 80.294197776974897, 89.771195605983053, 0.0 ] ] } },
{ "type": "Feature", "properties": { "Layer": "06_TEXTOS_Y_COTAS", "SubClasses": "AcDbEntity:AcDbLine", "Linetype": "HIDDEN", "EntityHandle": "1C1E3C8D" }, "geometry": { "type": "LineString", "coordinates": [ [ 79.594197776975193, 89.521195605983053, 0.0 ], [ 80.294197776974897, 89.521195605983053, 0.0 ] ] } },
{ "type": "Feature", "properties": { "Layer": "06_TEXTOS_Y_COTAS", "SubClasses": "AcDbEntity:AcDbLine", "Linetype": "HIDDEN", "EntityHandle": "1C1E3C8E" }, "geometry": { "type": "LineString", "coordinates": [ [ 79.594197776975193, 89.271195605983053, 0.0 ], [ 80.294197776974897, 89.271195605983053, 0.0 ] ] } },
{ "type": "Feature", "properties": { "Layer": "06_TEXTOS_Y_COTAS", "SubClasses": "AcDbEntity:AcDbLine", "Linetype": "HIDDEN", "EntityHandle": "1C1E3C8F" }, "geometry": { "type": "LineString", "coordinates": [ [ 80.294197776974897, 91.521195605983053, 0.0 ], [ 80.294197776974897, 91.771195605983365, 0.0 ] ] } },
{ "type": "Feature", "properties": { "Layer": "06_TEXTOS_Y_COTAS", "SubClasses": "AcDbEntity:AcDbLine", "Linetype": "HIDDEN", "EntityHandle": "1C1E3C90" }, "geometry": { "type": "LineString", "coordinates": [ [ 80.294197776974897, 89.021195605983053, 0.0 ], [ 80.294197776974897, 91.521195605983053, 0.0 ] ] } },
{ "type": "Feature", "properties": { "Layer": "06_TEXTOS_Y_COTAS", "SubClasses": "AcDbEntity:AcDbLine", "Linetype": "HIDDEN", "EntityHandle": "1C1E3C91" }, "geometry": { "type": "LineString", "coordinates": [ [ 79.594197776975193, 91.521195605983053, 0.0 ], [ 79.594197776975989, 89.021195605983053, 0.0 ] ] } },
{ "type": "Feature", "properties": { "Layer": "06_TEXTOS_Y_COTAS", "SubClasses": "AcDbEntity:AcDbLine", "Linetype": "HIDDEN", "EntityHandle": "1C1E3C92" }, "geometry": { "type": "LineString", "coordinates": [ [ 79.940170855929864, 91.691897169327063, 0.0 ], [ 79.940170855929864, 89.271195605983166, 0.0 ] ] } },
{ "type": "Feature", "properties": { "Layer": "06_TEXTOS_Y_COTAS", "SubClasses": "AcDbEntity:AcDbLine", "Linetype": "HIDDEN", "EntityHandle": "1C1E3C93" }, "geometry": { "type": "LineString", "coordinates": [ [ 79.940170855929864, 91.691897169327063, 0.0 ], [ 80.260170855929346, 91.541897169326973, 0.0 ] ] } },
{ "type": "Feature", "properties": { "Layer": "06_TEXTOS_Y_COTAS", "SubClasses": "AcDbEntity:AcDbText:AcDbText", "Linetype": "HIDDEN", "EntityHandle": "1C1E3CA1", "Text": "1" }, "geometry": { "type": "Point", "coordinates": [ 80.061421032869816, 89.322273661457871, 0.0 ] } },
{ "type": "Feature", "properties": { "Layer": "06_TEXTOS_Y_COTAS", "SubClasses": "AcDbEntity:AcDbText:AcDbText", "Linetype": "HIDDEN", "EntityHandle": "1C1E3CA2", "Text": "2" }, "geometry": { "type": "Point", "coordinates": [ 80.061421032869816, 89.556943368471252, 0.0 ] } },
{ "type": "Feature", "properties": { "Layer": "06_TEXTOS_Y_COTAS", "SubClasses": "AcDbEntity:AcDbText:AcDbText", "Linetype": "HIDDEN", "EntityHandle": "1C1E3CA3", "Text": "3" }, "geometry": { "type": "Point", "coordinates": [ 80.061421032869816, 89.822209552964381, 0.0 ] } },
{ "type": "Feature", "properties": { "Layer": "06_TEXTOS_Y_COTAS", "SubClasses": "AcDbEntity:AcDbText:AcDbText", "Linetype": "HIDDEN", "EntityHandle": "1C1E3CA4", "Text": "4" }, "geometry": { "type": "Point", "coordinates": [ 80.061421032869816, 90.051771054974665, 0.0 ] } },
{ "type": "Feature", "properties": { "Layer": "06_TEXTOS_Y_COTAS", "SubClasses": "AcDbEntity:AcDbText:AcDbText", "Linetype": "HIDDEN", "EntityHandle": "1C1E3CA5", "Text": "5" }, "geometry": { "type": "Point", "coordinates": [ 80.061421032869816, 90.295672457780569, 0.0 ] } },
{ "type": "Feature", "properties": { "Layer": "06_TEXTOS_Y_COTAS", "SubClasses": "AcDbEntity:AcDbText:AcDbText", "Linetype": "HIDDEN", "EntityHandle": "1C1E3CA6", "Text": "6" }, "geometry": { "type": "Point", "coordinates": [ 80.061421032869816, 90.567330492597478, 0.0 ] } },
{ "type": "Feature", "properties": { "Layer": "06_TEXTOS_Y_COTAS", "SubClasses": "AcDbEntity:AcDbText:AcDbText", "Linetype": "HIDDEN", "EntityHandle": "1C1E3CA7", "Text": "7" }, "geometry": { "type": "Point", "coordinates": [ 80.061421032869816, 90.849055471872674, 0.0 ] } },
{ "type": "Feature", "properties": { "Layer": "06_TEXTOS_Y_COTAS", "SubClasses": "AcDbEntity:AcDbText:AcDbText", "Linetype": "HIDDEN", "EntityHandle": "1C1E3CA8", "Text": "8" }, "geometry": { "type": "Point", "coordinates": [ 80.061421032869816, 91.025125890840059, 0.0 ] } },
{ "type": "Feature", "properties": { "Layer": "06_TEXTOS_Y_COTAS", "SubClasses": "AcDbEntity:AcDbText:AcDbText", "Linetype": "HIDDEN", "EntityHandle": "1C1E3CA9", "Text": "9" }, "geometry": { "type": "Point", "coordinates": [ 80.061421032869816, 91.30182179393239, 0.0 ] } },
{ "type": "Feature", "properties": { "Layer": "06_TEXTOS_Y_COTAS", "SubClasses": "AcDbEntity:AcDbText:AcDbText", "Linetype": "HIDDEN", "EntityHandle": "1C1E3CAA", "Text": "10" }, "geometry": { "type": "Point", "coordinates": [ 80.061421032869816, 91.548325655742588, 0.0 ] } },
{ "type": "Feature", "properties": { "Layer": "06_TEXTOS_Y_COTAS", "SubClasses": "AcDbEntity:AcDbLine", "Linetype": "CENTER2", "EntityHandle": "1C261647" }, "geometry": { "type": "LineString", "coordinates": [ [ 18.68523696473116, 104.184294010783802, 0.0 ], [ 18.68523696473116, 96.161195605982016, 0.0 ] ] } },
{ "type": "Feature", "properties": { "Layer": "06_TEXTOS_Y_COTAS", "SubClasses": "AcDbEntity:AcDbLine", "Linetype": "CENTER2", "EntityHandle": "1C261652" }, "geometry": { "type": "LineString", "coordinates": [ [ 39.904197776975757, 95.931195605981742, 0.0 ], [ 39.904197776974677, 104.184294010783802, 0.0 ] ] } },
{ "type": "Feature", "properties": { "Layer": "06_TEXTOS_Y_COTAS", "SubClasses": "AcDbEntity:AcDbLine", "Linetype": "CENTER2", "EntityHandle": "1C261656" }, "geometry": { "type": "LineString", "coordinates": [ [ 27.734197776975321, 100.801195605981405, 0.0 ], [ 27.734197776975321, 104.184294010783802, 0.0 ] ] } },
{ "type": "Feature", "properties": { "Layer": "06_TEXTOS_Y_COTAS", "SubClasses": "AcDbEntity:AcDbLine", "Linetype": "CENTER2", "EntityHandle": "1C261659" }, "geometry": { "type": "LineString", "coordinates": [ [ 25.964197776974519, 104.184294010783802, 0.0 ], [ 25.96419777697508, 101.061195605981496, 0.0 ] ] } },
{ "type": "Feature", "properties": { "Layer": "06_TEXTOS_Y_COTAS", "SubClasses": "AcDbEntity:AcDbLine", "Linetype": "CENTER2", "EntityHandle": "1C261665" }, "geometry": { "type": "LineString", "coordinates": [ [ 23.064197776976702, 94.711195605981658, 0.0 ], [ 23.064197776974879, 104.184294010783802, 0.0 ] ] } },
{ "type": "Feature", "properties": { "Layer": "06_TEXTOS_Y_COTAS", "SubClasses": "AcDbEntity:AcDbLine", "Linetype": "CENTER2", "EntityHandle": "1C2616CB" }, "geometry": { "type": "LineString", "coordinates": [ [ 10.035236964731521, 104.184294010783802, 0.0 ], [ 10.035236964731521, 93.511195605982181, 0.0 ] ] } },
{ "type": "Feature", "properties": { "Layer": "06_TEXTOS_Y_COTAS", "SubClasses": "AcDbEntity:AcDbLine", "Linetype": "CENTER2", "EntityHandle": "1C2616CE" }, "geometry": { "type": "LineString", "coordinates": [ [ 10.160236964731521, 95.031195605981907, 0.0 ], [ 10.160236964730609, 104.184294010783802, 0.0 ] ] } },
{ "type": "Feature", "properties": { "Layer": "06_TEXTOS_Y_COTAS", "SubClasses": "AcDbEntity:AcDbLine", "Linetype": "CENTER2", "EntityHandle": "1C2616D2" }, "geometry": { "type": "LineString", "coordinates": [ [ 18.810236964731359, 97.251195605981792, 0.0 ], [ 1.31030917234844, 97.251195605981792, 0.0 ] ] } },
{ "type": "Feature", "properties": { "Layer": "06_TEXTOS_Y_COTAS", "SubClasses": "AcDbEntity:AcDbLine", "Linetype": "CENTER2", "EntityHandle": "1C2616D5" }, "geometry": { "type": "LineString", "coordinates": [ [ 10.120236964731561, 94.931195605982083, 0.0 ], [ 1.31030917234844, 94.931195605982083, 0.0 ] ] } },
{ "type": "Feature", "properties": { "Layer": "06_TEXTOS_Y_COTAS", "SubClasses": "AcDbEntity:AcDbLine", "Linetype": "CENTER2", "EntityHandle": "1C261B5E" }, "geometry": { "type": "LineString", "coordinates": [ [ 12.090236964731099, 93.511195605982181, 0.0 ], [ 12.09023696473054, 104.184294010783802, 0.0 ] ] } },
{ "type": "Feature", "properties": { "Layer": "06_TEXTOS_Y_COTAS", "SubClasses": "AcDbEntity:AcDbLine", "Linetype": "CENTER2", "EntityHandle": "1C261B60" }, "geometry": { "type": "LineString", "coordinates": [ [ 13.943220396023071, 93.544468078838719, 0.0 ], [ 13.943220396022889, 104.057566483641196, 0.0 ] ] } }
]
}
