{
"type": "FeatureCollection",
"name": "entities",
"features": [
{ "type": "Feature", "properties": { "Layer": "A_CORTE", "SubClasses": "AcDbEntity:AcDbLine", "Linetype": "HIDDEN", "EntityHandle": "1C1E4060" }, "geometry": { "type": "LineString", "coordinates": [ [ 61.768149787955508, 55.539787672474972, 0.0 ], [ 61.768149787955508, 98.95872303859997, 0.0 ] ] } },
{ "type": "Feature", "properties": { "Layer": "A_CORTE", "SubClasses": "AcDbEntity:AcDbLine", "Linetype": "HIDDEN", "EntityHandle": "1C1E4062" }, "geometry": { "type": "LineString", "coordinates": [ [ 60.170816384154818, 55.536825767691653, 0.0 ], [ 61.768149787955508, 55.539787672474972, 0.0 ] ] } },
{ "type": "Feature", "properties": { "Layer": "A_CORTE", "SubClasses": "AcDbEntity:AcDbLine", "Linetype": "HIDDEN", "EntityHandle": "1C1E4063" }, "geometry": { "type": "LineString", "coordinates": [ [ 59.946557710836032, 55.53640992912247, 0.0 ], [ 60.43748140800642, 54.577318589136468, 0.0 ] ] } },
{ "type": "Feature", "properties": { "Layer": "A_CORTE", "SubClasses": "AcDbEntity:AcDbLine", "Linetype": "HIDDEN", "EntityHandle": "1C1E4064" }, "geometry": { "type": "LineString", "coordinates": [ [ 60.43748140800642, 54.577318589136468, 0.0 ], [ 60.615350504869411, 54.668363259235292, 0.0 ] ] } },
{ "type": "Feature", "properties": { "Layer": "A_CORTE", "SubClasses": "AcDbEntity:AcDbLine", "Linetype": "HIDDEN", "EntityHandle": "1C1E4065" }, "geometry": { "type": "LineString", "coordinates": [ [ 60.615350504869411, 54.668363259235292, 0.0 ], [ 60.170816384154818, 55.536825767691653, 0.0 ] ] } },
{ "type": "Feature", "properties": { "Layer": "A_CORTE", "SubClasses": "AcDbEntity:AcDbLine", "Linetype": "HIDDEN", "EntityHandle": "1C1E4066" }, "geometry": { "type": "LineString", "coordinates": [ [ 60.170816384154818, 55.536825767691653, 0.0 ], [ 60.612126712177428, 56.40693088056878, 0.0 ] ] } },
{ "type": "Feature", "properties": { "Layer": "A_CORTE", "SubClasses": "AcDbEntity:AcDbLine", "Linetype": "HIDDEN", "EntityHandle": "1C1E4067" }, "geometry": { "type": "LineString", "coordinates": [ [ 60.433921194845311, 56.497315288320067, 0.0 ], [ 59.946557710836032, 55.53640992912247, 0.0 ] ] } },
{ "type": "Feature", "properties": { "Layer": "A_CORTE", "SubClasses": "AcDbEntity:AcDbLine", "Linetype": "HIDDEN", "EntityHandle": "1C1E4068" }, "geometry": { "type": "LineString", "coordinates": [ [ 60.612126712177428, 56.40693088056878, 0.0 ], [ 60.433921194845311, 56.497315288320067, 0.0 ] ] } },
{ "type": "Feature", "properties": { "Layer": "A_CORTE", "SubClasses": "AcDbEntity:AcDbLine", "Linetype": "HIDDEN", "EntityHandle": "1C1E406A" }, "geometry": { "type": "LineString", "coordinates": [ [ 60.170816384154818, 104.880571171536602, 0.0 ], [ 61.768149787955508, 104.883533076319793, 0.0 ] ] } },
{ "type": "Feature", "properties": { "Layer": "A_CORTE", "SubClasses": "AcDbEntity:AcDbLine", "Linetype": "HIDDEN", "EntityHandle": "1C1E406B" }, "geometry": { "type": "LineString", "coordinates": [ [ 59.946557710836032, 104.880155332967405, 0.0 ], [ 60.43748140800642, 103.921063992981402, 0.0 ] ] } },
{ "type": "Feature", "properties": { "Layer": "A_CORTE", "SubClasses": "AcDbEntity:AcDbLine", "Linetype": "HIDDEN", "EntityHandle": "1C1E406C" }, "geometry": { "type": "LineString", "coordinates": [ [ 60.43748140800642, 103.921063992981402, 0.0 ], [ 60.615350504869411, 104.012108663080198, 0.0 ] ] } },
{ "type": "Feature", "properties": { "Layer": "A_CORTE", "SubClasses": "AcDbEntity:AcDbLine", "Linetype": "HIDDEN", "EntityHandle": "1C1E406D" }, "geometry": { "type": "LineString", "coordinates": [ [ 60.615350504869411, 104.012108663080198, 0.0 ], [ 60.170816384154818, 104.880571171536602, 0.0 ] ] } },
{ "type": "Feature", "properties": { "Layer": "A_CORTE", "SubClasses": "AcDbEntity:AcDbLine", "Linetype": "HIDDEN", "EntityHandle": "1C1E406E" }, "geometry": { "type": "LineString", "coordinates": [ [ 60.170816384154818, 104.880571171536602, 0.0 ], [ 60.612126712177428, 105.7506762844137, 0.0 ] ] } },
{ "type": "Feature", "properties": { "Layer": "A_CORTE", "SubClasses": "AcDbEntity:AcDbLine", "Linetype": "HIDDEN", "EntityHandle": "1C1E406F" }, "geometry": { "type": "LineString", "coordinates": [ [ 60.433921194845311, 105.841060692164902, 0.0 ], [ 59.946557710836032, 104.880155332967405, 0.0 ] ] } },
{ "type": "Feature", "properties": { "Layer": "A_CORTE", "SubClasses": "AcDbEntity:AcDbLine", "Linetype": "HIDDEN", "EntityHandle": "1C1E4070" }, "geometry": { "type": "LineString", "coordinates": [ [ 60.612126712177428, 105.7506762844137, 0.0 ], [ 60.433921194845311, 105.841060692164902, 0.0 ] ] } },
{ "type": "Feature", "properties": { "Layer": "A_CORTE", "SubClasses": "AcDbEntity:AcDbLine", "Linetype": "HIDDEN", "EntityHandle": "1C1E4071" }, "geometry": { "type": "LineString", "coordinates": [ [ 92.896855421144892, 65.209567019936372, 0.0 ], [ 49.477920055019922, 65.209567019936372, 0.0 ] ] } },
{ "type": "Feature", "properties": { "Layer": "A_CORTE", "SubClasses": "AcDbEntity:AcDbLine", "Linetype": "HIDDEN", "EntityHandle": "1C1E4073" }, "geometry": { "type": "LineString", "coordinates": [ [ 92.899817325928439, 66.806900423737176, 0.0 ], [ 92.896855421144892, 65.209567019936372, 0.0 ] ] } },
{ "type": "Feature", "properties": { "Layer": "A_CORTE", "SubClasses": "AcDbEntity:AcDbLine", "Linetype": "HIDDEN", "EntityHandle": "1C1E4074" }, "geometry": { "type": "LineString", "coordinates": [ [ 92.900233164497649, 67.031159097055877, 0.0 ], [ 93.859324504483425, 66.540235399885546, 0.0 ] ] } },
{ "type": "Feature", "properties": { "Layer": "A_CORTE", "SubClasses": "AcDbEntity:AcDbLine", "Linetype": "HIDDEN", "EntityHandle": "1C1E4075" }, "geometry": { "type": "LineString", "coordinates": [ [ 93.859324504483425, 66.540235399885546, 0.0 ], [ 93.768279834384543, 66.362366303022469, 0.0 ] ] } },
{ "type": "Feature", "properties": { "Layer": "A_CORTE", "SubClasses": "AcDbEntity:AcDbLine", "Linetype": "HIDDEN", "EntityHandle": "1C1E4076" }, "geometry": { "type": "LineString", "coordinates": [ [ 93.768279834384543, 66.362366303022469, 0.0 ], [ 92.899817325928439, 66.806900423737176, 0.0 ] ] } },
{ "type": "Feature", "properties": { "Layer": "A_CORTE", "SubClasses": "AcDbEntity:AcDbLine", "Linetype": "HIDDEN", "EntityHandle": "1C1E4077" }, "geometry": { "type": "LineString", "coordinates": [ [ 92.899817325928439, 66.806900423737176, 0.0 ], [ 92.029712213051312, 66.365590095714566, 0.0 ] ] } },
{ "type": "Feature", "properties": { "Layer": "A_CORTE", "SubClasses": "AcDbEntity:AcDbLine", "Linetype": "HIDDEN", "EntityHandle": "1C1E4078" }, "geometry": { "type": "LineString", "coordinates": [ [ 92.029712213051312, 66.365590095714566, 0.0 ], [ 91.939327805300081, 66.543795613046655, 0.0 ] ] } },
{ "type": "Feature", "properties": { "Layer": "A_CORTE", "SubClasses": "AcDbEntity:AcDbLine", "Linetype": "HIDDEN", "EntityHandle": "1C1E407A" }, "geometry": { "type": "LineString", "coordinates": [ [ -0.173374847177115, 66.806900423737176, 0.0 ], [ -0.176336751960889, 65.209567019936372, 0.0 ] ] } },
{ "type": "Feature", "properties": { "Layer": "A_CORTE", "SubClasses": "AcDbEntity:AcDbLine", "Linetype": "HIDDEN", "EntityHandle": "1C1E407B" }, "geometry": { "type": "LineString", "coordinates": [ [ -0.172959008608132, 67.031159097055877, 0.0 ], [ 0.78613233137753, 66.540235399885546, 0.0 ] ] } },
{ "type": "Feature", "properties": { "Layer": "A_CORTE", "SubClasses": "AcDbEntity:AcDbLine", "Linetype": "HIDDEN", "EntityHandle": "1C1E407C" }, "geometry": { "type": "LineString", "coordinates": [ [ 0.78613233137753, 66.540235399885546, 0.0 ], [ 0.695087661278876, 66.362366303022469, 0.0 ] ] } },
{ "type": "Feature", "properties": { "Layer": "A_CORTE", "SubClasses": "AcDbEntity:AcDbLine", "Linetype": "HIDDEN", "EntityHandle": "1C1E407D" }, "geometry": { "type": "LineString", "coordinates": [ [ 0.695087661278876, 66.362366303022469, 0.0 ], [ -0.173374847177115, 66.806900423737176, 0.0 ] ] } },
{ "type": "Feature", "properties": { "Layer": "A_CORTE", "SubClasses": "AcDbEntity:AcDbLine", "Linetype": "HIDDEN", "EntityHandle": "1C1E407E" }, "geometry": { "type": "LineString", "coordinates": [ [ -0.173374847177115, 66.806900423737176, 0.0 ], [ -1.043479960054469, 66.365590095714566, 0.0 ] ] } },
{ "type": "Feature", "properties": { "Layer": "A_CORTE", "SubClasses": "AcDbEntity:AcDbLine", "Linetype": "HIDDEN", "EntityHandle": "1C1E407F" }, "geometry": { "type": "LineString", "coordinates": [ [ -1.133864367805586, 66.543795613046655, 0.0 ], [ -0.172959008608132, 67.031159097055877, 0.0 ] ] } },
{ "type": "Feature", "properties": { "Layer": "A_CORTE", "SubClasses": "AcDbEntity:AcDbLine", "Linetype": "HIDDEN", "EntityHandle": "1C1E4080" }, "geometry": { "type": "LineString", "coordinates": [ [ -1.043479960054469, 66.365590095714566, 0.0 ], [ -1.133864367805586, 66.543795613046655, 0.0 ] ] } },
{ "type": "Feature", "properties": { "Layer": "A_CORTE", "SubClasses": "AcDbEntity:AcDbLine", "Linetype": "HIDDEN", "EntityHandle": "1C1E4081" }, "geometry": { "type": "LineString", "coordinates": [ [ 91.939327805300081, 66.543795613046655, 0.0 ], [ 92.900233164497649, 67.031159097055877, 0.0 ] ] } },
{ "type": "Feature", "properties": { "Layer": "A_CORTE", "SubClasses": "AcDbEntity:AcDbLine", "Linetype": "HIDDEN", "EntityHandle": "1C1E4082" }, "geometry": { "type": "LineString", "coordinates": [ [ -0.176336751960889, 65.209567019936372, 0.0 ], [ 38.064631749114483, 65.209567019936372, 0.0 ] ] } },
{ "type": "Feature", "properties": { "Layer": "A_CORTE", "SubClasses": "AcDbEntity:AcDbLine", "Linetype": "HIDDEN", "EntityHandle": "1C1E4083" }, "geometry": { "type": "LineString", "coordinates": [ [ 92.896855421144892, 89.774894247341251, 0.0 ], [ 49.477920055019922, 89.774894247341251, 0.0 ] ] } },
{ "type": "Feature", "properties": { "Layer": "A_CORTE", "SubClasses": "AcDbEntity:AcDbLine", "Linetype": "HIDDEN", "EntityHandle": "1C1E4085" }, "geometry": { "type": "LineString", "coordinates": [ [ 92.899817325928439, 91.372227651142055, 0.0 ], [ 92.896855421144892, 89.774894247341251, 0.0 ] ] } },
{ "type": "Feature", "properties": { "Layer": "A_CORTE", "SubClasses": "AcDbEntity:AcDbLine", "Linetype": "HIDDEN", "EntityHandle": "1C1E4086" }, "geometry": { "type": "LineString", "coordinates": [ [ 92.900233164497649, 91.59648632446067, 0.0 ], [ 93.859324504483425, 91.105562627290482, 0.0 ] ] } },
{ "type": "Feature", "properties": { "Layer": "A_CORTE", "SubClasses": "AcDbEntity:AcDbLine", "Linetype": "HIDDEN", "EntityHandle": "1C1E4087" }, "geometry": { "type": "LineString", "coordinates": [ [ 93.859324504483425, 91.105562627290482, 0.0 ], [ 93.768279834384543, 90.927693530427376, 0.0 ] ] } },
{ "type": "Feature", "properties": { "Layer": "A_CORTE", "SubClasses": "AcDbEntity:AcDbLine", "Linetype": "HIDDEN", "EntityHandle": "1C1E4088" }, "geometry": { "type": "LineString", "coordinates": [ [ 93.768279834384543, 90.927693530427376, 0.0 ], [ 92.899817325928439, 91.372227651142055, 0.0 ] ] } },
{ "type": "Feature", "properties": { "Layer": "A_CORTE", "SubClasses": "AcDbEntity:AcDbLine", "Linetype": "HIDDEN", "EntityHandle": "1C1E4089" }, "geometry": { "type": "LineString", "coordinates": [ [ 92.899817325928439, 91.372227651142055, 0.0 ], [ 92.029712213051312, 90.930917323119388, 0.0 ] ] } },
{ "type": "Feature", "properties": { "Layer": "A_CORTE", "SubClasses": "AcDbEntity:AcDbLine", "Linetype": "HIDDEN", "EntityHandle": "1C1E408A" }, "geometry": { "type": "LineString", "coordinates": [ [ 92.029712213051312, 90.930917323119388, 0.0 ], [ 91.939327805300081, 91.109122840451562, 0.0 ] ] } },
{ "type": "Feature", "properties": { "Layer": "A_CORTE", "SubClasses": "AcDbEntity:AcDbLine", "Linetype": "HIDDEN", "EntityHandle": "1C1E4093" }, "geometry": { "type": "LineString", "coordinates": [ [ 91.939327805300081, 91.109122840451562, 0.0 ], [ 92.900233164497649, 91.59648632446067, 0.0 ] ] } },
{ "type": "Feature", "properties": { "Layer": "A_CORTE", "SubClasses": "AcDbEntity:AcDbLine", "Linetype": "HIDDEN", "EntityHandle": "1C1E4095" }, "geometry": { "type": "LineString", "coordinates": [ [ 61.768149787955508, 104.883533076319793, 0.0 ], [ 61.768149787955508, 98.95872303859997, 0.0 ] ] } }
]
}
