{
"type": "FeatureCollection",
"name": "SELECT",
"features": [
{ "type": "Feature", "properties": { "Layer": "CIMENTACION", "PaperSpace": null, "SubClasses": null, "Linetype": null, "EntityHandle": "1C1E3D19", "Text": "60cm." }, "geometry": { "type": "Point", "coordinates": [ 18392.385006699580117, 7601.258455137562123, 0.0 ] } },
{ "type": "Feature", "properties": { "Layer": "CIMENTACION", "PaperSpace": null, "SubClasses": null, "Linetype": null, "EntityHandle": "1C1E3D1D", "Text": "60cm." }, "geometry": { "type": "Point", "coordinates": [ 19113.568979775311163, 7615.956862751459994, 0.0 ] } },
{ "type": "Feature", "properties": { "Layer": "CIMENTACION", "PaperSpace": null, "SubClasses": null, "Linetype": null, "EntityHandle": "1C1E3D21", "Text": "70cm." }, "geometry": { "type": "Point", "coordinates": [ 17806.556896394049545, 9596.447091430170985, 0.0 ] } },
{ "type": "Feature", "properties": { "Layer": "CIMENTACION", "PaperSpace": null, "SubClasses": null, "Linetype": null, "EntityHandle": "1C1E3D25", "Text": "70cm." }, "geometry": { "type": "Point", "coordinates": [ 19652.388349533779547, 9581.336578929971438, 0.0 ] } },
{ "type": "Feature", "properties": { "Layer": "CIMENTACION", "PaperSpace": null, "SubClasses": null, "Linetype": null, "EntityHandle": "1C1E3D29", "Text": "90cm." }, "geometry": { "type": "Point", "coordinates": [ 5649.138379341038672, 16024.244470967549205, 0.0 ] } },
{ "type": "Feature", "properties": { "Layer": "CIMENTACION", "PaperSpace": null, "SubClasses": null, "Linetype": null, "EntityHandle": "1C1E3D2D", "Text": "80cm." }, "geometry": { "type": "Point", "coordinates": [ 10202.211091707329615, 17381.756601483230043, 0.0 ] } },
{ "type": "Feature", "properties": { "Layer": "CIMENTACION", "PaperSpace": null, "SubClasses": null, "Linetype": null, "EntityHandle": "1C1E3D31", "Text": "75cm." }, "geometry": { "type": "Point", "coordinates": [ 19050.631378222191415, 17073.905665850801597, 0.0 ] } },
{ "type": "Feature", "properties": { "Layer": "CIMENTACION", "PaperSpace": null, "SubClasses": null, "Linetype": null, "EntityHandle": "1C1E3D35", "Text": "75cm." }, "geometry": { "type": "Point", "coordinates": [ 19820.74051531754958, 17069.703054561829049, 0.0 ] } },
{ "type": "Feature", "properties": { "Layer": "CIMENTACION", "PaperSpace": null, "SubClasses": null, "Linetype": null, "EntityHandle": "1C1E3D39", "Text": "60cm." }, "geometry": { "type": "Point", "coordinates": [ 9490.721966802819225, 20708.434661819828762, 0.0 ] } },
{ "type": "Feature", "properties": { "Layer": "CIMENTACION", "PaperSpace": null, "SubClasses": null, "Linetype": null, "EntityHandle": "1C1E3D3D", "Text": "70cm." }, "geometry": { "type": "Point", "coordinates": [ 28515.181812115180946, 17625.679766618130088, 0.0 ] } },
{ "type": "Feature", "properties": { "Layer": "CIMENTACION", "PaperSpace": null, "SubClasses": null, "Linetype": null, "EntityHandle": "1C1E3D41", "Text": "80cm." }, "geometry": { "type": "Point", "coordinates": [ 31946.774779689370916, 17793.835731291379489, 0.0 ] } },
{ "type": "Feature", "properties": { "Layer": "CIMENTACION", "PaperSpace": null, "SubClasses": null, "Linetype": null, "EntityHandle": "1C1E3D45", "Text": "40cm." }, "geometry": { "type": "Point", "coordinates": [ 32343.835177657518216, 17199.876685541730694, 0.0 ] } },
{ "type": "Feature", "properties": { "Layer": "CIMENTACION", "PaperSpace": null, "SubClasses": null, "Linetype": null, "EntityHandle": "1C1E3D49", "Text": "70cm." }, "geometry": { "type": "Point", "coordinates": [ 29143.84762363875052, 21012.701143492839037, 0.0 ] } },
{ "type": "Feature", "properties": { "Layer": "CIMENTACION", "PaperSpace": null, "SubClasses": null, "Linetype": null, "EntityHandle": "1C1E3D4D", "Text": "70cm." }, "geometry": { "type": "Point", "coordinates": [ 42027.218626296787988, 16684.925873475229309, 0.0 ] } },
{ "type": "Feature", "properties": { "Layer": "CIMENTACION", "PaperSpace": null, "SubClasses": null, "Linetype": null, "EntityHandle": "1C1E3D51", "Text": "60cm." }, "geometry": { "type": "Point", "coordinates": [ 43925.097886416042456, 16520.547536926318571, 0.0 ] } },
{ "type": "Feature", "properties": { "Layer": "CIMENTACION", "PaperSpace": null, "SubClasses": null, "Linetype": null, "EntityHandle": "1C1E3D55", "Text": "60cm." }, "geometry": { "type": "Point", "coordinates": [ 45366.992363234727236, 16538.611467779250233, 0.0 ] } },
{ "type": "Feature", "properties": { "Layer": "CIMENTACION", "PaperSpace": null, "SubClasses": null, "Linetype": null, "EntityHandle": "1C1E3D59", "Text": "70cm." }, "geometry": { "type": "Point", "coordinates": [ 43694.1124922207091, 19130.922913375481585, 0.0 ] } },
{ "type": "Feature", "properties": { "Layer": "CIMENTACION", "PaperSpace": null, "SubClasses": null, "Linetype": null, "EntityHandle": "1C1E3D5D", "Text": "60cm." }, "geometry": { "type": "Point", "coordinates": [ 42942.160315749839356, 19092.748798026499571, 0.0 ] } },
{ "type": "Feature", "properties": { "Layer": "CIMENTACION", "PaperSpace": null, "SubClasses": null, "Linetype": null, "EntityHandle": "1C1E3D61", "Text": "100cm." }, "geometry": { "type": "Point", "coordinates": [ 61812.408406753682357, 22121.14309055170088, 0.0 ] } },
{ "type": "Feature", "properties": { "Layer": "CIMENTACION", "PaperSpace": null, "SubClasses": null, "Linetype": null, "EntityHandle": "1C1E3D65", "Text": "70cm." }, "geometry": { "type": "Point", "coordinates": [ 62181.105737283578492, 17609.770800900758331, 0.0 ] } },
{ "type": "Feature", "properties": { "Layer": "CIMENTACION", "PaperSpace": null, "SubClasses": null, "Linetype": null, "EntityHandle": "1C1E3D69", "Text": "70cm." }, "geometry": { "type": "Point", "coordinates": [ 62155.594758902298054, 16845.432141194898577, 0.0 ] } },
{ "type": "Feature", "properties": { "Layer": "CIMENTACION", "PaperSpace": null, "SubClasses": null, "Linetype": null, "EntityHandle": "1C1E3D75", "Text": "70cm." }, "geometry": { "type": "Point", "coordinates": [ 56249.673622851958498, 14956.755446991119243, 0.0 ] } },
{ "type": "Feature", "properties": { "Layer": "CIMENTACION", "PaperSpace": null, "SubClasses": null, "Linetype": null, "EntityHandle": "1C1E3D79", "Text": "70cm." }, "geometry": { "type": "Point", "coordinates": [ 63076.188231143241865, 15517.724638034309464, 0.0 ] } },
{ "type": "Feature", "properties": { "Layer": "CIMENTACION", "PaperSpace": null, "SubClasses": null, "Linetype": null, "EntityHandle": "1C1E3D85", "Text": "70cm." }, "geometry": { "type": "Point", "coordinates": [ 59537.196637384033238, 18560.479602703890123, 0.0 ] } },
{ "type": "Feature", "properties": { "Layer": "CIMENTACION", "PaperSpace": null, "SubClasses": null, "Linetype": null, "EntityHandle": "1C1E3D89", "Text": "150cm." }, "geometry": { "type": "Point", "coordinates": [ 48386.907228593452601, 26132.899263131141197, 0.0 ] } },
{ "type": "Feature", "properties": { "Layer": "CIMENTACION", "PaperSpace": null, "SubClasses": null, "Linetype": null, "EntityHandle": "1C1E3D8D", "Text": "150cm." }, "geometry": { "type": "Point", "coordinates": [ 48386.907228593452601, 32052.391021895189624, 0.0 ] } },
{ "type": "Feature", "properties": { "Layer": "CIMENTACION", "PaperSpace": null, "SubClasses": null, "Linetype": null, "EntityHandle": "1C1E3D91", "Text": "150cm." }, "geometry": { "type": "Point", "coordinates": [ 48386.907228593452601, 34990.432710595268873, 0.0 ] } },
{ "type": "Feature", "properties": { "Layer": "CIMENTACION", "PaperSpace": null, "SubClasses": null, "Linetype": null, "EntityHandle": "1C1E3D95", "Text": "150cm." }, "geometry": { "type": "Point", "coordinates": [ 48386.907228593452601, 40224.907414760033134, 0.0 ] } },
{ "type": "Feature", "properties": { "Layer": "CIMENTACION", "PaperSpace": null, "SubClasses": null, "Linetype": null, "EntityHandle": "1C1E3D99", "Text": "150cm." }, "geometry": { "type": "Point", "coordinates": [ 48386.907228593452601, 43189.972022831861977, 0.0 ] } },
{ "type": "Feature", "properties": { "Layer": "CIMENTACION", "PaperSpace": null, "SubClasses": null, "Linetype": null, "EntityHandle": "1C1E3D9D", "Text": "150cm." }, "geometry": { "type": "Point", "coordinates": [ 48386.907228593452601, 49351.313544021017151, 0.0 ] } },
{ "type": "Feature", "properties": { "Layer": "CIMENTACION", "PaperSpace": null, "SubClasses": null, "Linetype": null, "EntityHandle": "1C1E3DA3", "Text": "70cm." }, "geometry": { "type": "Point", "coordinates": [ 91934.620797511131968, 21497.977069995191414, 0.0 ] } },
{ "type": "Feature", "properties": { "Layer": "CIMENTACION", "PaperSpace": null, "SubClasses": null, "Linetype": null, "EntityHandle": "1C1E3DA7", "Text": "75cm." }, "geometry": { "type": "Point", "coordinates": [ 93572.678126667640754, 21208.104210030029208, 0.0 ] } },
{ "type": "Feature", "properties": { "Layer": "CIMENTACION", "PaperSpace": null, "SubClasses": null, "Linetype": null, "EntityHandle": "1C1E3DAB", "Text": "60cm." }, "geometry": { "type": "Point", "coordinates": [ 89596.110688053464401, 19923.075319163621316, 0.0 ] } },
{ "type": "Feature", "properties": { "Layer": "CIMENTACION", "PaperSpace": null, "SubClasses": null, "Linetype": null, "EntityHandle": "1C1E3DAF", "Text": "60cm." }, "geometry": { "type": "Point", "coordinates": [ 89453.145496779630776, 20775.561496958369389, 0.0 ] } },
{ "type": "Feature", "properties": { "Layer": "CIMENTACION", "PaperSpace": null, "SubClasses": null, "Linetype": null, "EntityHandle": "1C1E3DB3", "Text": "60cm." }, "geometry": { "type": "Point", "coordinates": [ 87771.382439301902195, 19953.575373513900558, 0.0 ] } },
{ "type": "Feature", "properties": { "Layer": "CIMENTACION", "PaperSpace": null, "SubClasses": null, "Linetype": null, "EntityHandle": "1C1E3DB7", "Text": "60cm." }, "geometry": { "type": "Point", "coordinates": [ 87608.182070742637734, 20792.625214910051, 0.0 ] } },
{ "type": "Feature", "properties": { "Layer": "CIMENTACION", "PaperSpace": null, "SubClasses": null, "Linetype": null, "EntityHandle": "1C1E3DBB", "Text": "50cm." }, "geometry": { "type": "Point", "coordinates": [ 42354.578539130132413, 57401.427880111077684, 0.0 ] } }
]
}
