{"type": "FeatureCollection", "features": [{"type": "Feature", "geometry": {"type": "Point", "coordinates": [31.795, 65.004]}, "properties": {"block": "A$C4A991A87", "layer": "ACHUTECH", "rotation": 90.0, "scale": 1.0}}, {"type": "Feature", "geometry": {"type": "Point", "coordinates": [31.783, 64.314]}, "properties": {"block": "A$C4A991A87", "layer": "ACHUTECH", "rotation": 90.0, "scale": 1.0}}, {"type": "Feature", "geometry": {"type": "Point", "coordinates": [31.795, 65.828]}, "properties": {"block": "A$C4A991A87", "layer": "ACHUTECH", "rotation": 90.0, "scale": 1.0}}, {"type": "Feature", "geometry": {"type": "Point", "coordinates": [51.854, 73.649]}, "properties": {"block": "A$C4A991A87", "layer": "ACHUTECH", "rotation": 90.0, "scale": 1.0}}, {"type": "Feature", "geometry": {"type": "Point", "coordinates": [61.534, 62.154]}, "properties": {"block": "A$C19842F56", "layer": "ACHUTECH", "rotation": 0.0, "scale": 1.0}}, {"type": "Feature", "geometry": {"type": "Point", "coordinates": [63.584, 62.154]}, "properties": {"block": "A$C19842F56", "layer": "ACHUTECH", "rotation": 0.0, "scale": 1.0}}, {"type": "Feature", "geometry": {"type": "Point", "coordinates": [65.594, 62.154]}, "properties": {"block": "A$C19842F56", "layer": "ACHUTECH", "rotation": 0.0, "scale": 1.0}}, {"type": "Feature", "geometry": {"type": "Point", "coordinates": [67.744, 60.861]}, "properties": {"block": "A$C19842F56", "layer": "ACHUTECH", "rotation": 0.0, "scale": 1.0}}, {"type": "Feature", "geometry": {"type": "Point", "coordinates": [69.664, 62.154]}, "properties": {"block": "A$C19842F56", "layer": "ACHUTECH", "rotation": 0.0, "scale": 1.0}}, {"type": "Feature", "geometry": {"type": "Point", "coordinates": [71.664, 62.154]}, "properties": {"block": "A$C19842F56", "layer": "ACHUTECH", "rotation": 0.0, "scale": 1.0}}, {"type": "Feature", "geometry": {"type": "Point", "coordinates": [63.584, 60.961]}, "properties": {"block": "A$C19842F56", "layer": "ACHUTECH", "rotation": 0.0, "scale": 1.0}}, {"type": "Feature", "geometry": {"type": "Point", "coordinates": [65.594, 60.961]}, "properties": {"block": "A$C19842F56", "layer": "ACHUTECH", "rotation": 0.0, "scale": 1.0}}, {"type": "Feature", "geometry": {"type": "Point", "coordinates": [65.434, 60.861]}, "properties": {"block": "A$C19842F56", "layer": "ACHUTECH", "rotation": 0.0, "scale": 1.0}}, {"type": "Feature", "geometry": {"type": "Point", "coordinates": [69.744, 60.861]}, "properties": {"block": "A$C19842F56", "layer": "ACHUTECH", "rotation": 0.0, "scale": 1.0}}, {"type": "Feature", "geometry": {"type": "Point", "coordinates": [61.504, 60.951]}, "properties": {"block": "A$C19842F56", "layer": "ACHUTECH", "rotation": 0.0, "scale": 1.0}}, {"type": "Feature", "geometry": {"type": "Point", "coordinates": [67.654, 62.154]}, "properties": {"block": "A$C19842F56", "layer": "ACHUTECH", "rotation": 0.0, "scale": 1.0}}, {"type": "Feature", "geometry": {"type": "Point", "coordinates": [0.302, 102.064]}, "properties": {"block": "FRE-6", "layer": "0", "rotation": 270.0, "scale": 0.8}}, {"type": "Feature", "geometry": {"type": "Point", "coordinates": [35.503, 66.921]}, "properties": {"block": "A$C4A991A87", "layer": "ACHUTECH", "rotation": 140.0, "scale": 1.0}}, {"type": "Feature", "geometry": {"type": "Point", "coordinates": [26.751, 65.834]}, "properties": {"block": "A$C7BC51C40", "layer": "ACHUTECH", "rotation": 270.0, "scale": 1.0}}, {"type": "Feature", "geometry": {"type": "Point", "coordinates": [7.46, 65.491]}, "properties": {"block": "A$C431E242E", "layer": "ACHUTECH", "rotation": 270.0, "scale": 1.0}}, {"type": "Feature", "geometry": {"type": "Point", "coordinates": [7.345, 65.963]}, "properties": {"block": "A$C05D53F32", "layer": "ACHUTECH", "rotation": 270.0, "scale": 1.0}}, {"type": "Feature", "geometry": {"type": "Point", "coordinates": [8.674, 48.213]}, "properties": {"block": "A$C06D66FD6", "layer": "ACHUTECH", "rotation": 90.0, "scale": 1.0}}, {"type": "Feature", "geometry": {"type": "Point", "coordinates": [9.664, 48.213]}, "properties": {"block": "A$C06D66FD6", "layer": "ACHUTECH", "rotation": 90.0, "scale": 1.0}}, {"type": "Feature", "geometry": {"type": "Point", "coordinates": [10.654, 48.213]}, "properties": {"block": "A$C06D66FD6", "layer": "ACHUTECH", "rotation": 90.0, "scale": 1.0}}, {"type": "Feature", "geometry": {"type": "Point", "coordinates": [11.644, 48.213]}, "properties": {"block": "A$C06D66FD6", "layer": "ACHUTECH", "rotation": 90.0, "scale": 1.0}}, {"type": "Feature", "geometry": {"type": "Point", "coordinates": [13.624, 48.213]}, "properties": {"block": "A$C06D66FD6", "layer": "ACHUTECH", "rotation": 90.0, "scale": 1.0}}, {"type": "Feature", "geometry": {"type": "Point", "coordinates": [14.614, 48.213]}, "properties": {"block": "A$C06D66FD6", "layer": "ACHUTECH", "rotation": 90.0, "scale": 1.0}}, {"type": "Feature", "geometry": {"type": "Point", "coordinates": [15.604, 48.213]}, "properties": {"block": "A$C06D66FD6", "layer": "ACHUTECH", "rotation": 90.0, "scale": 1.0}}, {"type": "Feature", "geometry": {"type": "Point", "coordinates": [16.694, 48.213]}, "properties": {"block": "A$C06D66FD6", "layer": "ACHUTECH", "rotation": 90.0, "scale": 1.0}}, {"type": "Feature", "geometry": {"type": "Point", "coordinates": [17.684, 48.213]}, "properties": {"block": "A$C06D66FD6", "layer": "ACHUTECH", "rotation": 90.0, "scale": 1.0}}, {"type": "Feature", "geometry": {"type": "Point", "coordinates": [18.674, 48.213]}, "properties": {"block": "A$C06D66FD6", "layer": "ACHUTECH", "rotation": 90.0, "scale": 1.0}}, {"type": "Feature", "geometry": {"type": "Point", "coordinates": [19.664, 48.213]}, "properties": {"block": "A$C06D66FD6", "layer": "ACHUTECH", "rotation": 90.0, "scale": 1.0}}, {"type": "Feature", "geometry": {"type": "Point", "coordinates": [20.654, 48.213]}, "properties": {"block": "A$C06D66FD6", "layer": "ACHUTECH", "rotation": 90.0, "scale": 1.0}}, {"type": "Feature", "geometry": {"type": "Point", "coordinates": [21.644, 48.213]}, "properties": {"block": "A$C06D66FD6", "layer": "ACHUTECH", "rotation": 90.0, "scale": 1.0}}, {"type": "Feature", "geometry": {"type": "Point", "coordinates": [22.634, 48.213]}, "properties": {"block": "A$C06D66FD6", "layer": "ACHUTECH", "rotation": 90.0, "scale": 1.0}}, {"type": "Feature", "geometry": {"type": "Point", "coordinates": [22.431, 50.872]}, "properties": {"block": "A$C06D66FD6", "layer": "ACHUTECH", "rotation": 270.0, "scale": 1.0}}, {"type": "Feature", "geometry": {"type": "Point", "coordinates": [21.383, 50.872]}, "properties": {"block": "A$C06D66FD6", "layer": "ACHUTECH", "rotation": 270.0, "scale": 1.0}}, {"type": "Feature", "geometry": {"type": "Point", "coordinates": [20.384, 50.872]}, "properties": {"block": "A$C06D66FD6", "layer": "ACHUTECH", "rotation": 270.0, "scale": 1.0}}, {"type": "Feature", "geometry": {"type": "Point", "coordinates": [19.394, 50.872]}, "properties": {"block": "A$C06D66FD6", "layer": "ACHUTECH", "rotation": 270.0, "scale": 1.0}}, {"type": "Feature", "geometry": {"type": "Point", "coordinates": [12.377, 50.872]}, "properties": {"block": "A$C06D66FD6", "layer": "ACHUTECH", "rotation": 270.0, "scale": 1.0}}, {"type": "Feature", "geometry": {"type": "Point", "coordinates": [11.387, 50.872]}, "properties": {"block": "A$C06D66FD6", "layer": "ACHUTECH", "rotation": 270.0, "scale": 1.0}}, {"type": "Feature", "geometry": {"type": "Point", "coordinates": [10.397, 50.872]}, "properties": {"block": "A$C06D66FD6", "layer": "ACHUTECH", "rotation": 270.0, "scale": 1.0}}, {"type": "Feature", "geometry": {"type": "Point", "coordinates": [9.407, 50.872]}, "properties": {"block": "A$C06D66FD6", "layer": "ACHUTECH", "rotation": 270.0, "scale": 1.0}}, {"type": "Feature", "geometry": {"type": "Point", "coordinates": [8.417, 50.872]}, "properties": {"block": "A$C06D66FD6", "layer": "ACHUTECH", "rotation": 270.0, "scale": 1.0}}, {"type": "Feature", "geometry": {"type": "Point", "coordinates": [12.634, 48.213]}, "properties": {"block": "A$C06D66FD6", "layer": "ACHUTECH", "rotation": 90.0, "scale": 1.0}}, {"type": "Feature", "geometry": {"type": "Point", "coordinates": [16.081, 75.445]}, "properties": {"block": "EQP-EQUIPOS_-_SITUACION_P0", "layer": "RIO2", "rotation": 90.5, "scale": 0.001}}, {"type": "Feature", "geometry": {"type": "Point", "coordinates": [16.885, 75.451]}, "properties": {"block": "EQP-EQUIPOS_-_SITUACION_P0", "layer": "RIO2", "rotation": 90.5, "scale": 0.001}}, {"type": "Feature", "geometry": {"type": "Point", "coordinates": [17.718, 75.452]}, "properties": {"block": "EQP-EQUIPOS_-_SITUACION_P0", "layer": "RIO2", "rotation": 90.5, "scale": 0.001}}, {"type": "Feature", "geometry": {"type": "Point", "coordinates": [18.538, 75.464]}, "properties": {"block": "EQP-EQUIPOS_-_SITUACION_P0", "layer": "RIO2", "rotation": 90.5, "scale": 0.001}}, {"type": "Feature", "geometry": {"type": "Point", "coordinates": [15.797, 77.223]}, "properties": {"block": "EQP-EQUIPOS_-_SITUACION_P0", "layer": "RIO2", "rotation": 270.0, "scale": 0.001}}, {"type": "Feature", "geometry": {"type": "Point", "coordinates": [16.599, 77.214]}, "properties": {"block": "EQP-EQUIPOS_-_SITUACION_P0", "layer": "RIO2", "rotation": 270.0, "scale": 0.001}}, {"type": "Feature", "geometry": {"type": "Point", "coordinates": [17.45, 77.22]}, "properties": {"block": "EQP-EQUIPOS_-_SITUACION_P0", "layer": "RIO2", "rotation": 270.0, "scale": 0.001}}, {"type": "Feature", "geometry": {"type": "Point", "coordinates": [18.266, 77.212]}, "properties": {"block": "EQP-EQUIPOS_-_SITUACION_P0", "layer": "RIO2", "rotation": 270.0, "scale": 0.001}}, {"type": "Feature", "geometry": {"type": "Point", "coordinates": [16.086, 75.443]}, "properties": {"block": "EQP-EQUIPOS_-_SITUACION_P0", "layer": "RIO2", "rotation": 90.5, "scale": 0.001}}, {"type": "Feature", "geometry": {"type": "Point", "coordinates": [16.89, 75.45]}, "properties": {"block": "EQP-EQUIPOS_-_SITUACION_P0", "layer": "RIO2", "rotation": 90.5, "scale": 0.001}}, {"type": "Feature", "geometry": {"type": "Point", "coordinates": [17.723, 75.45]}, "properties": {"block": "EQP-EQUIPOS_-_SITUACION_P0", "layer": "RIO2", "rotation": 90.5, "scale": 0.001}}, {"type": "Feature", "geometry": {"type": "Point", "coordinates": [18.543, 75.462]}, "properties": {"block": "EQP-EQUIPOS_-_SITUACION_P0", "layer": "RIO2", "rotation": 90.5, "scale": 0.001}}, {"type": "Feature", "geometry": {"type": "Point", "coordinates": [15.802, 77.222]}, "properties": {"block": "EQP-EQUIPOS_-_SITUACION_P0", "layer": "RIO2", "rotation": 270.0, "scale": 0.001}}, {"type": "Feature", "geometry": {"type": "Point", "coordinates": [16.604, 77.212]}, "properties": {"block": "EQP-EQUIPOS_-_SITUACION_P0", "layer": "RIO2", "rotation": 270.0, "scale": 0.001}}, {"type": "Feature", "geometry": {"type": "Point", "coordinates": [17.455, 77.218]}, "properties": {"block": "EQP-EQUIPOS_-_SITUACION_P0", "layer": "RIO2", "rotation": 270.0, "scale": 0.001}}, {"type": "Feature", "geometry": {"type": "Point", "coordinates": [18.27, 77.21]}, "properties": {"block": "EQP-EQUIPOS_-_SITUACION_P0", "layer": "RIO2", "rotation": 270.0, "scale": 0.001}}, {"type": "Feature", "geometry": {"type": "Point", "coordinates": [16.086, 75.443]}, "properties": {"block": "EQP-EQUIPOS_-_SITUACION_P0", "layer": "RIO2", "rotation": 90.5, "scale": 0.001}}, {"type": "Feature", "geometry": {"type": "Point", "coordinates": [16.89, 75.45]}, "properties": {"block": "EQP-EQUIPOS_-_SITUACION_P0", "layer": "RIO2", "rotation": 90.5, "scale": 0.001}}, {"type": "Feature", "geometry": {"type": "Point", "coordinates": [17.723, 75.45]}, "properties": {"block": "EQP-EQUIPOS_-_SITUACION_P0", "layer": "RIO2", "rotation": 90.5, "scale": 0.001}}, {"type": "Feature", "geometry": {"type": "Point", "coordinates": [18.543, 75.462]}, "properties": {"block": "EQP-EQUIPOS_-_SITUACION_P0", "layer": "RIO2", "rotation": 90.5, "scale": 0.001}}, {"type": "Feature", "geometry": {"type": "Point", "coordinates": [15.802, 77.222]}, "properties": {"block": "EQP-EQUIPOS_-_SITUACION_P0", "layer": "RIO2", "rotation": 270.0, "scale": 0.001}}, {"type": "Feature", "geometry": {"type": "Point", "coordinates": [16.604, 77.212]}, "properties": {"block": "EQP-EQUIPOS_-_SITUACION_P0", "layer": "RIO2", "rotation": 270.0, "scale": 0.001}}, {"type": "Feature", "geometry": {"type": "Point", "coordinates": [17.455, 77.218]}, "properties": {"block": "EQP-EQUIPOS_-_SITUACION_P0", "layer": "RIO2", "rotation": 270.0, "scale": 0.001}}, {"type": "Feature", "geometry": {"type": "Point", "coordinates": [18.27, 77.21]}, "properties": {"block": "EQP-EQUIPOS_-_SITUACION_P0", "layer": "RIO2", "rotation": 270.0, "scale": 0.001}}, {"type": "Feature", "geometry": {"type": "Point", "coordinates": [-0.78, 73.221]}, "properties": {"block": "EQP-EQUIPOS_-_SITUACION_P1", "layer": "EQP-EQUIPOS_-_SITUACION_P1", "rotation": 0.0, "scale": 0.001}}, {"type": "Feature", "geometry": {"type": "Point", "coordinates": [16.89, 75.45]}, "properties": {"block": "EQP-EQUIPOS_-_SITUACION_P0", "layer": "RIO2", "rotation": 90.5, "scale": 0.001}}, {"type": "Feature", "geometry": {"type": "Point", "coordinates": [17.723, 75.45]}, "properties": {"block": "EQP-EQUIPOS_-_SITUACION_P0", "layer": "RIO2", "rotation": 90.5, "scale": 0.001}}, {"type": "Feature", "geometry": {"type": "Point", "coordinates": [18.543, 75.462]}, "properties": {"block": "EQP-EQUIPOS_-_SITUACION_P0", "layer": "RIO2", "rotation": 90.5, "scale": 0.001}}, {"type": "Feature", "geometry": {"type": "Point", "coordinates": [15.802, 77.222]}, "properties": {"block": "EQP-EQUIPOS_-_SITUACION_P0", "layer": "RIO2", "rotation": 270.0, "scale": 0.001}}, {"type": "Feature", "geometry": {"type": "Point", "coordinates": [16.604, 77.212]}, "properties": {"block": "EQP-EQUIPOS_-_SITUACION_P0", "layer": "RIO2", "rotation": 270.0, "scale": 0.001}}, {"type": "Feature", "geometry": {"type": "Point", "coordinates": [17.455, 77.218]}, "properties": {"block": "EQP-EQUIPOS_-_SITUACION_P0", "layer": "RIO2", "rotation": 270.0, "scale": 0.001}}, {"type": "Feature", "geometry": {"type": "Point", "coordinates": [18.27, 77.21]}, "properties": {"block": "EQP-EQUIPOS_-_SITUACION_P0", "layer": "RIO2", "rotation": 270.0, "scale": 0.001}}, {"type": "Feature", "geometry": {"type": "Point", "coordinates": [14.102, 77.451]}, "properties": {"block": "EQP-EQUIPOS_-_SITUACION_PA", "layer": "EQP-EQUIPOS_-_SITUACION_P1", "rotation": 90.0, "scale": 0.001}}, {"type": "Feature", "geometry": {"type": "Point", "coordinates": [6.446, 75.422]}, "properties": {"block": "EQP-EQUIPOS_-_SITUACION_PB", "layer": "EQP-EQUIPOS_-_SITUACION_P1", "rotation": 180.0, "scale": 0.001}}, {"type": "Feature", "geometry": {"type": "Point", "coordinates": [10.188, 76.392]}, "properties": {"block": "EQP-EQUIPOS_-_SITUACION_PC", "layer": "EQP-EQUIPOS_-_SITUACION_P1", "rotation": 90.0, "scale": 0.001}}, {"type": "Feature", "geometry": {"type": "Point", "coordinates": [8.219, 76.683]}, "properties": {"block": "EQP-EQUIPOS_-_SITUACION_P0", "layer": "RIO2", "rotation": 270.0, "scale": 0.001}}, {"type": "Feature", "geometry": {"type": "Point", "coordinates": [9.02, 76.673]}, "properties": {"block": "EQP-EQUIPOS_-_SITUACION_P0", "layer": "RIO2", "rotation": 270.0, "scale": 0.001}}, {"type": "Feature", "geometry": {"type": "Point", "coordinates": [13.219, 75.479]}, "properties": {"block": "EQP-EQUIPOS_-_SITUACION_P0", "layer": "RIO2", "rotation": 90.5, "scale": 0.001}}, {"type": "Feature", "geometry": {"type": "Point", "coordinates": [51.854, 73.657]}, "properties": {"block": "A$C4A991A87", "layer": "ACHUTECH", "rotation": 90.0, "scale": 1.0}}, {"type": "Feature", "geometry": {"type": "Point", "coordinates": [20.431, 72.04]}, "properties": {"block": "A$CC53CDA04", "layer": "0", "rotation": 180.1, "scale": 0.001}}, {"type": "Feature", "geometry": {"type": "Point", "coordinates": [12.702, 70.069]}, "properties": {"block": "EQP-EQUIPOS_-_SITUACION_P0", "layer": "RIO2", "rotation": 90.5, "scale": 0.001}}, {"type": "Feature", "geometry": {"type": "Point", "coordinates": [12.692, 71.69]}, "properties": {"block": "EQP-EQUIPOS_-_SITUACION_P0", "layer": "RIO2", "rotation": 270.0, "scale": 0.001}}, {"type": "Feature", "geometry": {"type": "Point", "coordinates": [18.129, 69.97]}, "properties": {"block": "EQP-EQUIPOS_-_SITUACION_P0", "layer": "RIO2", "rotation": 90.5, "scale": 0.001}}, {"type": "Feature", "geometry": {"type": "Point", "coordinates": [18.934, 69.976]}, "properties": {"block": "EQP-EQUIPOS_-_SITUACION_P0", "layer": "RIO2", "rotation": 90.5, "scale": 0.001}}, {"type": "Feature", "geometry": {"type": "Point", "coordinates": [8.611, 89.03]}, "properties": {"block": "A$C4A991A87", "layer": "ACHUTECH", "rotation": 90.0, "scale": 1.0}}, {"type": "Feature", "geometry": {"type": "Point", "coordinates": [8.611, 88.499]}, "properties": {"block": "A$C4A991A87", "layer": "ACHUTECH", "rotation": 90.0, "scale": 1.0}}, {"type": "Feature", "geometry": {"type": "Point", "coordinates": [37.179, 100.182]}, "properties": {"block": "A$C12FA01EB", "layer": "ACHUTECH", "rotation": 0.0, "scale": 1.0}}, {"type": "Feature", "geometry": {"type": "Point", "coordinates": [36.349, 100.182]}, "properties": {"block": "A$C12FA01EB", "layer": "ACHUTECH", "rotation": 0.0, "scale": 1.0}}, {"type": "Feature", "geometry": {"type": "Point", "coordinates": [35.519, 100.182]}, "properties": {"block": "A$C12FA01EB", "layer": "ACHUTECH", "rotation": 0.0, "scale": 1.0}}, {"type": "Feature", "geometry": {"type": "Point", "coordinates": [34.689, 100.182]}, "properties": {"block": "A$C12FA01EB", "layer": "ACHUTECH", "rotation": 0.0, "scale": 1.0}}, {"type": "Feature", "geometry": {"type": "Point", "coordinates": [33.859, 100.182]}, "properties": {"block": "A$C12FA01EB", "layer": "ACHUTECH", "rotation": 0.0, "scale": 1.0}}, {"type": "Feature", "geometry": {"type": "Point", "coordinates": [33.029, 100.182]}, "properties": {"block": "A$C12FA01EB", "layer": "ACHUTECH", "rotation": 0.0, "scale": 1.0}}, {"type": "Feature", "geometry": {"type": "Point", "coordinates": [32.199, 100.182]}, "properties": {"block": "A$C12FA01EB", "layer": "ACHUTECH", "rotation": 0.0, "scale": 1.0}}, {"type": "Feature", "geometry": {"type": "Point", "coordinates": [31.369, 100.182]}, "properties": {"block": "A$C12FA01EB", "layer": "ACHUTECH", "rotation": 0.0, "scale": 1.0}}, {"type": "Feature", "geometry": {"type": "Point", "coordinates": [30.161, 100.182]}, "properties": {"block": "A$C12FA01EB", "layer": "ACHUTECH", "rotation": 0.0, "scale": 1.0}}, {"type": "Feature", "geometry": {"type": "Point", "coordinates": [29.331, 100.182]}, "properties": {"block": "A$C12FA01EB", "layer": "ACHUTECH", "rotation": 0.0, "scale": 1.0}}, {"type": "Feature", "geometry": {"type": "Point", "coordinates": [28.501, 100.182]}, "properties": {"block": "A$C12FA01EB", "layer": "ACHUTECH", "rotation": 0.0, "scale": 1.0}}, {"type": "Feature", "geometry": {"type": "Point", "coordinates": [27.671, 100.182]}, "properties": {"block": "A$C12FA01EB", "layer": "ACHUTECH", "rotation": 0.0, "scale": 1.0}}, {"type": "Feature", "geometry": {"type": "Point", "coordinates": [31.535, 95.203]}, "properties": {"block": "A$C6B430051", "layer": "ACHUTECH", "rotation": 67.1, "scale": 1.0}}, {"type": "Feature", "geometry": {"type": "Point", "coordinates": [34.646, 95.045]}, "properties": {"block": "A$C6B430051", "layer": "ACHUTECH", "rotation": 67.1, "scale": 1.0}}, {"type": "Feature", "geometry": {"type": "Point", "coordinates": [37.674, 95.109]}, "properties": {"block": "A$C6B430051", "layer": "ACHUTECH", "rotation": 67.1, "scale": 1.0}}, {"type": "Feature", "geometry": {"type": "Point", "coordinates": [34.556, 87.748]}, "properties": {"block": "A$C0A79222E", "layer": "0", "rotation": 50.9, "scale": -0.001}}, {"type": "Feature", "geometry": {"type": "Point", "coordinates": [34.057, 87.109]}, "properties": {"block": "A$C0A79222E", "layer": "0", "rotation": 50.9, "scale": -0.001}}, {"type": "Feature", "geometry": {"type": "Point", "coordinates": [33.581, 86.499]}, "properties": {"block": "A$C0A79222E", "layer": "0", "rotation": 50.9, "scale": -0.001}}, {"type": "Feature", "geometry": {"type": "Point", "coordinates": [31.322, 87.455]}, "properties": {"block": "A$C0A79222E", "layer": "0", "rotation": 230.9, "scale": -0.001}}, {"type": "Feature", "geometry": {"type": "Point", "coordinates": [31.82, 88.093]}, "properties": {"block": "A$C0A79222E", "layer": "0", "rotation": 230.9, "scale": -0.001}}, {"type": "Feature", "geometry": {"type": "Point", "coordinates": [32.312, 88.688]}, "properties": {"block": "A$C0A79222E", "layer": "0", "rotation": 230.9, "scale": -0.001}}, {"type": "Feature", "geometry": {"type": "Point", "coordinates": [33.089, 85.868]}, "properties": {"block": "A$C0A79222E", "layer": "0", "rotation": 50.9, "scale": -0.001}}, {"type": "Feature", "geometry": {"type": "Point", "coordinates": [30.83, 86.824]}, "properties": {"block": "A$C0A79222E", "layer": "0", "rotation": 230.9, "scale": -0.001}}, {"type": "Feature", "geometry": {"type": "Point", "coordinates": [35.032, 88.313]}, "properties": {"block": "A$C0A79222E", "layer": "0", "rotation": 50.9, "scale": -0.001}}, {"type": "Feature", "geometry": {"type": "Point", "coordinates": [32.773, 89.268]}, "properties": {"block": "A$C0A79222E", "layer": "0", "rotation": 230.9, "scale": -0.001}}, {"type": "Feature", "geometry": {"type": "Point", "coordinates": [18.403, 91.678]}, "properties": {"block": "A$C0A79222E", "layer": "0", "rotation": 271.2, "scale": 0.001}}, {"type": "Feature", "geometry": {"type": "Point", "coordinates": [36.734, 92.227]}, "properties": {"block": "A$C0A79222E", "layer": "0", "rotation": 88.8, "scale": -0.001}}, {"type": "Feature", "geometry": {"type": "Point", "coordinates": [35.396, 92.227]}, "properties": {"block": "A$C0A79222E", "layer": "0", "rotation": 88.8, "scale": -0.001}}, {"type": "Feature", "geometry": {"type": "Point", "coordinates": [34.05, 91.603]}, "properties": {"block": "A$C0A79222E", "layer": "0", "rotation": 268.8, "scale": -0.001}}, {"type": "Feature", "geometry": {"type": "Point", "coordinates": [35.401, 91.603]}, "properties": {"block": "A$C0A79222E", "layer": "0", "rotation": 268.8, "scale": -0.001}}, {"type": "Feature", "geometry": {"type": "Point", "coordinates": [17.278, 78.059]}, "properties": {"block": "A$C4A991A87", "layer": "ACHUTECH", "rotation": 180.0, "scale": 1.0}}, {"type": "Feature", "geometry": {"type": "Point", "coordinates": [17.772, 78.059]}, "properties": {"block": "A$C4A991A87", "layer": "ACHUTECH", "rotation": 180.0, "scale": 1.0}}, {"type": "Feature", "geometry": {"type": "Point", "coordinates": [15.879, 79.534]}, "properties": {"block": "A$C4A991A87", "layer": "ACHUTECH", "rotation": 90.0, "scale": 1.0}}, {"type": "Feature", "geometry": {"type": "Point", "coordinates": [15.879, 79.002]}, "properties": {"block": "A$C4A991A87", "layer": "ACHUTECH", "rotation": 90.0, "scale": 1.0}}, {"type": "Feature", "geometry": {"type": "Point", "coordinates": [15.879, 78.604]}, "properties": {"block": "A$C4A991A87", "layer": "ACHUTECH", "rotation": 90.0, "scale": 1.0}}, {"type": "Feature", "geometry": {"type": "Point", "coordinates": [15.879, 78.072]}, "properties": {"block": "A$C4A991A87", "layer": "ACHUTECH", "rotation": 90.0, "scale": 1.0}}, {"type": "Feature", "geometry": {"type": "Point", "coordinates": [18.031, 96.294]}, "properties": {"block": "A$CD746E311", "layer": "0", "rotation": 180.0, "scale": 0.001}}, {"type": "Feature", "geometry": {"type": "Point", "coordinates": [16.953, 96.294]}, "properties": {"block": "A$CD746E311", "layer": "0", "rotation": 180.0, "scale": 0.001}}, {"type": "Feature", "geometry": {"type": "Point", "coordinates": [19.643, 89.28]}, "properties": {"block": "SW_CENTERMARKSYMBOL_1", "layer": "SLD-0", "rotation": 90.0, "scale": 0.001}}, {"type": "Feature", "geometry": {"type": "Point", "coordinates": [10.013, 80.535]}, "properties": {"block": "CICLON", "layer": "0", "rotation": 0.0, "scale": 0.001}}, {"type": "Feature", "geometry": {"type": "Point", "coordinates": [10.013, 79.319]}, "properties": {"block": "CICLON", "layer": "0", "rotation": 0.0, "scale": 0.001}}, {"type": "Feature", "geometry": {"type": "Point", "coordinates": [10.013, 78.103]}, "properties": {"block": "CICLON", "layer": "0", "rotation": 0.0, "scale": 0.001}}, {"type": "Feature", "geometry": {"type": "Point", "coordinates": [7.047, 80.498]}, "properties": {"block": "EJE34", "layer": "0", "rotation": 0.0, "scale": 0.001}}, {"type": "Feature", "geometry": {"type": "Point", "coordinates": [1.742, 81.532]}, "properties": {"block": "BANDEJON", "layer": "0", "rotation": 0.0, "scale": 0.001}}, {"type": "Feature", "geometry": {"type": "Point", "coordinates": [1.742, 81.532]}, "properties": {"block": "BANDEJON", "layer": "0", "rotation": 0.0, "scale": 0.001}}, {"type": "Feature", "geometry": {"type": "Point", "coordinates": [7.047, 81.069]}, "properties": {"block": "CINTA_600", "layer": "0", "rotation": 0.0, "scale": 0.001}}, {"type": "Feature", "geometry": {"type": "Point", "coordinates": [31.06, 91.118]}, "properties": {"block": "A$C0A79222E", "layer": "0", "rotation": 268.8, "scale": -0.001}}, {"type": "Feature", "geometry": {"type": "Point", "coordinates": [31.06, 90.201]}, "properties": {"block": "A$C0A79222E", "layer": "0", "rotation": 268.8, "scale": -0.001}}, {"type": "Feature", "geometry": {"type": "Point", "coordinates": [7.483, 80.498]}, "properties": {"block": "142-1", "layer": "0", "rotation": 0.0, "scale": 0.001}}, {"type": "Feature", "geometry": {"type": "Point", "coordinates": [7.334, 80.498]}, "properties": {"block": "142_2", "layer": "0", "rotation": 0.0, "scale": 0.001}}, {"type": "Feature", "geometry": {"type": "Point", "coordinates": [-0.172, 81.526]}, "properties": {"block": "BANDEJON", "layer": "0", "rotation": 0.0, "scale": 0.001}}, {"type": "Feature", "geometry": {"type": "Point", "coordinates": [5.133, 80.498]}, "properties": {"block": "142-1", "layer": "0", "rotation": 0.0, "scale": 0.001}}, {"type": "Feature", "geometry": {"type": "Point", "coordinates": [10.237, 84.215]}, "properties": {"block": "CUELLO_CISNE", "layer": "0", "rotation": 0.0, "scale": 0.001}}, {"type": "Feature", "geometry": {"type": "Point", "coordinates": [7.047, 80.498]}, "properties": {"block": "EJE305", "layer": "0", "rotation": 0.0, "scale": 0.001}}, {"type": "Feature", "geometry": {"type": "Point", "coordinates": [5.572, 80.498]}, "properties": {"block": "EJE305", "layer": "0", "rotation": 0.0, "scale": 0.001}}, {"type": "Feature", "geometry": {"type": "Point", "coordinates": [7.254, 80.498]}, "properties": {"block": "EJE305", "layer": "0", "rotation": 0.0, "scale": 0.001}}, {"type": "Feature", "geometry": {"type": "Point", "coordinates": [8.562, 80.498]}, "properties": {"block": "EJE305", "layer": "0", "rotation": 0.0, "scale": 0.001}}, {"type": "Feature", "geometry": {"type": "Point", "coordinates": [7.047, 80.498]}, "properties": {"block": "GRADER", "layer": "0", "rotation": 0.0, "scale": 0.001}}, {"type": "Feature", "geometry": {"type": "Point", "coordinates": [21.371, 88.035]}, "properties": {"block": "A$C310F466B", "layer": "0", "rotation": 90.0, "scale": 0.001}}, {"type": "Feature", "geometry": {"type": "Point", "coordinates": [21.371, 86.819]}, "properties": {"block": "A$C310F466B", "layer": "0", "rotation": 90.0, "scale": 0.001}}, {"type": "Feature", "geometry": {"type": "Point", "coordinates": [21.371, 89.251]}, "properties": {"block": "A$C310F466B", "layer": "0", "rotation": 90.0, "scale": 0.001}}, {"type": "Feature", "geometry": {"type": "Point", "coordinates": [7.047, 80.498]}, "properties": {"block": "ACTUADOR", "layer": "0", "rotation": 0.0, "scale": 0.001}}, {"type": "Feature", "geometry": {"type": "Point", "coordinates": [36.26, 79.732]}, "properties": {"block": "A$C2C5A6B9E", "layer": "0", "rotation": 0.0, "scale": 1.0}}, {"type": "Feature", "geometry": {"type": "Point", "coordinates": [36.26, 76.917]}, "properties": {"block": "A$C2C5A6B9E", "layer": "0", "rotation": 0.0, "scale": 1.0}}, {"type": "Feature", "geometry": {"type": "Point", "coordinates": [36.26, 74.206]}, "properties": {"block": "A$C2C5A6B9E", "layer": "0", "rotation": 0.0, "scale": 1.0}}, {"type": "Feature", "geometry": {"type": "Point", "coordinates": [36.26, 71.401]}, "properties": {"block": "A$C2C5A6B9E", "layer": "0", "rotation": 0.0, "scale": 1.0}}, {"type": "Feature", "geometry": {"type": "Point", "coordinates": [36.29, 82.578]}, "properties": {"block": "A$C2C5A6B9E", "layer": "0", "rotation": 0.0, "scale": 1.0}}, {"type": "Feature", "geometry": {"type": "Point", "coordinates": [36.26, 85.282]}, "properties": {"block": "A$C2C5A6B9E", "layer": "0", "rotation": 0.0, "scale": 1.0}}]}