{
"type": "FeatureCollection",
"name": "SELECT",
"features": [
{ "type": "Feature", "properties": { "Layer": "EQP-EQUIPOS_-_SITUACION_P0", "PaperSpace": null, "SubClasses": null, "Linetype": null, "EntityHandle": "1C2102C0", "Text": null }, "geometry": { "type": "LineString", "coordinates": [ [ 2801.308018257982894, 30102.332550168750458, 1543.562357601852 ], [ 3751.138770947916782, 30102.525073999870074, 1543.562357601852 ] ] } },
{ "type": "Feature", "properties": { "Layer": "EQP-EQUIPOS_-_SITUACION_P0", "PaperSpace": null, "SubClasses": null, "Linetype": null, "EntityHandle": "1C2102C1", "Text": null }, "geometry": { "type": "LineString", "coordinates": [ [ 3751.138770947916782, 30102.525073999870074, 1543.562357601852 ], [ 3751.709413311345997, 29823.400014698050654, 1543.562357601852 ] ] } },
{ "type": "Feature", "properties": { "Layer": "EQP-EQUIPOS_-_SITUACION_P0", "PaperSpace": null, "SubClasses": null, "Linetype": null, "EntityHandle": "1C2102C2", "Text": null }, "geometry": { "type": "LineString", "coordinates": [ [ 3751.709413311345997, 29823.400014698050654, 1543.562357601852 ], [ 2663.184685226951842, 29823.179378600169002, 1543.562357601852 ] ] } },
{ "type": "Feature", "properties": { "Layer": "EQP-EQUIPOS_-_SITUACION_P0", "PaperSpace": null, "SubClasses": null, "Linetype": null, "EntityHandle": "1C2102C5", "Text": null }, "geometry": { "type": "LineString", "coordinates": [ [ 2788.627550250842887, 29825.598119470760139, 1543.562357601852 ], [ 3747.373907357537973, 29825.792450430501049, 1543.562357601852 ], [ 3747.318079246189882, 30101.224622952529899, 1543.562357601852 ], [ 2788.571722139494796, 30101.030291992788989, 1543.562357601852 ], [ 2788.627550250842887, 29825.598119470760139, 1543.562357601852 ] ] } },
{ "type": "Feature", "properties": { "Layer": "EQP-EQUIPOS_-_SITUACION_P0", "PaperSpace": null, "SubClasses": null, "Linetype": null, "EntityHandle": "1C212658", "Text": null }, "geometry": { "type": "LineString", "coordinates": [ [ 2796.408182381529059, 30104.095824035470287, 1543.562357601852 ], [ 3746.238935071229207, 30104.288347866578988, 1543.562357601852 ] ] } },
{ "type": "Feature", "properties": { "Layer": "EQP-EQUIPOS_-_SITUACION_P0", "PaperSpace": null, "SubClasses": null, "Linetype": null, "EntityHandle": "1C212659", "Text": null }, "geometry": { "type": "LineString", "coordinates": [ [ 3746.238935071229207, 30104.288347866578988, 1543.562357601852 ], [ 3746.809577434890798, 29825.163288564730465, 1543.562357601852 ] ] } },
{ "type": "Feature", "properties": { "Layer": "EQP-EQUIPOS_-_SITUACION_P0", "PaperSpace": null, "SubClasses": null, "Linetype": null, "EntityHandle": "1C21265A", "Text": null }, "geometry": { "type": "LineString", "coordinates": [ [ 3746.809577434890798, 29825.163288564730465, 1543.562357601852 ], [ 2658.284849350497097, 29824.942652466870641, 1543.562357601852 ] ] } },
{ "type": "Feature", "properties": { "Layer": "EQP-EQUIPOS_-_SITUACION_P0", "PaperSpace": null, "SubClasses": null, "Linetype": null, "EntityHandle": "1C21265D", "Text": null }, "geometry": { "type": "LineString", "coordinates": [ [ 2783.727714374038896, 29827.361393337439949, 1543.562357601852 ], [ 3742.474071481082774, 29827.555724297169945, 1543.562357601852 ], [ 3742.418243369735137, 30102.987896819238813, 1543.562357601852 ], [ 2783.671886262690805, 30102.793565859508817, 1543.562357601852 ], [ 2783.727714374038896, 29827.361393337439949, 1543.562357601852 ] ] } },
{ "type": "Feature", "properties": { "Layer": "EQP-EQUIPOS_-_SITUACION_P0", "PaperSpace": null, "SubClasses": null, "Linetype": null, "EntityHandle": "1C2149F0", "Text": null }, "geometry": { "type": "LineString", "coordinates": [ [ 2796.408182381529059, 30104.095824035470287, 1543.562357601852 ], [ 3746.238935071229207, 30104.288347866578988, 1543.562357601852 ] ] } },
{ "type": "Feature", "properties": { "Layer": "EQP-EQUIPOS_-_SITUACION_P0", "PaperSpace": null, "SubClasses": null, "Linetype": null, "EntityHandle": "1C2149F1", "Text": null }, "geometry": { "type": "LineString", "coordinates": [ [ 3746.238935071229207, 30104.288347866578988, 1543.562357601852 ], [ 3746.809577434890798, 29825.163288564730465, 1543.562357601852 ] ] } },
{ "type": "Feature", "properties": { "Layer": "EQP-EQUIPOS_-_SITUACION_P0", "PaperSpace": null, "SubClasses": null, "Linetype": null, "EntityHandle": "1C2149F2", "Text": null }, "geometry": { "type": "LineString", "coordinates": [ [ 3746.809577434890798, 29825.163288564730465, 1543.562357601852 ], [ 2658.284849350497097, 29824.942652466870641, 1543.562357601852 ] ] } },
{ "type": "Feature", "properties": { "Layer": "EQP-EQUIPOS_-_SITUACION_P0", "PaperSpace": null, "SubClasses": null, "Linetype": null, "EntityHandle": "1C2149F5", "Text": null }, "geometry": { "type": "LineString", "coordinates": [ [ 2783.727714374038896, 29827.361393337439949, 1543.562357601852 ], [ 3742.474071481082774, 29827.555724297169945, 1543.562357601852 ], [ 3742.418243369735137, 30102.987896819238813, 1543.562357601852 ], [ 2783.671886262690805, 30102.793565859508817, 1543.562357601852 ], [ 2783.727714374038896, 29827.361393337439949, 1543.562357601852 ] ] } },
{ "type": "Feature", "properties": { "Layer": "EQP-EQUIPOS_-_SITUACION_P0", "PaperSpace": null, "SubClasses": null, "Linetype": null, "EntityHandle": "1C216D88", "Text": null }, "geometry": { "type": "LineString", "coordinates": [ [ 2796.408182381529059, 30104.095824035470287, 1543.562357601852 ], [ 3746.238935071229207, 30104.288347866578988, 1543.562357601852 ] ] } },
{ "type": "Feature", "properties": { "Layer": "EQP-EQUIPOS_-_SITUACION_P0", "PaperSpace": null, "SubClasses": null, "Linetype": null, "EntityHandle": "1C216D89", "Text": null }, "geometry": { "type": "LineString", "coordinates": [ [ 3746.238935071229207, 30104.288347866578988, 1543.562357601852 ], [ 3746.809577434890798, 29825.163288564730465, 1543.562357601852 ] ] } }
]
}
