{
"type": "FeatureCollection",
"name": "SELECT",
"features": [
{ "type": "Feature", "properties": { "Layer": "EQP-EQUIPOS_-_SITUACION_PR", "PaperSpace": null, "SubClasses": null, "Linetype": null, "EntityHandle": "1C2170C0", "Text": "" }, "geometry": { "type": "Point", "coordinates": [ 0.0, 0.0, 0.0 ] } },
{ "type": "Feature", "properties": { "Layer": "EQP-EQUIPOS_-_SITUACION_PR", "PaperSpace": null, "SubClasses": null, "Linetype": null, "EntityHandle": "1C2170C5", "Text": "" }, "geometry": { "type": "Point", "coordinates": [ 0.0, 0.0, 0.0 ] } },
{ "type": "Feature", "properties": { "Layer": "EQP-EQUIPOS_-_SITUACION_PR", "PaperSpace": null, "SubClasses": null, "Linetype": null, "EntityHandle": "1C2170CE", "Text": "" }, "geometry": { "type": "Point", "coordinates": [ 0.0, 0.0, 0.0 ] } },
{ "type": "Feature", "properties": { "Layer": "EQP-EQUIPOS_-_SITUACION_PR", "PaperSpace": null, "SubClasses": null, "Linetype": null, "EntityHandle": "1C2170D3", "Text": "" }, "geometry": { "type": "Point", "coordinates": [ 0.0, 0.0, 0.0 ] } },
{ "type": "Feature", "properties": { "Layer": "EQP-EQUIPOS_-_SITUACION_PR", "PaperSpace": null, "SubClasses": null, "Linetype": null, "EntityHandle": "1C2170DC", "Text": "" }, "geometry": { "type": "Point", "coordinates": [ 0.0, 0.0, 0.0 ] } },
{ "type": "Feature", "properties": { "Layer": "EQP-EQUIPOS_-_SITUACION_PR", "PaperSpace": null, "SubClasses": null, "Linetype": null, "EntityHandle": "1C2170E1", "Text": "" }, "geometry": { "type": "Point", "coordinates": [ 0.0, 0.0, 0.0 ] } },
{ "type": "Feature", "properties": { "Layer": "EQP-EQUIPOS_-_SITUACION_PR", "PaperSpace": null, "SubClasses": null, "Linetype": null, "EntityHandle": "1C25425D", "Text": "" }, "geometry": { "type": "Point", "coordinates": [ 0.0, 0.0, 0.0 ] } },
{ "type": "Feature", "properties": { "Layer": "EQP-EQUIPOS_-_SITUACION_PR", "PaperSpace": null, "SubClasses": null, "Linetype": null, "EntityHandle": "1C254262", "Text": "" }, "geometry": { "type": "Point", "coordinates": [ 0.0, 0.0, 0.0 ] } },
{ "type": "Feature", "properties": { "Layer": "EQP-EQUIPOS_-_SITUACION_PR", "PaperSpace": null, "SubClasses": null, "Linetype": null, "EntityHandle": "1C25426B", "Text": "" }, "geometry": { "type": "Point", "coordinates": [ 0.0, 0.0, 0.0 ] } },
{ "type": "Feature", "properties": { "Layer": "EQP-EQUIPOS_-_SITUACION_PR", "PaperSpace": null, "SubClasses": null, "Linetype": null, "EntityHandle": "1C254270", "Text": "" }, "geometry": { "type": "Point", "coordinates": [ 0.0, 0.0, 0.0 ] } },
{ "type": "Feature", "properties": { "Layer": "EQP-EQUIPOS_-_SITUACION_PR", "PaperSpace": null, "SubClasses": null, "Linetype": null, "EntityHandle": "1C268935", "Text": "" }, "geometry": { "type": "Point", "coordinates": [ 0.0, 0.0, 0.0 ] } },
{ "type": "Feature", "properties": { "Layer": "EQP-EQUIPOS_-_SITUACION_PR", "PaperSpace": null, "SubClasses": null, "Linetype": null, "EntityHandle": "1C26893A", "Text": "" }, "geometry": { "type": "Point", "coordinates": [ 0.0, 0.0, 0.0 ] } },
{ "type": "Feature", "properties": { "Layer": "EQP-EQUIPOS_-_SITUACION_PR", "PaperSpace": null, "SubClasses": null, "Linetype": null, "EntityHandle": "1C268A7E", "Text": "" }, "geometry": { "type": "Point", "coordinates": [ 0.0, 0.0, 0.0 ] } },
{ "type": "Feature", "properties": { "Layer": "EQP-EQUIPOS_-_SITUACION_PR", "PaperSpace": null, "SubClasses": null, "Linetype": null, "EntityHandle": "1C268A83", "Text": "" }, "geometry": { "type": "Point", "coordinates": [ 0.0, 0.0, 0.0 ] } },
{ "type": "Feature", "properties": { "Layer": "EQP-EQUIPOS_-_SITUACION_PR", "PaperSpace": null, "SubClasses": null, "Linetype": null, "EntityHandle": "1C2693E1", "Text": "" }, "geometry": { "type": "Point", "coordinates": [ 0.0, 0.0, 0.0 ] } },
{ "type": "Feature", "properties": { "Layer": "EQP-EQUIPOS_-_SITUACION_PR", "PaperSpace": null, "SubClasses": null, "Linetype": null, "EntityHandle": "1C2693E6", "Text": "" }, "geometry": { "type": "Point", "coordinates": [ 0.0, 0.0, 0.0 ] } },
{ "type": "Feature", "properties": { "Layer": "EQP-EQUIPOS_-_SITUACION_PR", "PaperSpace": null, "SubClasses": null, "Linetype": null, "EntityHandle": "1C27279F", "Text": "" }, "geometry": { "type": "Point", "coordinates": [ 0.0, 0.0, 0.0 ] } },
{ "type": "Feature", "properties": { "Layer": "EQP-EQUIPOS_-_SITUACION_PR", "PaperSpace": null, "SubClasses": null, "Linetype": null, "EntityHandle": "1C2727A4", "Text": "" }, "geometry": { "type": "Point", "coordinates": [ 0.0, 0.0, 0.0 ] } },
{ "type": "Feature", "properties": { "Layer": "EQP-EQUIPOS_-_SITUACION_PR", "PaperSpace": null, "SubClasses": null, "Linetype": null, "EntityHandle": "1C2727AD", "Text": "" }, "geometry": { "type": "Point", "coordinates": [ 0.0, 0.0, 0.0 ] } },
{ "type": "Feature", "properties": { "Layer": "EQP-EQUIPOS_-_SITUACION_PR", "PaperSpace": null, "SubClasses": null, "Linetype": null, "EntityHandle": "1C2727B2", "Text": "" }, "geometry": { "type": "Point", "coordinates": [ 0.0, 0.0, 0.0 ] } },
{ "type": "Feature", "properties": { "Layer": "EQP-EQUIPOS_-_SITUACION_PR", "PaperSpace": null, "SubClasses": null, "Linetype": null, "EntityHandle": "1C277648", "Text": "" }, "geometry": { "type": "Point", "coordinates": [ 0.0, 0.0, 0.0 ] } },
{ "type": "Feature", "properties": { "Layer": "EQP-EQUIPOS_-_SITUACION_PR", "PaperSpace": null, "SubClasses": null, "Linetype": null, "EntityHandle": "1C27764D", "Text": "" }, "geometry": { "type": "Point", "coordinates": [ 0.0, 0.0, 0.0 ] } },
{ "type": "Feature", "properties": { "Layer": "EQP-EQUIPOS_-_SITUACION_PR", "PaperSpace": null, "SubClasses": null, "Linetype": null, "EntityHandle": "1C279278", "Text": "" }, "geometry": { "type": "Point", "coordinates": [ 0.0, 0.0, 0.0 ] } },
{ "type": "Feature", "properties": { "Layer": "EQP-EQUIPOS_-_SITUACION_PR", "PaperSpace": null, "SubClasses": null, "Linetype": null, "EntityHandle": "1C27927D", "Text": "" }, "geometry": { "type": "Point", "coordinates": [ 0.0, 0.0, 0.0 ] } },
{ "type": "Feature", "properties": { "Layer": "EQP-EQUIPOS_-_SITUACION_PR", "PaperSpace": null, "SubClasses": null, "Linetype": null, "EntityHandle": "1C27BFCE", "Text": "" }, "geometry": { "type": "Point", "coordinates": [ 0.0, 0.0, 0.0 ] } },
{ "type": "Feature", "properties": { "Layer": "EQP-EQUIPOS_-_SITUACION_PR", "PaperSpace": null, "SubClasses": null, "Linetype": null, "EntityHandle": "1C27BFD3", "Text": "" }, "geometry": { "type": "Point", "coordinates": [ 0.0, 0.0, 0.0 ] } },
{ "type": "Feature", "properties": { "Layer": "EQP-EQUIPOS_-_SITUACION_PR", "PaperSpace": null, "SubClasses": null, "Linetype": null, "EntityHandle": "1C27D723", "Text": "" }, "geometry": { "type": "Point", "coordinates": [ 0.0, 0.0, 0.0 ] } },
{ "type": "Feature", "properties": { "Layer": "EQP-EQUIPOS_-_SITUACION_PR", "PaperSpace": null, "SubClasses": null, "Linetype": null, "EntityHandle": "1C27D728", "Text": "" }, "geometry": { "type": "Point", "coordinates": [ 0.0, 0.0, 0.0 ] } },
{ "type": "Feature", "properties": { "Layer": "EQP-EQUIPOS_-_SITUACION_PR", "PaperSpace": null, "SubClasses": null, "Linetype": null, "EntityHandle": "1C27D731", "Text": "" }, "geometry": { "type": "Point", "coordinates": [ 0.0, 0.0, 0.0 ] } },
{ "type": "Feature", "properties": { "Layer": "EQP-EQUIPOS_-_SITUACION_PR", "PaperSpace": null, "SubClasses": null, "Linetype": null, "EntityHandle": "1C27D736", "Text": "" }, "geometry": { "type": "Point", "coordinates": [ 0.0, 0.0, 0.0 ] } },
{ "type": "Feature", "properties": { "Layer": "EQP-EQUIPOS_-_SITUACION_PR", "PaperSpace": null, "SubClasses": null, "Linetype": null, "EntityHandle": "1C27D75C", "Text": "" }, "geometry": { "type": "Point", "coordinates": [ 0.0, 0.0, 0.0 ] } },
{ "type": "Feature", "properties": { "Layer": "EQP-EQUIPOS_-_SITUACION_PR", "PaperSpace": null, "SubClasses": null, "Linetype": null, "EntityHandle": "1C27D761", "Text": "" }, "geometry": { "type": "Point", "coordinates": [ 0.0, 0.0, 0.0 ] } }
]
}
