{"type": "FeatureCollection", "features": [{"type": "Feature", "geometry": {"type": "LineString", "coordinates": [[0.2679, 74.0389], [1.1965, 74.0391]]}, "properties": {"Layer": "EQP-EQUIPOS_-_SITUACION_P3"}}, {"type": "Feature", "geometry": {"type": "LineString", "coordinates": [[1.1965, 74.0391], [1.1971, 73.7662]]}, "properties": {"Layer": "EQP-EQUIPOS_-_SITUACION_P3"}}, {"type": "Feature", "geometry": {"type": "LineString", "coordinates": [[1.1971, 73.7662], [0.1328, 73.766]]}, "properties": {"Layer": "EQP-EQUIPOS_-_SITUACION_P3"}}, {"type": "Feature", "geometry": {"type": "LineString", "coordinates": [[0.2555, 73.7683], [1.1928, 73.7685], [1.1928, 74.0378], [0.2554, 74.0376], [0.2555, 73.7683]]}, "properties": {"Layer": "EQP-EQUIPOS_-_SITUACION_P3"}}, {"type": "Feature", "geometry": {"type": "LineString", "coordinates": [[0.2631, 74.0406], [1.1917, 74.0408]]}, "properties": {"Layer": "EQP-EQUIPOS_-_SITUACION_P3"}}, {"type": "Feature", "geometry": {"type": "LineString", "coordinates": [[1.1917, 74.0408], [1.1923, 73.7679]]}, "properties": {"Layer": "EQP-EQUIPOS_-_SITUACION_P3"}}, {"type": "Feature", "geometry": {"type": "LineString", "coordinates": [[1.1923, 73.7679], [0.1281, 73.7677]]}, "properties": {"Layer": "EQP-EQUIPOS_-_SITUACION_P3"}}, {"type": "Feature", "geometry": {"type": "LineString", "coordinates": [[0.2507, 73.7701], [1.188, 73.7703], [1.188, 74.0395], [0.2506, 74.0394], [0.2507, 73.7701]]}, "properties": {"Layer": "EQP-EQUIPOS_-_SITUACION_P3"}}, {"type": "Feature", "geometry": {"type": "LineString", "coordinates": [[0.2631, 74.0406], [1.1917, 74.0408]]}, "properties": {"Layer": "EQP-EQUIPOS_-_SITUACION_P3"}}, {"type": "Feature", "geometry": {"type": "LineString", "coordinates": [[1.1917, 74.0408], [1.1923, 73.7679]]}, "properties": {"Layer": "EQP-EQUIPOS_-_SITUACION_P3"}}, {"type": "Feature", "geometry": {"type": "LineString", "coordinates": [[1.1923, 73.7679], [0.1281, 73.7677]]}, "properties": {"Layer": "EQP-EQUIPOS_-_SITUACION_P3"}}, {"type": "Feature", "geometry": {"type": "LineString", "coordinates": [[0.2507, 73.7701], [1.188, 73.7703], [1.188, 74.0395], [0.2506, 74.0394], [0.2507, 73.7701]]}, "properties": {"Layer": "EQP-EQUIPOS_-_SITUACION_P3"}}, {"type": "Feature", "geometry": {"type": "LineString", "coordinates": [[0.2631, 74.0406], [1.1917, 74.0408]]}, "properties": {"Layer": "EQP-EQUIPOS_-_SITUACION_P3"}}, {"type": "Feature", "geometry": {"type": "LineString", "coordinates": [[1.1917, 74.0408], [1.1923, 73.7679]]}, "properties": {"Layer": "EQP-EQUIPOS_-_SITUACION_P3"}}]}