{"type": "FeatureCollection", "features": [{"type": "Feature", "geometry": {"type": "LineString", "coordinates": [[-955330.8975, -96448.9122], [-955335.3547, -96448.9122]]}, "properties": {"Layer": "ESCALERAS", "block": "BATEA"}}, {"type": "Feature", "geometry": {"type": "LineString", "coordinates": [[-955330.8689, -96448.8826], [-955335.3833, -96448.8826]]}, "properties": {"Layer": "ESCALERAS", "block": "BATEA"}}, {"type": "Feature", "geometry": {"type": "LineString", "coordinates": [[-955335.3547, -96448.9122], [-955335.3547, -96449.7122]]}, "properties": {"Layer": "ESCALERAS", "block": "BATEA"}}, {"type": "Feature", "geometry": {"type": "LineString", "coordinates": [[-955335.3833, -96448.8826], [-955335.3833, -96449.7408]]}, "properties": {"Layer": "ESCALERAS", "block": "BATEA"}}, {"type": "Feature", "geometry": {"type": "LineString", "coordinates": [[-955330.8975, -96449.3914], [-955330.8975, -96448.9122]]}, "properties": {"Layer": "ESCALERAS", "block": "BATEA"}}, {"type": "Feature", "geometry": {"type": "LineString", "coordinates": [[-955330.8975, -96448.9122], [-955335.3547, -96448.9122]]}, "properties": {"Layer": "ESCALERAS", "block": "BATEA"}}, {"type": "Feature", "geometry": {"type": "LineString", "coordinates": [[-955335.3547, -96449.7122], [-955331.6475, -96449.7122]]}, "properties": {"Layer": "ESCALERAS", "block": "BATEA"}}, {"type": "Feature", "geometry": {"type": "LineString", "coordinates": [[-955330.8689, -96449.4172], [-955330.8689, -96448.8826]]}, "properties": {"Layer": "ESCALERAS", "block": "BATEA"}}, {"type": "Feature", "geometry": {"type": "LineString", "coordinates": [[-955331.6255, -96449.7408], [-955335.3833, -96449.7408]]}, "properties": {"Layer": "ESCALERAS", "block": "BATEA"}}, {"type": "Feature", "geometry": {"type": "LineString", "coordinates": [[-955330.8689, -96448.8826], [-955335.3833, -96448.8826]]}, "properties": {"Layer": "ESCALERAS", "block": "BATEA"}}, {"type": "Feature", "geometry": {"type": "LineString", "coordinates": [[-955331.6475, -96449.7122], [-955330.8975, -96449.3914]]}, "properties": {"Layer": "ESCALERAS", "block": "BATEA"}}, {"type": "Feature", "geometry": {"type": "LineString", "coordinates": [[-955331.6255, -96449.7408], [-955330.8689, -96449.4172]]}, "properties": {"Layer": "ESCALERAS", "block": "BATEA"}}, {"type": "Feature", "geometry": {"type": "LineString", "coordinates": [[-955370.1539, -96446.6528], [-955374.6112, -96446.6528]]}, "properties": {"Layer": "ESCALERAS", "block": "BATEA"}}, {"type": "Feature", "geometry": {"type": "LineString", "coordinates": [[-955370.1253, -96446.6233], [-955374.6398, -96446.6233]]}, "properties": {"Layer": "ESCALERAS", "block": "BATEA"}}, {"type": "Feature", "geometry": {"type": "LineString", "coordinates": [[-955374.6112, -96446.6528], [-955374.6112, -96447.4528]]}, "properties": {"Layer": "ESCALERAS", "block": "BATEA"}}, {"type": "Feature", "geometry": {"type": "LineString", "coordinates": [[-955374.6398, -96446.6233], [-955374.6398, -96447.4814]]}, "properties": {"Layer": "ESCALERAS", "block": "BATEA"}}, {"type": "Feature", "geometry": {"type": "LineString", "coordinates": [[-955370.1539, -96447.1321], [-955370.1539, -96446.6528]]}, "properties": {"Layer": "ESCALERAS", "block": "BATEA"}}, {"type": "Feature", "geometry": {"type": "LineString", "coordinates": [[-955370.1539, -96446.6528], [-955374.6112, -96446.6528]]}, "properties": {"Layer": "ESCALERAS", "block": "BATEA"}}, {"type": "Feature", "geometry": {"type": "LineString", "coordinates": [[-955374.6112, -96447.4528], [-955370.9039, -96447.4528]]}, "properties": {"Layer": "ESCALERAS", "block": "BATEA"}}, {"type": "Feature", "geometry": {"type": "LineString", "coordinates": [[-955370.1253, -96447.1579], [-955370.1253, -96446.6233]]}, "properties": {"Layer": "ESCALERAS", "block": "BATEA"}}, {"type": "Feature", "geometry": {"type": "LineString", "coordinates": [[-955370.882, -96447.4814], [-955374.6398, -96447.4814]]}, "properties": {"Layer": "ESCALERAS", "block": "BATEA"}}, {"type": "Feature", "geometry": {"type": "LineString", "coordinates": [[-955370.1253, -96446.6233], [-955374.6398, -96446.6233]]}, "properties": {"Layer": "ESCALERAS", "block": "BATEA"}}, {"type": "Feature", "geometry": {"type": "LineString", "coordinates": [[-955370.9039, -96447.4528], [-955370.1539, -96447.1321]]}, "properties": {"Layer": "ESCALERAS", "block": "BATEA"}}, {"type": "Feature", "geometry": {"type": "LineString", "coordinates": [[-955370.882, -96447.4814], [-955370.1253, -96447.1579]]}, "properties": {"Layer": "ESCALERAS", "block": "BATEA"}}, {"type": "Feature", "geometry": {"type": "LineString", "coordinates": [[-955333.8514, -96446.0808], [-955338.3086, -96446.0808]]}, "properties": {"Layer": "ESCALERAS", "block": "BATEA"}}, {"type": "Feature", "geometry": {"type": "LineString", "coordinates": [[-955333.8228, -96446.0512], [-955338.3372, -96446.0512]]}, "properties": {"Layer": "ESCALERAS", "block": "BATEA"}}, {"type": "Feature", "geometry": {"type": "LineString", "coordinates": [[-955338.3086, -96446.0808], [-955338.3086, -96446.8808]]}, "properties": {"Layer": "ESCALERAS", "block": "BATEA"}}, {"type": "Feature", "geometry": {"type": "LineString", "coordinates": [[-955338.3372, -96446.0512], [-955338.3372, -96446.9094]]}, "properties": {"Layer": "ESCALERAS", "block": "BATEA"}}, {"type": "Feature", "geometry": {"type": "LineString", "coordinates": [[-955333.8514, -96446.5601], [-955333.8514, -96446.0808]]}, "properties": {"Layer": "ESCALERAS", "block": "BATEA"}}, {"type": "Feature", "geometry": {"type": "LineString", "coordinates": [[-955333.8514, -96446.0808], [-955338.3086, -96446.0808]]}, "properties": {"Layer": "ESCALERAS", "block": "BATEA"}}, {"type": "Feature", "geometry": {"type": "LineString", "coordinates": [[-955338.3086, -96446.8808], [-955334.6014, -96446.8808]]}, "properties": {"Layer": "ESCALERAS", "block": "BATEA"}}, {"type": "Feature", "geometry": {"type": "LineString", "coordinates": [[-955333.8228, -96446.5858], [-955333.8228, -96446.0512]]}, "properties": {"Layer": "ESCALERAS", "block": "BATEA"}}, {"type": "Feature", "geometry": {"type": "LineString", "coordinates": [[-955334.5794, -96446.9094], [-955338.3372, -96446.9094]]}, "properties": {"Layer": "ESCALERAS", "block": "BATEA"}}, {"type": "Feature", "geometry": {"type": "LineString", "coordinates": [[-955333.8228, -96446.0512], [-955338.3372, -96446.0512]]}, "properties": {"Layer": "ESCALERAS", "block": "BATEA"}}, {"type": "Feature", "geometry": {"type": "LineString", "coordinates": [[-955334.6014, -96446.8808], [-955333.8514, -96446.5601]]}, "properties": {"Layer": "ESCALERAS", "block": "BATEA"}}, {"type": "Feature", "geometry": {"type": "LineString", "coordinates": [[-955334.5794, -96446.9094], [-955333.8228, -96446.5858]]}, "properties": {"Layer": "ESCALERAS", "block": "BATEA"}}, {"type": "Feature", "geometry": {"type": "LineString", "coordinates": [[-955333.8514, -96446.0808], [-955338.3086, -96446.0808]]}, "properties": {"Layer": "ESCALERAS", "block": "BATEA"}}, {"type": "Feature", "geometry": {"type": "LineString", "coordinates": [[-955333.8228, -96446.0512], [-955338.3372, -96446.0512]]}, "properties": {"Layer": "ESCALERAS", "block": "BATEA"}}, {"type": "Feature", "geometry": {"type": "LineString", "coordinates": [[-955338.3086, -96446.0808], [-955338.3086, -96446.8808]]}, "properties": {"Layer": "ESCALERAS", "block": "BATEA"}}, {"type": "Feature", "geometry": {"type": "LineString", "coordinates": [[-955338.3372, -96446.0512], [-955338.3372, -96446.9094]]}, "properties": {"Layer": "ESCALERAS", "block": "BATEA"}}, {"type": "Feature", "geometry": {"type": "LineString", "coordinates": [[-955333.8514, -96446.5601], [-955333.8514, -96446.0808]]}, "properties": {"Layer": "ESCALERAS", "block": "BATEA"}}, {"type": "Feature", "geometry": {"type": "LineString", "coordinates": [[-955333.8514, -96446.0808], [-955338.3086, -96446.0808]]}, "properties": {"Layer": "ESCALERAS", "block": "BATEA"}}, {"type": "Feature", "geometry": {"type": "LineString", "coordinates": [[-955338.3086, -96446.8808], [-955334.6014, -96446.8808]]}, "properties": {"Layer": "ESCALERAS", "block": "BATEA"}}, {"type": "Feature", "geometry": {"type": "LineString", "coordinates": [[-955333.8228, -96446.5858], [-955333.8228, -96446.0512]]}, "properties": {"Layer": "ESCALERAS", "block": "BATEA"}}, {"type": "Feature", "geometry": {"type": "LineString", "coordinates": [[-955334.5794, -96446.9094], [-955338.3372, -96446.9094]]}, "properties": {"Layer": "ESCALERAS", "block": "BATEA"}}, {"type": "Feature", "geometry": {"type": "LineString", "coordinates": [[-955333.8228, -96446.0512], [-955338.3372, -96446.0512]]}, "properties": {"Layer": "ESCALERAS", "block": "BATEA"}}, {"type": "Feature", "geometry": {"type": "LineString", "coordinates": [[-955334.6014, -96446.8808], [-955333.8514, -96446.5601]]}, "properties": {"Layer": "ESCALERAS", "block": "BATEA"}}, {"type": "Feature", "geometry": {"type": "LineString", "coordinates": [[-955334.5794, -96446.9094], [-955333.8228, -96446.5858]]}, "properties": {"Layer": "ESCALERAS", "block": "BATEA"}}]}