{"type": "FeatureCollection", "features": [{"type": "Feature", "geometry": {"type": "LineString", "coordinates": [[8.3099, 71.3427], [8.3099, 71.3507]]}, "properties": {"Layer": "P-EQUIPO_EXISTENTE"}}, {"type": "Feature", "geometry": {"type": "LineString", "coordinates": [[8.3019, 71.3427], [8.3019, 71.3507]]}, "properties": {"Layer": "P-EQUIPO_EXISTENTE"}}, {"type": "Feature", "geometry": {"type": "LineString", "coordinates": [[8.3043, 71.3427], [8.3043, 71.3507]]}, "properties": {"Layer": "P-EQUIPO_EXISTENTE"}}, {"type": "Feature", "geometry": {"type": "LineString", "coordinates": [[8.2995, 71.3427], [8.2995, 71.3507]]}, "properties": {"Layer": "P-EQUIPO_EXISTENTE"}}, {"type": "Feature", "geometry": {"type": "LineString", "coordinates": [[8.3099, 71.3507], [8.2458, 71.3507]]}, "properties": {"Layer": "P-EQUIPO_EXISTENTE"}}, {"type": "Feature", "geometry": {"type": "LineString", "coordinates": [[8.2562, 71.3507], [8.2562, 71.3427]]}, "properties": {"Layer": "P-EQUIPO_EXISTENTE"}}, {"type": "Feature", "geometry": {"type": "LineString", "coordinates": [[8.2778, 71.3547], [8.2899, 71.3547]]}, "properties": {"Layer": "P-EQUIPO_EXISTENTE"}}, {"type": "Feature", "geometry": {"type": "LineString", "coordinates": [[8.2899, 71.3547], [8.2658, 71.3547]]}, "properties": {"Layer": "P-EQUIPO_EXISTENTE"}}, {"type": "Feature", "geometry": {"type": "LineString", "coordinates": [[8.2931, 71.3531], [8.2626, 71.3531]]}, "properties": {"Layer": "P-EQUIPO_EXISTENTE"}}, {"type": "Feature", "geometry": {"type": "LineString", "coordinates": [[8.2658, 71.3547], [8.2658, 71.3531]]}, "properties": {"Layer": "P-EQUIPO_EXISTENTE"}}, {"type": "Feature", "geometry": {"type": "LineString", "coordinates": [[8.2899, 71.3547], [8.2899, 71.3531]]}, "properties": {"Layer": "P-EQUIPO_EXISTENTE"}}, {"type": "Feature", "geometry": {"type": "LineString", "coordinates": [[8.2626, 71.3531], [8.2626, 71.3507]]}, "properties": {"Layer": "P-EQUIPO_EXISTENTE"}}, {"type": "Feature", "geometry": {"type": "LineString", "coordinates": [[8.2931, 71.3531], [8.2931, 71.3507]]}, "properties": {"Layer": "P-EQUIPO_EXISTENTE"}}, {"type": "Feature", "geometry": {"type": "LineString", "coordinates": [[8.2578, 71.3531], [8.2578, 71.3507]]}, "properties": {"Layer": "P-EQUIPO_EXISTENTE"}}, {"type": "Feature", "geometry": {"type": "LineString", "coordinates": [[8.2575, 71.3527], [8.2575, 71.3507]]}, "properties": {"Layer": "P-EQUIPO_EXISTENTE"}}, {"type": "Feature", "geometry": {"type": "LineString", "coordinates": [[8.2543, 71.3531], [8.2575, 71.3531]]}, "properties": {"Layer": "P-EQUIPO_EXISTENTE"}}, {"type": "Feature", "geometry": {"type": "LineString", "coordinates": [[8.2575, 71.3531], [8.2578, 71.3531]]}, "properties": {"Layer": "P-EQUIPO_EXISTENTE"}}, {"type": "Feature", "geometry": {"type": "LineString", "coordinates": [[8.2575, 71.3527], [8.2572, 71.3528], [8.257, 71.3529], [8.2567, 71.353], [8.2564, 71.3531], [8.2561, 71.3531], [8.2559, 71.3531], [8.2556, 71.3531], [8.2553, 71.3531], [8.255, 71.353], [8.2548, 71.3529], [8.2545, 71.3528], [8.2543, 71.3527]]}, "properties": {"Layer": "P-EQUIPO_EXISTENTE"}}, {"type": "Feature", "geometry": {"type": "LineString", "coordinates": [[8.2578, 71.3531], [8.2578, 71.3531], [8.2577, 71.3531], [8.2577, 71.3531], [8.2576, 71.353], [8.2576, 71.353], [8.2576, 71.353], [8.2576, 71.3529], [8.2575, 71.3529], [8.2575, 71.3529], [8.2575, 71.3528], [8.2575, 71.3528], [8.2575, 71.3527]]}, "properties": {"Layer": "P-EQUIPO_EXISTENTE"}}, {"type": "Feature", "geometry": {"type": "LineString", "coordinates": [[8.2979, 71.3531], [8.2979, 71.3507]]}, "properties": {"Layer": "P-EQUIPO_EXISTENTE"}}, {"type": "Feature", "geometry": {"type": "LineString", "coordinates": [[8.3059, 71.3531], [8.3059, 71.3507]]}, "properties": {"Layer": "P-EQUIPO_EXISTENTE"}}, {"type": "Feature", "geometry": {"type": "LineString", "coordinates": [[8.299, 71.3527], [8.299, 71.3507]]}, "properties": {"Layer": "P-EQUIPO_EXISTENTE"}}, {"type": "Feature", "geometry": {"type": "LineString", "coordinates": [[8.3024, 71.3527], [8.3024, 71.3507]]}, "properties": {"Layer": "P-EQUIPO_EXISTENTE"}}, {"type": "Feature", "geometry": {"type": "LineString", "coordinates": [[8.3056, 71.3527], [8.3056, 71.3507]]}, "properties": {"Layer": "P-EQUIPO_EXISTENTE"}}, {"type": "Feature", "geometry": {"type": "LineString", "coordinates": [[8.2979, 71.3531], [8.299, 71.3531]]}, "properties": {"Layer": "P-EQUIPO_EXISTENTE"}}, {"type": "Feature", "geometry": {"type": "LineString", "coordinates": [[8.299, 71.3531], [8.3024, 71.3531]]}, "properties": {"Layer": "P-EQUIPO_EXISTENTE"}}, {"type": "Feature", "geometry": {"type": "LineString", "coordinates": [[8.3024, 71.3531], [8.3056, 71.3531]]}, "properties": {"Layer": "P-EQUIPO_EXISTENTE"}}, {"type": "Feature", "geometry": {"type": "LineString", "coordinates": [[8.3056, 71.3531], [8.3059, 71.3531]]}, "properties": {"Layer": "P-EQUIPO_EXISTENTE"}}, {"type": "Feature", "geometry": {"type": "LineString", "coordinates": [[8.3024, 71.3527], [8.3021, 71.3528], [8.3018, 71.3529], [8.3015, 71.353], [8.3013, 71.3531], [8.301, 71.3531], [8.3007, 71.3531], [8.3004, 71.3531], [8.3001, 71.3531], [8.2998, 71.353], [8.2995, 71.3529], [8.2993, 71.3528], [8.299, 71.3527]]}, "properties": {"Layer": "P-EQUIPO_EXISTENTE"}}, {"type": "Feature", "geometry": {"type": "LineString", "coordinates": [[8.3056, 71.3527], [8.3053, 71.3528], [8.3051, 71.3529], [8.3048, 71.353], [8.3045, 71.3531], [8.3042, 71.3531], [8.304, 71.3531], [8.3037, 71.3531], [8.3034, 71.3531], [8.3031, 71.353], [8.3029, 71.3529], [8.3026, 71.3528], [8.3024, 71.3527]]}, "properties": {"Layer": "P-EQUIPO_EXISTENTE"}}, {"type": "Feature", "geometry": {"type": "LineString", "coordinates": [[8.299, 71.3527], [8.2989, 71.3528], [8.2988, 71.3528], [8.2987, 71.3529], [8.2986, 71.3529], [8.2986, 71.353], [8.2985, 71.353], [8.2984, 71.353], [8.2983, 71.3531], [8.2982, 71.3531], [8.2981, 71.3531], [8.298, 71.3531], [8.2979, 71.3531]]}, "properties": {"Layer": "P-EQUIPO_EXISTENTE"}}, {"type": "Feature", "geometry": {"type": "LineString", "coordinates": [[8.3059, 71.3531], [8.3059, 71.3531], [8.3058, 71.3531], [8.3058, 71.3531], [8.3057, 71.353], [8.3057, 71.353], [8.3057, 71.353], [8.3057, 71.3529], [8.3056, 71.3529], [8.3056, 71.3529], [8.3056, 71.3528], [8.3056, 71.3528], [8.3056, 71.3527]]}, "properties": {"Layer": "P-EQUIPO_EXISTENTE"}}, {"type": "Feature", "geometry": {"type": "LineString", "coordinates": [[8.2562, 70.5666], [8.2562, 70.5585]]}, "properties": {"Layer": "P-EQUIPO_EXISTENTE"}}, {"type": "Feature", "geometry": {"type": "LineString", "coordinates": [[8.2458, 70.5585], [8.3099, 70.5585]]}, "properties": {"Layer": "P-EQUIPO_EXISTENTE"}}, {"type": "Feature", "geometry": {"type": "LineString", "coordinates": [[8.3099, 70.5585], [8.3099, 70.5666]]}, "properties": {"Layer": "P-EQUIPO_EXISTENTE"}}, {"type": "Feature", "geometry": {"type": "LineString", "coordinates": [[8.3019, 70.5585], [8.3019, 70.5666]]}, "properties": {"Layer": "P-EQUIPO_EXISTENTE"}}, {"type": "Feature", "geometry": {"type": "LineString", "coordinates": [[8.2995, 70.5585], [8.2995, 70.5666]]}, "properties": {"Layer": "P-EQUIPO_EXISTENTE"}}, {"type": "Feature", "geometry": {"type": "LineString", "coordinates": [[8.3043, 70.5585], [8.3043, 70.5666]]}, "properties": {"Layer": "P-EQUIPO_EXISTENTE"}}, {"type": "Feature", "geometry": {"type": "LineString", "coordinates": [[8.2778, 70.5545], [8.2658, 70.5545]]}, "properties": {"Layer": "P-EQUIPO_EXISTENTE"}}, {"type": "Feature", "geometry": {"type": "LineString", "coordinates": [[8.2658, 70.5545], [8.2899, 70.5545]]}, "properties": {"Layer": "P-EQUIPO_EXISTENTE"}}, {"type": "Feature", "geometry": {"type": "LineString", "coordinates": [[8.2626, 70.5561], [8.2931, 70.5561]]}, "properties": {"Layer": "P-EQUIPO_EXISTENTE"}}, {"type": "Feature", "geometry": {"type": "LineString", "coordinates": [[8.2899, 70.5545], [8.2899, 70.5561]]}, "properties": {"Layer": "P-EQUIPO_EXISTENTE"}}, {"type": "Feature", "geometry": {"type": "LineString", "coordinates": [[8.2658, 70.5545], [8.2658, 70.5561]]}, "properties": {"Layer": "P-EQUIPO_EXISTENTE"}}, {"type": "Feature", "geometry": {"type": "LineString", "coordinates": [[8.2931, 70.5561], [8.2931, 70.5585]]}, "properties": {"Layer": "P-EQUIPO_EXISTENTE"}}, {"type": "Feature", "geometry": {"type": "LineString", "coordinates": [[8.2626, 70.5561], [8.2626, 70.5585]]}, "properties": {"Layer": "P-EQUIPO_EXISTENTE"}}, {"type": "Feature", "geometry": {"type": "LineString", "coordinates": [[8.3059, 70.5561], [8.3059, 70.5585]]}, "properties": {"Layer": "P-EQUIPO_EXISTENTE"}}, {"type": "Feature", "geometry": {"type": "LineString", "coordinates": [[8.2979, 70.5561], [8.2979, 70.5585]]}, "properties": {"Layer": "P-EQUIPO_EXISTENTE"}}, {"type": "Feature", "geometry": {"type": "LineString", "coordinates": [[8.3048, 70.5565], [8.3048, 70.5585]]}, "properties": {"Layer": "P-EQUIPO_EXISTENTE"}}, {"type": "Feature", "geometry": {"type": "LineString", "coordinates": [[8.3014, 70.5565], [8.3014, 70.5585]]}, "properties": {"Layer": "P-EQUIPO_EXISTENTE"}}, {"type": "Feature", "geometry": {"type": "LineString", "coordinates": [[8.2982, 70.5565], [8.2982, 70.5585]]}, "properties": {"Layer": "P-EQUIPO_EXISTENTE"}}, {"type": "Feature", "geometry": {"type": "LineString", "coordinates": [[8.3059, 70.5561], [8.3048, 70.5561]]}, "properties": {"Layer": "P-EQUIPO_EXISTENTE"}}, {"type": "Feature", "geometry": {"type": "LineString", "coordinates": [[8.3048, 70.5561], [8.3014, 70.5561]]}, "properties": {"Layer": "P-EQUIPO_EXISTENTE"}}, {"type": "Feature", "geometry": {"type": "LineString", "coordinates": [[8.3014, 70.5561], [8.2982, 70.5561]]}, "properties": {"Layer": "P-EQUIPO_EXISTENTE"}}, {"type": "Feature", "geometry": {"type": "LineString", "coordinates": [[8.2982, 70.5561], [8.2979, 70.5561]]}, "properties": {"Layer": "P-EQUIPO_EXISTENTE"}}, {"type": "Feature", "geometry": {"type": "LineString", "coordinates": [[8.3014, 70.5565], [8.3017, 70.5564], [8.302, 70.5563], [8.3022, 70.5562], [8.3025, 70.5562], [8.3028, 70.5561], [8.3031, 70.5561], [8.3034, 70.5561], [8.3037, 70.5562], [8.304, 70.5562], [8.3042, 70.5563], [8.3045, 70.5564], [8.3048, 70.5565]]}, "properties": {"Layer": "P-EQUIPO_EXISTENTE"}}, {"type": "Feature", "geometry": {"type": "LineString", "coordinates": [[8.2982, 70.5565], [8.2985, 70.5564], [8.2987, 70.5563], [8.299, 70.5562], [8.2993, 70.5562], [8.2995, 70.5561], [8.2998, 70.5561], [8.3001, 70.5561], [8.3004, 70.5562], [8.3006, 70.5562], [8.3009, 70.5563], [8.3012, 70.5564], [8.3014, 70.5565]]}, "properties": {"Layer": "P-EQUIPO_EXISTENTE"}}, {"type": "Feature", "geometry": {"type": "LineString", "coordinates": [[8.3048, 70.5565], [8.3049, 70.5565], [8.305, 70.5564], [8.305, 70.5564], [8.3051, 70.5563], [8.3052, 70.5563], [8.3053, 70.5563], [8.3054, 70.5562], [8.3055, 70.5562], [8.3056, 70.5562], [8.3057, 70.5562], [8.3058, 70.5562], [8.3059, 70.5561]]}, "properties": {"Layer": "P-EQUIPO_EXISTENTE"}}, {"type": "Feature", "geometry": {"type": "LineString", "coordinates": [[8.2979, 70.5561], [8.2979, 70.5562], [8.298, 70.5562], [8.298, 70.5562], [8.298, 70.5562], [8.2981, 70.5563], [8.2981, 70.5563], [8.2981, 70.5563], [8.2982, 70.5564], [8.2982, 70.5564], [8.2982, 70.5565], [8.2982, 70.5565], [8.2982, 70.5565]]}, "properties": {"Layer": "P-EQUIPO_EXISTENTE"}}, {"type": "Feature", "geometry": {"type": "LineString", "coordinates": [[8.2578, 70.5561], [8.2578, 70.5585]]}, "properties": {"Layer": "P-EQUIPO_EXISTENTE"}}, {"type": "Feature", "geometry": {"type": "LineString", "coordinates": [[8.2567, 70.5565], [8.2567, 70.5585]]}, "properties": {"Layer": "P-EQUIPO_EXISTENTE"}}, {"type": "Feature", "geometry": {"type": "LineString", "coordinates": [[8.2578, 70.5561], [8.2567, 70.5561]]}, "properties": {"Layer": "P-EQUIPO_EXISTENTE"}}, {"type": "Feature", "geometry": {"type": "LineString", "coordinates": [[8.2567, 70.5561], [8.2533, 70.5561]]}, "properties": {"Layer": "P-EQUIPO_EXISTENTE"}}, {"type": "Feature", "geometry": {"type": "LineString", "coordinates": [[8.2533, 70.5565], [8.2536, 70.5564], [8.2539, 70.5563], [8.2541, 70.5562], [8.2544, 70.5562], [8.2547, 70.5561], [8.255, 70.5561], [8.2553, 70.5561], [8.2556, 70.5562], [8.2559, 70.5562], [8.2562, 70.5563], [8.2564, 70.5564], [8.2567, 70.5565]]}, "properties": {"Layer": "P-EQUIPO_EXISTENTE"}}, {"type": "Feature", "geometry": {"type": "LineString", "coordinates": [[8.2567, 70.5565], [8.2568, 70.5565], [8.2569, 70.5564], [8.2569, 70.5564], [8.257, 70.5563], [8.2571, 70.5563], [8.2572, 70.5563], [8.2573, 70.5562], [8.2574, 70.5562], [8.2575, 70.5562], [8.2576, 70.5562], [8.2577, 70.5562], [8.2578, 70.5561]]}, "properties": {"Layer": "P-EQUIPO_EXISTENTE"}}, {"type": "Feature", "geometry": {"type": "LineString", "coordinates": [[8.3279, 71.3126], [8.2277, 71.3126]]}, "properties": {"Layer": "P-EQUIPO_EXISTENTE"}}, {"type": "Feature", "geometry": {"type": "LineString", "coordinates": [[8.2778, 70.5966], [8.2277, 70.5966]]}, "properties": {"Layer": "P-EQUIPO_EXISTENTE"}}, {"type": "Feature", "geometry": {"type": "LineString", "coordinates": [[8.2778, 70.5966], [8.3279, 70.5966]]}, "properties": {"Layer": "P-EQUIPO_EXISTENTE"}}, {"type": "Feature", "geometry": {"type": "LineString", "coordinates": [[8.2658, 71.3277], [8.2658, 71.3126]]}, "properties": {"Layer": "P-EQUIPO_EXISTENTE"}}, {"type": "Feature", "geometry": {"type": "LineString", "coordinates": [[8.2899, 71.3277], [8.2899, 71.3126]]}, "properties": {"Layer": "P-EQUIPO_EXISTENTE"}}, {"type": "Feature", "geometry": {"type": "LineString", "coordinates": [[8.2658, 70.5816], [8.2658, 70.5966]]}, "properties": {"Layer": "P-EQUIPO_EXISTENTE"}}, {"type": "Feature", "geometry": {"type": "LineString", "coordinates": [[8.2899, 70.5816], [8.2899, 70.5966]]}, "properties": {"Layer": "P-EQUIPO_EXISTENTE"}}, {"type": "Feature", "geometry": {"type": "LineString", "coordinates": [[8.3279, 71.3126], [8.3279, 70.6066]]}, "properties": {"Layer": "P-EQUIPO_EXISTENTE"}}, {"type": "Feature", "geometry": {"type": "LineString", "coordinates": [[8.3279, 70.5966], [8.3279, 70.6066]]}, "properties": {"Layer": "P-EQUIPO_EXISTENTE"}}, {"type": "Feature", "geometry": {"type": "LineString", "coordinates": [[8.3099, 70.5666], [8.2277, 70.5666]]}, "properties": {"Layer": "P-EQUIPO_EXISTENTE"}}, {"type": "Feature", "geometry": {"type": "LineString", "coordinates": [[8.2277, 71.3277], [8.3279, 71.3277]]}, "properties": {"Layer": "P-EQUIPO_EXISTENTE"}}, {"type": "Feature", "geometry": {"type": "LineString", "coordinates": [[9.9512, 70.2137], [8.9292, 70.2137]]}, "properties": {"Layer": "P-EQUIPO_EXISTENTE"}}, {"type": "Feature", "geometry": {"type": "LineString", "coordinates": [[8.9292, 70.2137], [8.9292, 70.6145]]}, "properties": {"Layer": "P-EQUIPO_EXISTENTE"}}, {"type": "Feature", "geometry": {"type": "LineString", "coordinates": [[9.9112, 70.2434], [8.9693, 70.2434]]}, "properties": {"Layer": "P-EQUIPO_EXISTENTE"}}, {"type": "Feature", "geometry": {"type": "LineString", "coordinates": [[8.9693, 70.2434], [8.9693, 70.6145]]}, "properties": {"Layer": "P-EQUIPO_EXISTENTE"}}, {"type": "Feature", "geometry": {"type": "LineString", "coordinates": [[8.2277, 70.6145], [11.7749, 70.6546]]}, "properties": {"Layer": "P-EQUIPO_EXISTENTE"}}, {"type": "Feature", "geometry": {"type": "LineString", "coordinates": [[9.8009, 70.2935], [9.0795, 70.2935]]}, "properties": {"Layer": "P-EQUIPO_EXISTENTE"}}, {"type": "Feature", "geometry": {"type": "LineString", "coordinates": [[9.0494, 70.2434], [9.0494, 70.6145]]}, "properties": {"Layer": "P-EQUIPO_EXISTENTE"}}, {"type": "Feature", "geometry": {"type": "LineString", "coordinates": [[9.0795, 70.2434], [9.0795, 70.6145]]}, "properties": {"Layer": "P-EQUIPO_EXISTENTE"}}, {"type": "Feature", "geometry": {"type": "LineString", "coordinates": [[9.8009, 70.3236], [9.0795, 70.3236]]}, "properties": {"Layer": "P-EQUIPO_EXISTENTE"}}, {"type": "Feature", "geometry": {"type": "LineString", "coordinates": [[9.8009, 70.5343], [9.0795, 70.5343]]}, "properties": {"Layer": "P-EQUIPO_EXISTENTE"}}, {"type": "Feature", "geometry": {"type": "LineString", "coordinates": [[9.8009, 70.2434], [9.8009, 70.6145]]}, "properties": {"Layer": "P-EQUIPO_EXISTENTE"}}, {"type": "Feature", "geometry": {"type": "LineString", "coordinates": [[9.831, 70.2434], [9.831, 70.6145]]}, "properties": {"Layer": "P-EQUIPO_EXISTENTE"}}, {"type": "Feature", "geometry": {"type": "LineString", "coordinates": [[8.7287, 70.6145], [8.7287, 71.2959]]}, "properties": {"Layer": "P-EQUIPO_EXISTENTE"}}, {"type": "Feature", "geometry": {"type": "LineString", "coordinates": [[11.7749, 71.2357], [8.7287, 71.2558]]}, "properties": {"Layer": "P-EQUIPO_EXISTENTE"}}, {"type": "Feature", "geometry": {"type": "LineString", "coordinates": [[11.7749, 71.2959], [8.2277, 71.2959]]}, "properties": {"Layer": "P-EQUIPO_EXISTENTE"}}, {"type": "Feature", "geometry": {"type": "LineString", "coordinates": [[8.7488, 70.6145], [8.7488, 71.2959]]}, "properties": {"Layer": "P-EQUIPO_EXISTENTE"}}, {"type": "Feature", "geometry": {"type": "LineString", "coordinates": [[8.7287, 70.6546], [11.7749, 70.6546]]}, "properties": {"Layer": "P-EQUIPO_EXISTENTE"}}, {"type": "Feature", "geometry": {"type": "LineString", "coordinates": [[8.7287, 70.6546], [11.7749, 70.6546]]}, "properties": {"Layer": "P-EQUIPO_EXISTENTE"}}, {"type": "Feature", "geometry": {"type": "LineString", "coordinates": [[11.7749, 71.2357], [8.7287, 71.2357]]}, "properties": {"Layer": "P-EQUIPO_EXISTENTE"}}, {"type": "Feature", "geometry": {"type": "LineString", "coordinates": [[8.2277, 71.2357], [11.7749, 71.2357]]}, "properties": {"Layer": "P-EQUIPO_EXISTENTE"}}, {"type": "Feature", "geometry": {"type": "LineString", "coordinates": [[8.2277, 71.2558], [11.7749, 71.2357]]}, "properties": {"Layer": "P-EQUIPO_EXISTENTE"}}, {"type": "Feature", "geometry": {"type": "LineString", "coordinates": [[11.7749, 70.9251], [8.7287, 70.9251]]}, "properties": {"Layer": "P-EQUIPO_EXISTENTE"}}, {"type": "Feature", "geometry": {"type": "LineString", "coordinates": [[8.2277, 70.9251], [11.7749, 70.9251]]}, "properties": {"Layer": "P-EQUIPO_EXISTENTE"}}, {"type": "Feature", "geometry": {"type": "LineString", "coordinates": [[8.7287, 70.9451], [11.7749, 70.9451]]}, "properties": {"Layer": "P-EQUIPO_EXISTENTE"}}, {"type": "Feature", "geometry": {"type": "LineString", "coordinates": [[9.4903, 70.6145], [9.4903, 71.2959]]}, "properties": {"Layer": "P-EQUIPO_EXISTENTE"}}, {"type": "Feature", "geometry": {"type": "LineString", "coordinates": [[9.5103, 70.6145], [9.5103, 71.2959]]}, "properties": {"Layer": "P-EQUIPO_EXISTENTE"}}, {"type": "Feature", "geometry": {"type": "LineString", "coordinates": [[10.2518, 70.6145], [10.2518, 71.2959]]}, "properties": {"Layer": "P-EQUIPO_EXISTENTE"}}, {"type": "Feature", "geometry": {"type": "LineString", "coordinates": [[10.2719, 70.6145], [10.2719, 71.2959]]}, "properties": {"Layer": "P-EQUIPO_EXISTENTE"}}, {"type": "Feature", "geometry": {"type": "LineString", "coordinates": [[11.0133, 70.6145], [11.0133, 71.2959]]}, "properties": {"Layer": "P-EQUIPO_EXISTENTE"}}, {"type": "Feature", "geometry": {"type": "LineString", "coordinates": [[11.0334, 70.6145], [11.0334, 71.2959]]}, "properties": {"Layer": "P-EQUIPO_EXISTENTE"}}, {"type": "Feature", "geometry": {"type": "LineString", "coordinates": [[11.7749, 70.6145], [11.7749, 71.2959]]}, "properties": {"Layer": "P-EQUIPO_EXISTENTE"}}, {"type": "Feature", "geometry": {"type": "LineString", "coordinates": [[9.8009, 70.5644], [9.0795, 70.5644]]}, "properties": {"Layer": "P-EQUIPO_EXISTENTE"}}, {"type": "Feature", "geometry": {"type": "LineString", "coordinates": [[9.0494, 70.5644], [9.0494, 70.2938]]}, "properties": {"Layer": "P-EQUIPO_EXISTENTE"}}, {"type": "Feature", "geometry": {"type": "LineString", "coordinates": [[8.2277, 70.6546], [11.7749, 70.6546]]}, "properties": {"Layer": "P-EQUIPO_EXISTENTE"}}, {"type": "Feature", "geometry": {"type": "LineString", "coordinates": [[8.7287, 70.9451], [8.7287, 70.6546]]}, "properties": {"Layer": "P-EQUIPO_EXISTENTE"}}, {"type": "Feature", "geometry": {"type": "LineString", "coordinates": [[8.2277, 70.6746], [11.7749, 70.6546]]}, "properties": {"Layer": "P-EQUIPO_EXISTENTE"}}, {"type": "Feature", "geometry": {"type": "LineString", "coordinates": [[9.9112, 70.2434], [9.9112, 70.6145]]}, "properties": {"Layer": "P-EQUIPO_EXISTENTE"}}, {"type": "Feature", "geometry": {"type": "LineString", "coordinates": [[9.9512, 70.2137], [9.9512, 70.6145]]}, "properties": {"Layer": "P-EQUIPO_EXISTENTE"}}, {"type": "Feature", "geometry": {"type": "LineString", "coordinates": [[9.9512, 71.6967], [8.9292, 71.6967]]}, "properties": {"Layer": "P-EQUIPO_EXISTENTE"}}, {"type": "Feature", "geometry": {"type": "LineString", "coordinates": [[8.9292, 71.6967], [8.9292, 71.2959]]}, "properties": {"Layer": "P-EQUIPO_EXISTENTE"}}, {"type": "Feature", "geometry": {"type": "LineString", "coordinates": [[9.9112, 71.6669], [8.9693, 71.6669]]}, "properties": {"Layer": "P-EQUIPO_EXISTENTE"}}, {"type": "Feature", "geometry": {"type": "LineString", "coordinates": [[8.9693, 71.6669], [8.9693, 71.2959]]}, "properties": {"Layer": "P-EQUIPO_EXISTENTE"}}, {"type": "Feature", "geometry": {"type": "LineString", "coordinates": [[9.8009, 71.6168], [9.0795, 71.6168]]}, "properties": {"Layer": "P-EQUIPO_EXISTENTE"}}, {"type": "Feature", "geometry": {"type": "LineString", "coordinates": [[9.0494, 71.6669], [9.0494, 71.2959]]}, "properties": {"Layer": "P-EQUIPO_EXISTENTE"}}, {"type": "Feature", "geometry": {"type": "LineString", "coordinates": [[9.0795, 71.6669], [9.0795, 71.2959]]}, "properties": {"Layer": "P-EQUIPO_EXISTENTE"}}, {"type": "Feature", "geometry": {"type": "LineString", "coordinates": [[9.8009, 71.5867], [9.0795, 71.5867]]}, "properties": {"Layer": "P-EQUIPO_EXISTENTE"}}, {"type": "Feature", "geometry": {"type": "LineString", "coordinates": [[9.8009, 71.376], [9.0795, 71.376]]}, "properties": {"Layer": "P-EQUIPO_EXISTENTE"}}, {"type": "Feature", "geometry": {"type": "LineString", "coordinates": [[9.8009, 71.6669], [9.8009, 71.2959]]}, "properties": {"Layer": "P-EQUIPO_EXISTENTE"}}, {"type": "Feature", "geometry": {"type": "LineString", "coordinates": [[9.831, 71.6669], [9.831, 71.2959]]}, "properties": {"Layer": "P-EQUIPO_EXISTENTE"}}, {"type": "Feature", "geometry": {"type": "LineString", "coordinates": [[9.8009, 71.346], [9.0795, 71.346]]}, "properties": {"Layer": "P-EQUIPO_EXISTENTE"}}, {"type": "Feature", "geometry": {"type": "LineString", "coordinates": [[9.0494, 71.346], [9.0494, 71.6165]]}, "properties": {"Layer": "P-EQUIPO_EXISTENTE"}}, {"type": "Feature", "geometry": {"type": "LineString", "coordinates": [[9.9112, 71.6669], [9.9112, 71.2959]]}, "properties": {"Layer": "P-EQUIPO_EXISTENTE"}}, {"type": "Feature", "geometry": {"type": "LineString", "coordinates": [[9.9512, 71.6967], [9.9512, 71.2959]]}, "properties": {"Layer": "P-EQUIPO_EXISTENTE"}}, {"type": "Feature", "geometry": {"type": "LineString", "coordinates": [[9.831, 70.5644], [9.0494, 70.5644], [9.0494, 70.292], [9.831, 70.292], [9.831, 70.5644]]}, "properties": {"Layer": "P-EQUIPO_EXISTENTE"}}, {"type": "Feature", "geometry": {"type": "LineString", "coordinates": [[11.7749, 70.9552], [8.2277, 70.9378], [8.2277, 70.6573], [11.7749, 70.6546]]}, "properties": {"Layer": "P-EQUIPO_EXISTENTE"}}, {"type": "Feature", "geometry": {"type": "LineString", "coordinates": [[8.3279, 71.3277], [8.3279, 71.3427]]}, "properties": {"Layer": "P-EQUIPO_EXISTENTE"}}, {"type": "Feature", "geometry": {"type": "LineString", "coordinates": [[8.3279, 71.3427], [8.2277, 71.3427]]}, "properties": {"Layer": "P-EQUIPO_EXISTENTE"}}, {"type": "Feature", "geometry": {"type": "LineString", "coordinates": [[8.3099, 70.5666], [8.3279, 70.5666]]}, "properties": {"Layer": "P-EQUIPO_EXISTENTE"}}, {"type": "Feature", "geometry": {"type": "LineString", "coordinates": [[8.3279, 70.5666], [8.3279, 70.5816]]}, "properties": {"Layer": "P-EQUIPO_EXISTENTE"}}, {"type": "Feature", "geometry": {"type": "LineString", "coordinates": [[8.3279, 70.5816], [8.2277, 70.5816]]}, "properties": {"Layer": "P-EQUIPO_EXISTENTE"}}, {"type": "Feature", "geometry": {"type": "LineString", "coordinates": [[9.3481, 70.2928], [9.3477, 70.2911]]}, "properties": {"Layer": "P-EQUIPO_EXISTENTE"}}, {"type": "Feature", "geometry": {"type": "LineString", "coordinates": [[10.468, 70.6582], [10.4681, 70.6588]]}, "properties": {"Layer": "P-EQUIPO_EXISTENTE"}}, {"type": "Feature", "geometry": {"type": "LineString", "coordinates": [[10.4673, 70.6573], [10.468, 70.6582]]}, "properties": {"Layer": "P-EQUIPO_EXISTENTE"}}, {"type": "Feature", "geometry": {"type": "LineString", "coordinates": [[11.542, 71.2967], [11.5415, 71.2984]]}, "properties": {"Layer": "P-EQUIPO_EXISTENTE"}}]}