{"type": "FeatureCollection", "features": [{"type": "Feature", "geometry": {"type": "LineString", "coordinates": [[9.2629, 66.8818], [9.2619, 66.8813]]}, "properties": {"Layer": "P-EQUIPO_REUBICADO"}}, {"type": "Feature", "geometry": {"type": "LineString", "coordinates": [[10.4321, 66.8986], [10.4311, 66.8981]]}, "properties": {"Layer": "P-EQUIPO_REUBICADO"}}, {"type": "Feature", "geometry": {"type": "LineString", "coordinates": [[11.5956, 66.876], [11.5947, 66.8754]]}, "properties": {"Layer": "P-EQUIPO_REUBICADO"}}, {"type": "Feature", "geometry": {"type": "LineString", "coordinates": [[12.7649, 66.8928], [12.7639, 66.8922]]}, "properties": {"Layer": "P-EQUIPO_REUBICADO"}}, {"type": "Feature", "geometry": {"type": "LineString", "coordinates": [[13.8997, 66.9045], [13.8988, 66.9039]]}, "properties": {"Layer": "P-EQUIPO_REUBICADO"}}, {"type": "Feature", "geometry": {"type": "LineString", "coordinates": [[15.069, 66.9212], [15.068, 66.9207]]}, "properties": {"Layer": "P-EQUIPO_REUBICADO"}}, {"type": "Feature", "geometry": {"type": "LineString", "coordinates": [[16.2325, 66.8986], [16.2315, 66.8981]]}, "properties": {"Layer": "P-EQUIPO_REUBICADO"}}, {"type": "Feature", "geometry": {"type": "LineString", "coordinates": [[17.4017, 66.9154], [17.4008, 66.9149]]}, "properties": {"Layer": "P-EQUIPO_REUBICADO"}}, {"type": "Feature", "geometry": {"type": "LineString", "coordinates": [[18.557, 66.9348], [18.5561, 66.9342]]}, "properties": {"Layer": "P-EQUIPO_REUBICADO"}}, {"type": "Feature", "geometry": {"type": "LineString", "coordinates": [[19.7263, 66.9516], [19.7253, 66.951]]}, "properties": {"Layer": "P-EQUIPO_REUBICADO"}}, {"type": "Feature", "geometry": {"type": "LineString", "coordinates": [[20.8898, 66.9289], [20.8889, 66.9284]]}, "properties": {"Layer": "P-EQUIPO_REUBICADO"}}, {"type": "Feature", "geometry": {"type": "LineString", "coordinates": [[22.0591, 66.9457], [22.0581, 66.9452]]}, "properties": {"Layer": "P-EQUIPO_REUBICADO"}}, {"type": "Feature", "geometry": {"type": "LineString", "coordinates": [[23.1939, 66.9574], [23.1929, 66.9568]]}, "properties": {"Layer": "P-EQUIPO_REUBICADO"}}, {"type": "Feature", "geometry": {"type": "LineString", "coordinates": [[24.3631, 66.9742], [24.3622, 66.9736]]}, "properties": {"Layer": "P-EQUIPO_REUBICADO"}}, {"type": "Feature", "geometry": {"type": "LineString", "coordinates": [[25.5267, 66.9516], [25.5257, 66.951]]}, "properties": {"Layer": "P-EQUIPO_REUBICADO"}}, {"type": "Feature", "geometry": {"type": "LineString", "coordinates": [[26.6959, 66.9684], [26.695, 66.9678]]}, "properties": {"Layer": "P-EQUIPO_REUBICADO"}}, {"type": "Feature", "geometry": {"type": "LineString", "coordinates": [[8.1289, 66.8782], [8.1279, 66.8776]]}, "properties": {"Layer": "P-EQUIPO_REUBICADO"}}]}