{
"type": "FeatureCollection",
"name": "SELECT",
"features": [
{ "type": "Feature", "properties": { "Layer": "P-ESTRUCTURA_NUEVA", "PaperSpace": null, "SubClasses": null, "Linetype": null, "EntityHandle": "1C2170D9", "Text": null }, "geometry": { "type": "MultiLineString", "coordinates": [ [ [ 20457.638151361330529, 35026.918993656727253, -202.329780960769313 ], [ 19729.25098372688808, 35027.171663785891724, -202.329780960769313 ] ], [ [ 19729.25098372688808, 35027.171663785891724, -202.329780960769313 ], [ 19426.037075133823237, 36839.466806631840882, -202.329780960769313 ] ], [ [ 19426.037075133823237, 36839.466806631840882, -202.329780960769313 ], [ 19426.212540501295734, 37345.291228600202885, -202.329780960769313 ] ], [ [ 19426.212540501295734, 37345.291228600202885, -202.329780960769313 ], [ 20458.094361316758295, 37344.933279250559281, -202.329780960769313 ] ], [ [ 20458.094361316758295, 37344.933279250559281, -202.329780960769313 ], [ 20457.638151361330529, 35026.918993656727253, -202.329780960769313 ] ], [ [ 19429.072922950195789, 37342.428860987289227, -202.329780960769313 ], [ 20455.231993703840999, 37342.072896801662864, -202.329780960769313 ] ], [ [ 19428.89848150101534, 36839.556149013587856, -202.329780960769313 ], [ 19429.072922950195789, 37342.428860987289227, -202.329780960769313 ] ], [ [ 19528.18011844396824, 37243.252883069457312, -202.329780960769313 ], [ 19429.072922950195789, 37342.428860987289227, -202.329780960769313 ] ], [ [ 19731.074211314622517, 35030.03240670193918, -202.329780960769313 ], [ 19428.89848150101534, 36839.556149013587856, -202.329780960769313 ] ], [ [ 19528.035700180535059, 36826.929789370355138, -202.329780960769313 ], [ 19428.89848150101534, 36839.556149013587856, -202.329780960769313 ] ], [ [ 20454.777768912434112, 35029.781361269648187, -202.329780960769313 ], [ 19731.074211314622517, 35030.03240670193918, -202.329780960769313 ] ], [ [ 19788.350106056070217, 35129.154136910074158, -202.329780960769313 ], [ 19731.074211314622517, 35030.03240670193918, -202.329780960769313 ] ], [ [ 20356.056015786019998, 37242.965701307883137, -202.329780960769313 ], [ 20455.231993703840999, 37342.072896801662864, -202.329780960769313 ] ], [ [ 20455.231993703840999, 37342.072896801662864, -202.329780960769313 ], [ 20454.777768912434112, 35029.781361269648187, -202.329780960769313 ] ], [ [ 20355.670573418658023, 35128.957339187472826, -202.329780960769313 ], [ 20454.777768912434112, 35029.781361269648187, -202.329780960769313 ] ], [ [ 20355.670573418658023, 35128.957339187472826, -202.329780960769313 ], [ 19788.350106056070217, 35129.154136910074158, -202.329780960769313 ] ], [ [ 19788.350106056070217, 35129.154136910074158, -202.329780960769313 ], [ 19528.035700180535059, 36826.929789370355138, -202.329780960769313 ] ], [ [ 19528.035700180535059, 36826.929789370355138, -202.329780960769313 ], [ 19528.18011844396824, 37243.252883069457312, -202.329780960769313 ] ], [ [ 19528.18011844396824, 37243.252883069457312, -202.329780960769313 ], [ 20356.056015786019998, 37242.965701307883137, -202.329780960769313 ] ], [ [ 20356.056015786019998, 37242.965701307883137, -202.329780960769313 ], [ 20355.670573418658023, 35128.957339187472826, -202.329780960769313 ] ] ] } },
{ "type": "Feature", "properties": { "Layer": "P-ESTRUCTURA_NUEVA", "PaperSpace": null, "SubClasses": null, "Linetype": "CONTINUA", "EntityHandle": "1C263A8B", "Text": null }, "geometry": { "type": "MultiLineString", "coordinates": [ [ [ 20681.848832189905806, 41707.820516148822207, 0.000000000033093 ], [ 19352.168244651948044, 41707.820516149171453, 0.000000000033093 ] ], [ [ 20651.163895554440387, 41677.135579513480479, 0.000000000033093 ], [ 19382.853181287406187, 41677.135579513480479, 0.000000000033093 ] ], [ [ 20681.8488321902405, 41707.820516148822207, 0.000000000033093 ], [ 20681.848832189905806, 40429.281489669861912, 0.000000000033093 ] ], [ [ 20651.163895554440387, 41677.135579513480479, 0.000000000033093 ], [ 20651.163895554440387, 40429.281489669861912, 0.000000000033093 ] ], [ [ 20681.848832189905806, 40429.281489669861912, 0.000000000033093 ], [ 19352.168244651948044, 40429.281489669861912, 0.000000000033093 ] ], [ [ 19352.168244651948044, 40429.281489669861912, 0.000000000033093 ], [ 19352.168244651948044, 41707.820516149171453, 0.000000000033093 ] ], [ [ 19382.853181287406187, 40429.281489669861912, 0.000000000033093 ], [ 19382.853181287406187, 41677.135579513480479, 0.000000000033093 ] ], [ [ 20008.005017885159759, 39778.39181096356333, 0.000000000032638 ], [ 20008.005017885159759, 40427.738752613957331, 0.000000000032196 ] ], [ [ 19488.440000691276509, 39778.39181096356333, 0.000000000032031 ], [ 19488.440000691276509, 40427.738752613957331, 0.000000000032196 ] ], [ [ 20053.939214804937365, 39778.39181096356333, 0.000000000032692 ], [ 20008.005017885159759, 40427.738752613957331, 0.000000000032196 ] ], [ [ 19435.834214041926316, 39778.275247723817301, 0.00000000003197 ], [ 19488.440000691276509, 40427.738752613957331, 0.000000000032196 ] ], [ [ 19435.843655528438831, 39778.39181096356333, 0.000000000033093 ], [ 20053.939214804937365, 39778.39181096356333, 0.000000000033093 ] ] ] } },
{ "type": "Feature", "properties": { "Layer": "P-ESTRUCTURA_NUEVA", "PaperSpace": null, "SubClasses": null, "Linetype": null, "EntityHandle": "1C264FBF", "Text": null }, "geometry": { "type": "LineString", "coordinates": [ [ 18386.344102167600795, 42233.926343086772249, 0.0 ], [ 18466.344102167600795, 42233.926343086772249, 0.0 ], [ 18466.344102167600795, 39645.605389870157524, 0.0 ], [ 18386.344102167600795, 39645.605389870157524, 0.0 ], [ 18386.344102167600795, 42233.926343086772249, 0.0 ] ] } },
{ "type": "Feature", "properties": { "Layer": "P-ESTRUCTURA_NUEVA", "PaperSpace": null, "SubClasses": null, "Linetype": "CONTINUA", "EntityHandle": "1C265FEF", "Text": null }, "geometry": { "type": "MultiLineString", "coordinates": [ [ [ 16446.871457797693438, 28882.097938570754195, 0.0 ], [ 16446.871459019366739, 29517.530898096138117, 0.0 ] ], [ [ 16362.830325784956585, 28841.102263762699295, 0.0 ], [ 16362.830325907285442, 28832.903128312354966, 0.0 ] ], [ [ 16371.029460380215824, 28841.102263762699295, 0.0 ], [ 16371.029460013576681, 28832.903128312354966, 0.0 ] ], [ [ 16368.569720282535854, 28841.102263762699295, 0.0 ], [ 16368.569720282535854, 28832.903128312354966, 0.0 ] ], [ [ 16373.489201577125641, 28841.102262785287166, 0.0 ], [ 16373.489201210715692, 28832.903128312354966, 0.0 ] ], [ [ 16362.830325907285442, 28832.903128312354966, 0.0 ], [ 16428.423405111436296, 28832.903127334931924, 0.0 ] ], [ [ 16428.423405111436296, 28832.903127334931924, 0.0 ], [ 16428.423404622706585, 28841.102263762699295, 0.0 ] ], [ [ 16420.224270027556486, 28832.903127334931924, 0.0 ], [ 16420.224270394195628, 28841.102264740104147, 0.0 ] ], [ [ 16417.764529319265421, 28832.903128312354966, 0.0 ], [ 16417.76452968567537, 28841.102263762699295, 0.0 ] ], [ [ 16422.684010369557654, 28832.903128312354966, 0.0 ], [ 16422.68401073595669, 28841.102263762699295, 0.0 ] ], [ [ 16395.626865631515102, 28828.803561320248264, 0.0 ], [ 16383.328162944755604, 28828.803561320248264, 0.0 ] ], [ [ 16383.328162944755604, 28828.803561320248264, 0.0 ], [ 16407.925567707326991, 28828.803561320248264, 0.0 ] ], [ [ 16380.048509522106542, 28830.443387237432034, 0.0 ], [ 16411.205221985346725, 28830.443387237432034, 0.0 ] ], [ [ 16407.925567707326991, 28828.803561320248264, 0.0 ], [ 16407.925567463018524, 28830.443388214836887, 0.0 ] ], [ [ 16383.328162944755604, 28828.803561320248264, 0.0 ], [ 16383.328163066855268, 28830.443387237432034, 0.0 ] ], [ [ 16411.205221985346725, 28830.443387237432034, 0.0 ], [ 16411.205221985346725, 28832.903128312354966, 0.0 ] ], [ [ 16380.048509522106542, 28830.443387237432034, 0.0 ], [ 16380.048508911166209, 28832.903128312354966, 0.0 ] ], [ [ 16424.323837508563884, 28830.443387237432034, 0.0 ], [ 16424.323837630665366, 28832.903128312354966, 0.0 ] ], [ [ 16416.124702424684074, 28830.443388214836887, 0.0 ], [ 16416.124703035635321, 28832.903127334931924, 0.0 ] ], [ [ 16423.185651614276139, 28830.853344083217962, 0.0 ], [ 16423.185651125535514, 28832.903127334931924, 0.0 ] ], [ [ 16419.74271388816851, 28830.853344083217962, 0.0 ], [ 16419.742713643856405, 28832.903128312354966, 0.0 ] ], [ [ 16416.460532630935631, 28830.853345060641004, 0.0 ], [ 16416.460533119665342, 28832.903127334931924, 0.0 ] ], [ [ 16424.323837508563884, 28830.443387237432034, 0.0 ], [ 16423.185651614276139, 28830.443388214836887, 0.0 ] ], [ [ 16423.185651614276139, 28830.443388214836887, 0.0 ], [ 16419.742714010375494, 28830.443388214836887, 0.0 ] ], [ [ 16419.742714010375494, 28830.443388214836887, 0.0 ], [ 16416.460532630935631, 28830.443388214836887, 0.0 ] ], [ [ 16416.460532630935631, 28830.443388214836887, 0.0 ], [ 16416.124702424684074, 28830.443388214836887, 0.0 ] ], [ [ 16423.185650943632936, 28830.8533450167306, 0.0 ], [ 16422.954245981716667, 28830.746045005776978, 0.0 ], [ 16422.716195098062599, 28830.654429911272018, 0.0 ], [ 16422.47256003756047, 28830.578908351140853, 0.0 ], [ 16422.224427451423253, 28830.519817163582047, 0.0 ], [ 16421.972904050540819, 28830.477419904716953, 0.0 ], [ 16421.719111669379345, 28830.451905673071451, 0.0 ], [ 16421.464182262425311, 28830.443388266194233, 0.0 ], [ 16421.209252855471277, 28830.451905673071451, 0.0 ], [ 16420.955460474309803, 28830.477419904716953, 0.0 ], [ 16420.703937073427369, 28830.519817163582047, 0.0 ], [ 16420.455804487290152, 28830.578908351140853, 0.0 ], [ 16420.212169426788023, 28830.654429911272018, 0.0 ], [ 16419.974118543133955, 28830.746045005776978, 0.0 ], [ 16419.742713581217686, 28830.8533450167306, 0.0 ] ], [ [ 16419.742714451691427, 28830.853345156196156, 0.0 ], [ 16419.53831890782385, 28830.752851574077795, 0.0 ], [ 16419.327803219566704, 28830.66590536428339, 0.0 ], [ 16419.112064157707209, 28830.592876906906895, 0.0 ], [ 16418.892020743951434, 28830.534077294138115, 0.0 ], [ 16418.668610336011625, 28830.489757005056163, 0.0 ], [ 16418.442784634586133, 28830.46010483860664, 0.0 ], [ 16418.21550562921766, 28830.445247109350021, 0.0 ], [ 16417.987741500346601, 28830.445247109375487, 0.0 ], [ 16417.760462494981766, 28830.460104838675761, 0.0 ], [ 16417.53463679356355, 28830.489757005172578, 0.0 ], [ 16417.311226385631016, 28830.534077294301824, 0.0 ], [ 16417.091182971886155, 28830.592876907110622, 0.0 ], [ 16416.875443910037575, 28830.66590536453441, 0.0 ], [ 16416.664928221798618, 28830.752851574372471, 0.0 ], [ 16416.46053267795287, 28830.85334515653085, 0.0 ] ], [ [ 16424.32383729187859, 28830.443388007810427, 0.0 ], [ 16424.150940482861188, 28830.467119589404319, 0.0 ], [ 16423.980118759773177, 28830.502846798306564, 0.0 ], [ 16423.812203339744883, 28830.550395786205627, 0.0 ], [ 16423.648011297849735, 28830.609535180112289, 0.0 ], [ 16423.48834159123362, 28830.67997720821586, 0.0 ], [ 16423.333971171399753, 28830.761379100171325, 0.0 ], [ 16423.185651203566522, 28830.853344755036233, 0.0 ] ], [ [ 16416.460532731460262, 28830.853343945105735, 0.0 ], [ 16416.452822508981626, 28830.817257383227115, 0.0 ], [ 16416.442678946514206, 28830.781777873373358, 0.0 ], [ 16416.430148897336039, 28830.747069295954134, 0.0 ], [ 16416.415290237935551, 28830.713291970423597, 0.0 ], [ 16416.398171600692876, 28830.680601914784347, 0.0 ], [ 16416.378872056862747, 28830.649150124900189, 0.0 ], [ 16416.357480751332332, 28830.619081877084682, 0.0 ], [ 16416.334096490878437, 28830.590536057043209, 0.0 ], [ 16416.308827287764871, 28830.563644518355432, 0.0 ], [ 16416.281789860830031, 28830.538531473466719, 0.0 ], [ 16416.25310909637119, 28830.515312919913413, 0.0 ], [ 16416.222917471288383, 28830.494096104557684, 0.0 ], [ 16416.191354441165458, 28830.474979028203961, 0.0 ], [ 16416.158565796125913, 28830.458049992921588, 0.0 ], [ 16416.124702987439377, 28830.44338719418738, 0.0 ] ], [ [ 16375.129027983095511, 28830.443388214836887, 0.0 ], [ 16375.129027616456369, 28832.903128312354966, 0.0 ] ], [ [ 16366.92989289932666, 28830.443389192249015, 0.0 ], [ 16366.929892288375413, 28832.903127334931924, 0.0 ] ], [ [ 16373.990841966695371, 28830.853345060641004, 0.0 ], [ 16373.990840989346907, 28832.903128312354966, 0.0 ] ], [ [ 16370.547904362685586, 28830.853345060641004, 0.0 ], [ 16370.547904973636832, 28832.903128312354966, 0.0 ] ], [ [ 16367.265722494747024, 28830.853345060641004, 0.0 ], [ 16367.265722983365777, 28832.903127334931924, 0.0 ] ], [ [ 16375.129027983095511, 28830.443388214836887, 0.0 ], [ 16373.990842088796853, 28830.443387237432034, 0.0 ] ], [ [ 16373.990842088796853, 28830.443387237432034, 0.0 ], [ 16370.547903874075928, 28830.443388214836887, 0.0 ] ], [ [ 16370.547903874075928, 28830.443388214836887, 0.0 ], [ 16367.265722616955827, 28830.443388214836887, 0.0 ] ], [ [ 16367.265722616955827, 28830.443388214836887, 0.0 ], [ 16366.92989289932666, 28830.443389192249015, 0.0 ] ], [ [ 16373.990841296063081, 28830.853344039383956, 0.0 ], [ 16373.759436334146812, 28830.746044028430333, 0.0 ], [ 16373.521385450490925, 28830.654428933925374, 0.0 ], [ 16373.277750389988796, 28830.578907373794209, 0.0 ], [ 16373.029617803851579, 28830.519816186235403, 0.0 ], [ 16372.778094402969145, 28830.477418927366671, 0.0 ], [ 16372.524302021811309, 28830.451904695724807, 0.0 ], [ 16372.269372614855456, 28830.443387288847589, 0.0 ], [ 16372.014443207899603, 28830.451904695724807, 0.0 ], [ 16371.760650826741767, 28830.477418927366671, 0.0 ], [ 16371.509127425859333, 28830.519816186235403, 0.0 ], [ 16371.260994839722116, 28830.578907373794209, 0.0 ], [ 16371.017359779219987, 28830.654428933925374, 0.0 ], [ 16370.7793088955641, 28830.746044028430333, 0.0 ], [ 16370.547903933647831, 28830.853344039383956, 0.0 ] ], [ [ 16370.547904315390042, 28830.853345156196156, 0.0 ], [ 16370.343508771522465, 28830.752851574077795, 0.0 ], [ 16370.132993083267138, 28830.66590536428339, 0.0 ], [ 16369.917254021405824, 28830.592876906906895, 0.0 ], [ 16369.697210607648231, 28830.534077294138115, 0.0 ], [ 16369.473800199708421, 28830.489757005056163, 0.0 ], [ 16369.247974498282929, 28830.46010483860664, 0.0 ], [ 16369.020695492914456, 28830.445247109350021, 0.0 ], [ 16368.792931364045216, 28830.445247109375487, 0.0 ], [ 16368.565652358680381, 28830.460104838675761, 0.0 ], [ 16368.339826657260346, 28830.489757005172578, 0.0 ], [ 16368.116416249329632, 28830.534077294301824, 0.0 ], [ 16367.896372835584771, 28830.592876907110622, 0.0 ], [ 16367.680633773738009, 28830.66590536453441, 0.0 ], [ 16367.470118085499053, 28830.752851574372471, 0.0 ], [ 16367.265722541651485, 28830.85334515653085, 0.0 ] ], [ [ 16375.12902752208538, 28830.443388985222555, 0.0 ], [ 16374.956130713067978, 28830.46712056681281, 0.0 ], [ 16374.785308989981786, 28830.502847775715054, 0.0 ], [ 16374.617393569953492, 28830.550396763614117, 0.0 ], [ 16374.453201528058344, 28830.609536157520779, 0.0 ], [ 16374.29353182144223, 28830.67997818562435, 0.0 ], [ 16374.139161401608362, 28830.761380077579815, 0.0 ], [ 16373.990841433773312, 28830.853345732444723, 0.0 ] ], [ [ 16367.265722717369499, 28830.853344922514225, 0.0 ], [ 16367.258012494889044, 28830.817258360635606, 0.0 ], [ 16367.247868932423444, 28830.781778850781848, 0.0 ], [ 16367.235338883243458, 28830.747070273358986, 0.0 ], [ 16367.220480223844788, 28830.713292947832088, 0.0 ], [ 16367.203361586602114, 28830.680602892192837, 0.0 ], [ 16367.184062042770165, 28830.649151102308679, 0.0 ], [ 16367.162670737241569, 28830.619082854493172, 0.0 ], [ 16367.139286476787674, 28830.5905370344517, 0.0 ], [ 16367.114017273672289, 28830.563645495763922, 0.0 ], [ 16367.086979846739268, 28830.538532450871571, 0.0 ], [ 16367.058299082280428, 28830.515313897321903, 0.0 ], [ 16367.028107457197621, 28830.494097081966174, 0.0 ], [ 16366.996544427074696, 28830.474980005612451, 0.0 ], [ 16366.963755782036969, 28830.458050970330078, 0.0 ], [ 16366.929892973348615, 28830.443388171595871, 0.0 ] ], [ [ 16428.423404011755338, 29634.968568519787368, 0.0 ], [ 16428.423404867135105, 29643.167701037957158, 0.0 ] ], [ [ 16420.224269905455003, 29634.968566565024958, 0.0 ], [ 16420.224270272097783, 29643.167702015311079, 0.0 ] ], [ [ 16422.68401073595669, 29634.968567542437086, 0.0 ], [ 16422.68401012524555, 29643.167702015311079, 0.0 ] ], [ [ 16417.764529563588439, 29634.968568519787368, 0.0 ], [ 16417.764528952633555, 29643.167701037957158, 0.0 ] ], [ [ 16428.423404867135105, 29643.167701037957158, 0.0 ], [ 16362.83032517423635, 29643.167701037957158, 0.0 ] ], [ [ 16362.83032517423635, 29643.167701037957158, 0.0 ], [ 16362.830324685506639, 29634.968567542437086, 0.0 ] ], [ [ 16371.029460257886967, 29643.167702015311079, 0.0 ], [ 16371.029460380215824, 29634.968566565024958, 0.0 ] ], [ [ 16373.489200966405406, 29643.167702015311079, 0.0 ], [ 16373.489200599766264, 29634.968567542437086, 0.0 ] ], [ [ 16368.569719549486763, 29643.167702015311079, 0.0 ], [ 16368.569719183076813, 29634.968568519787368, 0.0 ] ], [ [ 16395.62686526487596, 29647.267269984888117, 0.0 ], [ 16407.925567340917041, 29647.267269984888117, 0.0 ] ], [ [ 16407.925567340917041, 29647.267269984888117, 0.0 ], [ 16383.328162578125557, 29647.267269984888117, 0.0 ] ], [ [ 16411.205221863026964, 29645.627444067718898, 0.0 ], [ 16380.048509277685298, 29645.627444067718898, 0.0 ] ], [ [ 16383.328162578125557, 29647.267269984888117, 0.0 ], [ 16383.328162333815271, 29645.62744309023401, 0.0 ] ], [ [ 16407.925567340917041, 29647.267269984888117, 0.0 ], [ 16407.925567218706419, 29645.627444067718898, 0.0 ] ], [ [ 16380.048509277685298, 29645.627444067718898, 0.0 ], [ 16380.048508178115299, 29643.167702992734121, 0.0 ] ], [ [ 16411.205221863026964, 29645.627444067718898, 0.0 ], [ 16411.205220885665767, 29643.167702015311079, 0.0 ] ], [ [ 16366.929892166286663, 29645.627444067718898, 0.0 ], [ 16366.929892532805752, 29643.167702992734121, 0.0 ] ], [ [ 16375.129027860995848, 29645.627444067718898, 0.0 ], [ 16375.129027738787045, 29643.167702015311079, 0.0 ] ], [ [ 16368.068078671405601, 29645.217486733174155, 0.0 ], [ 16368.068079160146226, 29643.167702992734121, 0.0 ] ], [ [ 16371.511016397516869, 29645.217486733174155, 0.0 ], [ 16371.511016275186194, 29643.167702015311079, 0.0 ] ], [ [ 16374.793198143246627, 29645.217485755762027, 0.0 ], [ 16374.793198021156059, 29643.167701037957158, 0.0 ] ], [ [ 16366.929892166286663, 29645.627444067718898, 0.0 ], [ 16368.068079160146226, 29645.627444067718898, 0.0 ] ], [ [ 16368.068079160146226, 29645.627444067718898, 0.0 ], [ 16371.511016275186194, 29645.627444067718898, 0.0 ] ], [ [ 16371.511016275186194, 29645.627444067718898, 0.0 ], [ 16374.793198143246627, 29645.627444067718898, 0.0 ] ], [ [ 16374.793198143246627, 29645.627444067718898, 0.0 ], [ 16375.129027860995848, 29645.627444067718898, 0.0 ] ], [ [ 16368.068078853157203, 29645.21748531101548, 0.0 ], [ 16368.299483815078929, 29645.32478532197274, 0.0 ], [ 16368.537534698740274, 29645.416400416481338, 0.0 ], [ 16368.781169759247859, 29645.49192197661614, 0.0 ], [ 16369.029302345392352, 29645.551013164171309, 0.0 ], [ 16369.280825746280243, 29645.593410423040041, 0.0 ], [ 16369.534618127445356, 29645.618924654685543, 0.0 ], [ 16369.789547534406665, 29645.627442061562761, 0.0 ], [ 16370.044476941367975, 29645.618924654685543, 0.0 ], [ 16370.298269322533088, 29645.593410423040041, 0.0 ], [ 16370.549792723420978, 29645.551013164171309, 0.0 ], [ 16370.797925309565471, 29645.49192197661614, 0.0 ], [ 16371.041560370073057, 29645.416400416481338, 0.0 ], [ 16371.279611253734402, 29645.32478532197274, 0.0 ], [ 16371.511016215656127, 29645.21748531101548, 0.0 ] ], [ [ 16371.511016322712749, 29645.217485171488079, 0.0 ], [ 16371.715411866582144, 29645.31797875360644, 0.0 ], [ 16371.925927554839291, 29645.404924963400845, 0.0 ], [ 16372.141666616700604, 29645.477953420777339, 0.0 ], [ 16372.361710030460017, 29645.536753033542482, 0.0 ], [ 16372.585120438399827, 29645.581073322628072, 0.0 ], [ 16372.810946139827138, 29645.610725489077595, 0.0 ], [ 16373.03822514519743, 29645.625583218334214, 0.0 ], [ 16373.265989274066669, 29645.625583218308748, 0.0 ], [ 16373.493268279433323, 29645.610725489008473, 0.0 ], [ 16373.719093980855178, 29645.581073322511656, 0.0 ], [ 16373.942504388785892, 29645.536753033382411, 0.0 ], [ 16374.162547802532572, 29645.477953420569975, 0.0 ], [ 16374.378286864381153, 29645.404924963149824, 0.0 ], [ 16374.588802552620109, 29645.317978753311763, 0.0 ], [ 16374.793198096467677, 29645.217485171153385, 0.0 ] ], [ [ 16366.929892138545256, 29645.627442319855618, 0.0 ], [ 16367.102788947562658, 29645.603710738261725, 0.0 ], [ 16367.27361067064885, 29645.567983529359481, 0.0 ], [ 16367.441526090677144, 29645.520434541460418, 0.0 ], [ 16367.605718132572292, 29645.461295147553756, 0.0 ], [ 16367.765387839188406, 29645.390853119450185, 0.0 ], [ 16367.919758259022274, 29645.309451227494719, 0.0 ], [ 16368.068078226857324, 29645.217485572629812, 0.0 ] ], [ [ 16374.793197554221479, 29645.217486871246365, 0.0 ], [ 16374.800907776701933, 29645.253573433124984, 0.0 ], [ 16374.811051339167534, 29645.289052942978742, 0.0 ], [ 16374.82358138834752, 29645.323761520397966, 0.0 ], [ 16374.83844004774619, 29645.357538845924864, 0.0 ], [ 16374.855558684988864, 29645.390228901567752, 0.0 ], [ 16374.874858228820813, 29645.421680691448273, 0.0 ], [ 16374.896249534349408, 29645.45174893926378, 0.0 ], [ 16374.919633794803303, 29645.48029475930889, 0.0 ], [ 16374.944902997918689, 29645.50718629799303, 0.0 ], [ 16374.971940424851709, 29645.532299342885381, 0.0 ], [ 16375.00062118931055, 29645.555517896438687, 0.0 ], [ 16375.030812814393357, 29645.576734711790778, 0.0 ], [ 16375.062375844516282, 29645.5958517881445, 0.0 ], [ 16375.095164489554008, 29645.612780823426874, 0.0 ], [ 16375.129027298242363, 29645.627443622161081, 0.0 ] ], [ [ 16416.124702791206801, 29645.627444067718898, 0.0 ], [ 16416.124702668996179, 29643.167702015311079, 0.0 ] ], [ [ 16424.323837264135364, 29645.627444067718898, 0.0 ], [ 16424.323837386236846, 29643.167701037957158, 0.0 ] ], [ [ 16417.262888807596028, 29645.217485755762027, 0.0 ], [ 16417.262888685385406, 29643.167702015311079, 0.0 ] ], [ [ 16420.705826289398829, 29645.217485755762027, 0.0 ], [ 16420.705825311808439, 29643.167702015311079, 0.0 ] ], [ [ 16423.988007790816482, 29645.217485755762027, 0.0 ], [ 16423.988007790816482, 29643.167702015311079, 0.0 ] ], [ [ 16416.124702791206801, 29645.627444067718898, 0.0 ], [ 16417.262888807596028, 29645.627445045127388, 0.0 ] ], [ [ 16417.262888807596028, 29645.627445045127388, 0.0 ], [ 16420.705826289398829, 29645.627444067718898, 0.0 ] ], [ [ 16420.705826289398829, 29645.627444067718898, 0.0 ], [ 16423.988007668725913, 29645.627444067718898, 0.0 ] ], [ [ 16423.988007668725913, 29645.627444067718898, 0.0 ], [ 16424.323837264135364, 29645.627444067718898, 0.0 ] ], [ [ 16417.262888867266156, 29645.217486288383952, 0.0 ], [ 16417.494293829186063, 29645.324786299337575, 0.0 ], [ 16417.732344712843769, 29645.416401393846172, 0.0 ], [ 16417.975979773349536, 29645.491922953977337, 0.0 ], [ 16418.224112359490391, 29645.551014141536143, 0.0 ], [ 16418.475635760376463, 29645.593411400404875, 0.0 ], [ 16418.729428141537937, 29645.618925632046739, 0.0 ], [ 16418.984357548495609, 29645.627443038927595, 0.0 ], [ 16419.239286955453281, 29645.618925632046739, 0.0 ], [ 16419.493079336614755, 29645.593411400404875, 0.0 ], [ 16419.744602737500827, 29645.551014141536143, 0.0 ], [ 16419.992735323641682, 29645.491922953977337, 0.0 ], [ 16420.236370384147449, 29645.416401393846172, 0.0 ], [ 16420.474421267805155, 29645.324786299337575, 0.0 ], [ 16420.705826229725062, 29645.217486288383952, 0.0 ] ], [ [ 16420.705825481541979, 29645.217486148896569, 0.0 ], [ 16420.910221025409555, 29645.31797973101493, 0.0 ], [ 16421.120736713666702, 29645.404925940809335, 0.0 ], [ 16421.336475775529834, 29645.477954398189468, 0.0 ], [ 16421.556519189289247, 29645.53675401095461, 0.0 ], [ 16421.779929597229057, 29645.581074300036562, 0.0 ], [ 16422.005755298654549, 29645.610726466486085, 0.0 ], [ 16422.23303430402666, 29645.625584195746342, 0.0 ], [ 16422.460798432897718, 29645.625584195720876, 0.0 ], [ 16422.688077438262553, 29645.610726466416963, 0.0 ], [ 16422.913903139684408, 29645.581074299920147, 0.0 ], [ 16423.137313547616941, 29645.536754010794539, 0.0 ], [ 16423.35735696136544, 29645.477954397982103, 0.0 ], [ 16423.573096023210383, 29645.404925940561952, 0.0 ], [ 16423.783611711449339, 29645.317979730723891, 0.0 ], [ 16423.988007255298726, 29645.217486148561875, 0.0 ] ], [ [ 16416.124702274966694, 29645.627443297264108, 0.0 ], [ 16416.297599083984096, 29645.603711715670215, 0.0 ], [ 16416.468420807068469, 29645.567984506767971, 0.0 ], [ 16416.636336227100401, 29645.520435518868908, 0.0 ], [ 16416.800528268991911, 29645.461296124962246, 0.0 ], [ 16416.960197975611663, 29645.390854096858675, 0.0 ], [ 16417.114568395445531, 29645.309452204903209, 0.0 ], [ 16417.262888363278762, 29645.217486550038302, 0.0 ] ], [ [ 16423.988007690411905, 29645.217485893896082, 0.0 ], [ 16423.995717912890541, 29645.253572455774702, 0.0 ], [ 16424.00586147535796, 29645.28905196562846, 0.0 ], [ 16424.018391524536128, 29645.323760543047683, 0.0 ], [ 16424.033250183936616, 29645.357537868574582, 0.0 ], [ 16424.050368821179291, 29645.39022792421747, 0.0 ], [ 16424.06966836500942, 29645.421679714097991, 0.0 ], [ 16424.091059670539835, 29645.451747961913497, 0.0 ], [ 16424.11444393099373, 29645.48029378195497, 0.0 ], [ 16424.139713134107296, 29645.507185320642748, 0.0 ], [ 16424.166750561042136, 29645.532298365535098, 0.0 ], [ 16424.195431325500977, 29645.555516919084766, 0.0 ], [ 16424.225622950583784, 29645.576733734440495, 0.0 ], [ 16424.257185980706709, 29645.595850810794218, 0.0 ], [ 16424.289974625746254, 29645.612779846076592, 0.0 ], [ 16424.323837434432789, 29645.627442644810799, 0.0 ] ], [ [ 16344.382271510516148, 28871.849019868761388, 0.0 ], [ 16446.871458286317647, 28871.849019868761388, 0.0 ] ], [ [ 16446.871458286317647, 28871.849019868761388, 0.0 ], [ 16446.871457797693438, 28882.097938570754195, 0.0 ] ], [ [ 16395.626865142785391, 29604.221809970240429, 0.0 ], [ 16446.87145865295679, 29604.221810947648919, 0.0 ] ], [ [ 16395.626865142785391, 29604.221809970240429, 0.0 ], [ 16344.382271388416484, 29604.221810947648919, 0.0 ] ], [ [ 16407.925567340917041, 28856.475641326986079, 0.0 ], [ 16407.925567340917041, 28871.849019868761388, 0.0 ] ], [ [ 16383.328163066855268, 28856.475641326986079, 0.0 ], [ 16383.328162944755604, 28871.849019868761388, 0.0 ] ], [ [ 16407.925567829654028, 29619.595189000679966, 0.0 ], [ 16407.925566852063639, 29604.221810947648919, 0.0 ] ], [ [ 16383.328162456025893, 29619.595189978088456, 0.0 ], [ 16383.328162456025893, 29604.221811925057409, 0.0 ] ], [ [ 16446.871458286317647, 28841.102264740104147, 0.0 ], [ 16446.871458164216165, 28856.475641326986079, 0.0 ] ], [ [ 16344.382271510516148, 28871.849019868761388, 0.0 ], [ 16344.382270899686773, 29593.972892734378547, 0.0 ] ], [ [ 16344.382271388416484, 29604.221810947648919, 0.0 ], [ 16344.382270899686773, 29593.972892734378547, 0.0 ] ], [ [ 16362.830324685506639, 29634.968567542437086, 0.0 ], [ 16446.871458164216165, 29634.968566565024958, 0.0 ] ], [ [ 16446.871458164216165, 28856.475641326986079, 0.0 ], [ 16344.382271021775523, 28856.475642304398207, 0.0 ] ], [ [ 16446.871458286317647, 29619.595189978088456, 0.0 ], [ 16446.871458164216165, 29634.968566565024958, 0.0 ] ], [ [ 16446.871458408524632, 29585.950688106277084, 0.0 ], [ 16446.87145865295679, 29604.221810947648919, 0.0 ] ], [ [ 14684.024056651816863, 29995.907435698460176, 0.0 ], [ 15729.447149511346652, 29995.907436675865029, 0.0 ] ], [ [ 15729.447149511346652, 29995.907436675865029, 0.0 ], [ 15729.447148533876316, 29585.950687128872232, 0.0 ] ], [ [ 14725.019731337715712, 29965.46115151496997, 0.0 ], [ 15688.418089205686556, 29965.46115249237846, 0.0 ] ], [ [ 15688.418089205686556, 29965.46115249237846, 0.0 ], [ 15688.418089083466839, 29585.950688106277084, 0.0 ] ], [ [ 16446.871458408524632, 29585.950688106277084, 0.0 ], [ 12818.754237648539856, 29585.950688106280722, 0.0 ] ], [ [ 15934.425523429596069, 29585.950688106277084, 0.0 ], [ 15934.425524162636066, 28889.024216857531428, 0.0 ] ], [ [ 12818.754237871336954, 28950.517728924136463, 0.0 ], [ 15934.425524162636066, 28930.019892642998457, 0.0 ] ], [ [ 12818.754237892848323, 28889.024215880108386, 0.0 ], [ 16446.87145865295679, 28889.024216857531428, 0.0 ] ], [ [ 15913.927686147806526, 29585.950687128872232, 0.0 ], [ 15913.927686392116811, 28889.024216857531428, 0.0 ] ], [ [ 15934.425524040545497, 29544.955013298222184, 0.0 ], [ 12818.754237662958985, 29544.955013298222184, 0.0 ] ], [ [ 15934.425524040545497, 29544.955013298222184, 0.0 ], [ 12818.754237662958985, 29544.955013298222184, 0.0 ] ], [ [ 12818.754237871336954, 28950.517728924136463, 0.0 ], [ 15934.425523551926744, 28950.517727603550156, 0.0 ] ], [ [ 16446.871458164216165, 28950.517728580900439, 0.0 ], [ 12818.754237871336954, 28950.517729272960423, 0.0 ] ], [ [ 16446.871458164216165, 28930.019891665629984, 0.0 ], [ 12818.754237871336954, 28950.517729272960423, 0.0 ] ], [ [ 12818.754237759938405, 29268.234206877499673, 0.0 ], [ 15934.425524040545497, 29268.234206877496035, 0.0 ] ], [ [ 16446.871458530626114, 29268.234206877496035, 0.0 ], [ 12818.754237759938405, 29268.234206877499673, 0.0 ] ], [ [ 15934.425523551926744, 29247.736369962171011, 0.0 ], [ 12818.75423776714706, 29247.736371282775508, 0.0 ] ], [ [ 15155.507701709466346, 29585.950688106277084, 0.0 ], [ 15155.507701953776632, 28889.024216857531428, 0.0 ] ], [ [ 15135.009864549776466, 29585.950687128872232, 0.0 ], [ 15135.009865282825558, 28889.024216857531428, 0.0 ] ], [ [ 14376.589880966696001, 29585.950687128872232, 0.0 ], [ 14376.589881699735997, 28889.024215880108386, 0.0 ] ], [ [ 14356.092042829655838, 29585.950687128872232, 0.0 ], [ 14356.092043562695835, 28889.024217834939918, 0.0 ] ], [ [ 13597.672058879925316, 29585.950688106277084, 0.0 ], [ 13597.672059612976227, 28889.024217834939918, 0.0 ] ], [ [ 13577.174222086876398, 29585.950687128872232, 0.0 ], [ 13577.174222331186684, 28889.024216857531428, 0.0 ] ], [ [ 12818.754237648539856, 29585.950688106280722, 0.0 ], [ 12818.754237892848323, 28889.024216857531428, 0.0 ] ], [ [ 16446.871458530626114, 29544.955013298222184, 0.0 ], [ 12818.754237662958985, 29544.955013298222184, 0.0 ] ], [ [ 15934.425523551926744, 29247.736369962171011, 0.0 ], [ 15934.425524040545497, 29544.955013298222184, 0.0 ] ], [ [ 16446.871458530626114, 29524.457175405430462, 0.0 ], [ 12818.754237662958985, 29544.955013298222184, 0.0 ] ], [ [ 16446.871458408524632, 29585.950688106277084, 0.0 ], [ 16446.87145865295679, 28889.024216857531428, 0.0 ] ], [ [ 16426.373621248836571, 29585.950687128872232, 0.0 ], [ 16426.373621981885663, 28889.024215880108386, 0.0 ] ], [ [ 14725.019731337715712, 29965.46115151496997, 0.0 ], [ 14725.019730726766284, 29585.950688106277084, 0.0 ] ], [ [ 14684.024056651816863, 29995.907435698460176, 0.0 ], [ 14684.024055796555331, 29585.950688106277084, 0.0 ] ], [ [ 14684.024056529595327, 28479.067467310520442, 0.0 ], [ 15729.447149389256083, 28479.067468287928932, 0.0 ] ], [ [ 15729.447149389256083, 28479.067468287928932, 0.0 ], [ 15729.447149267156419, 28889.024217834939918, 0.0 ] ], [ [ 14725.019730726766284, 28509.513751005270024, 0.0 ], [ 15688.418088594735309, 28509.513751982693066, 0.0 ] ], [ [ 15688.418088594735309, 28509.513751982693066, 0.0 ], [ 15688.418089083466839, 28889.024216857531428, 0.0 ] ], [ [ 14725.019730726766284, 28509.513751005270024, 0.0 ], [ 14725.019730848976906, 28889.024215880108386, 0.0 ] ], [ [ 14684.024056529595327, 28479.067467310520442, 0.0 ], [ 14684.024056407506578, 28889.024216857531428, 0.0 ] ], [ [ 12818.754237770752297, 29237.487452481898799, 0.000000000030144 ], [ 16446.871458897265256, 29255.202505733082944, 0.000000000030144 ], [ 16446.871458408524632, 29542.17222841230614, 0.000000000030144 ], [ 12818.754237662958985, 29544.955013298222184, 0.000000000030144 ] ], [ [ 16344.382271021775523, 28856.475642304398207, 0.0 ], [ 16344.382271510516148, 28841.102264740104147, 0.0 ] ], [ [ 16344.382271510516148, 28841.102264740104147, 0.0 ], [ 16446.871458286317647, 28841.102264740104147, 0.0 ] ], [ [ 16362.830324685506639, 29634.968567542437086, 0.0 ], [ 16344.382270899686773, 29634.968568519787368, 0.0 ] ], [ [ 16344.382270899686773, 29634.968568519787368, 0.0 ], [ 16344.382271510516148, 29619.595189978088456, 0.0 ] ], [ [ 16344.382271510516148, 29619.595189978088456, 0.0 ], [ 16446.871458286317647, 29619.595189978088456, 0.0 ] ], [ [ 14155.502236173295387, 29541.18514141290143, 0.0 ], [ 14155.401861472906603, 29540.621601699131134, 0.0 ] ], [ [ 14156.158447839656219, 29542.132295713316125, 0.0 ], [ 14155.502236173295387, 29541.18514141290143, 0.0 ] ], [ [ 13056.946375202998752, 28888.111739217445574, 0.0 ], [ 13057.495541202553795, 28886.401111453447811, 0.0 ] ] ] } },
{ "type": "Feature", "properties": { "Layer": "P-ESTRUCTURA_NUEVA", "PaperSpace": null, "SubClasses": null, "Linetype": null, "EntityHandle": "1C270106", "Text": null }, "geometry": { "type": "LineString", "coordinates": [ [ 25270.890542085850029, 37943.639046424323169, 0.0 ], [ 25350.941702430591249, 37943.639046424323169, 0.0 ], [ 25350.941702430591249, 27695.879916257788864, 0.0 ], [ 25270.890542085850029, 27695.879916257788864, 0.0 ], [ 25270.890542085850029, 37943.639046424323169, 0.0 ] ] } },
{ "type": "Feature", "properties": { "Layer": "P-ESTRUCTURA_NUEVA", "PaperSpace": null, "SubClasses": null, "Linetype": null, "EntityHandle": "1C27441B", "Text": null }, "geometry": { "type": "MultiLineString", "coordinates": [ [ [ 7602.802184389089234, 29571.002222962266387, 0.0 ], [ 8252.802184389089234, 29571.002222962266387, 0.0 ], [ 8252.802184389089234, 28391.002222962266387, 0.0 ], [ 7602.802184389089234, 28391.002222962266387, 0.0 ], [ 7602.802184389089234, 29571.002222962266387, 0.0 ] ], [ [ 7702.802184389089234, 29571.002222962266387, 0.0 ], [ 7702.802184389089234, 28391.002222962266387, 0.0 ] ], [ [ 8152.802184389089234, 29571.002222962266387, 0.0 ], [ 8152.802184389089234, 28391.002222962266387, 0.0 ] ], [ [ 7602.802184389089234, 29196.002222962266387, 0.0 ], [ 7582.802184389089234, 29196.002222962266387, 0.0 ], [ 7582.802184389089234, 29196.002222962266387, 0.0 ], [ 7581.437336121794942, 29195.95559834607775, 0.0 ], [ 7580.07885140716462, 29195.815941882992774, 0.0 ], [ 7578.733064128036858, 29195.583904715913377, 0.0 ], [ 7577.40624896594818, 29195.260568709221843, 0.0 ], [ 7576.104592145669812, 29194.847441404643178, 0.0 ], [ 7574.834162592163921, 29194.346448992375372, 0.0 ], [ 7573.6008836344663, 29193.759927330313076, 0.0 ], [ 7572.410505388381353, 29193.09061105319779, 0.0 ], [ 7571.268577946791993, 29192.341620822473487, 0.0 ], [ 7570.180425502569051, 29191.516448776354082, 0.0 ], [ 7569.151121524715563, 29190.618942247827363, 0.0 ], [ 7568.18546510352644, 29189.653285826640058, 0.0 ], [ 7567.287958575001539, 29188.623981848788389, 0.0 ], [ 7566.462786528880315, 29187.535829404565447, 0.0 ], [ 7565.71379629815965, 29186.393901962976088, 0.0 ], [ 7565.044480021042546, 29185.203523716889322, 0.0 ], [ 7564.45795835898025, 29183.970244759191701, 0.0 ], [ 7563.956965946712444, 29182.699815205687628, 0.0 ], [ 7563.543838642133778, 29181.398158385407442, 0.0 ], [ 7563.220502635442244, 29180.071343223320582, 0.0 ], [ 7562.988465468362847, 29178.725555944191001, 0.0 ], [ 7562.848809005277872, 29177.367071229560679, 0.0 ], [ 7562.802184389089234, 29176.002222962266387, 0.0 ], [ 7562.802184389089234, 28966.002222962266387, 0.0 ], [ 7562.802184389089234, 28966.002222962266387, 0.0 ], [ 7562.848809005277872, 28964.637374694972095, 0.0 ], [ 7562.988465468362847, 28963.278889980341773, 0.0 ], [ 7563.220502635442244, 28961.933102701212192, 0.0 ], [ 7563.543838642133778, 28960.606287539125333, 0.0 ], [ 7563.956965946712444, 28959.304630718845146, 0.0 ], [ 7564.45795835898025, 28958.034201165341074, 0.0 ], [ 7565.044480021042546, 28956.800922207643453, 0.0 ], [ 7565.71379629815965, 28955.610543961556687, 0.0 ], [ 7566.462786528880315, 28954.468616519967327, 0.0 ], [ 7567.287958575001539, 28953.380464075744385, 0.0 ], [ 7568.18546510352644, 28952.351160097892716, 0.0 ], [ 7569.151121524715563, 28951.385503676705412, 0.0 ], [ 7570.180425502569051, 28950.487997148178692, 0.0 ], [ 7571.268577946791993, 28949.662825102059287, 0.0 ], [ 7572.410505388381353, 28948.913834871334984, 0.0 ], [ 7573.6008836344663, 28948.244518594219699, 0.0 ], [ 7574.834162592163921, 28947.657996932157403, 0.0 ], [ 7576.104592145669812, 28947.157004519889597, 0.0 ], [ 7577.40624896594818, 28946.743877215310931, 0.0 ], [ 7578.733064128036858, 28946.420541208619397, 0.0 ], [ 7580.07885140716462, 28946.18850404154, 0.0 ], [ 7581.437336121794942, 28946.048847578455025, 0.0 ], [ 7582.802184389089234, 28946.002222962266387, 0.0 ], [ 7602.802184389089234, 28946.002222962266387, 0.0 ], [ 7602.802184389089234, 29196.002222962266387, 0.0 ] ], [ [ 8252.802184389089234, 29196.002222962266387, 0.0 ], [ 8272.802184389089234, 29196.002222962266387, 0.0 ], [ 8272.802184389089234, 29196.002222962266387, 0.0 ], [ 8274.167032656383526, 29195.95559834607775, 0.0 ], [ 8275.525517371013848, 29195.815941882992774, 0.0 ], [ 8276.87130465014161, 29195.583904715913377, 0.0 ], [ 8278.198119812230289, 29195.260568709221843, 0.0 ], [ 8279.499776632508656, 29194.847441404643178, 0.0 ], [ 8280.770206186014548, 29194.346448992375372, 0.0 ], [ 8282.003485143712169, 29193.759927330313076, 0.0 ], [ 8283.193863389797116, 29193.09061105319779, 0.0 ], [ 8284.335790831386475, 29192.341620822473487, 0.0 ], [ 8285.423943275609417, 29191.516448776354082, 0.0 ], [ 8286.453247253462905, 29190.618942247827363, 0.0 ], [ 8287.418903674652029, 29189.653285826640058, 0.0 ], [ 8288.316410203176929, 29188.623981848788389, 0.0 ], [ 8289.141582249298153, 29187.535829404565447, 0.0 ], [ 8289.890572480018818, 29186.393901962976088, 0.0 ], [ 8290.559888757135923, 29185.203523716889322, 0.0 ], [ 8291.146410419198219, 29183.970244759191701, 0.0 ], [ 8291.647402831466025, 29182.699815205687628, 0.0 ], [ 8292.06053013604469, 29181.398158385407442, 0.0 ], [ 8292.383866142736224, 29180.071343223320582, 0.0 ], [ 8292.615903309815621, 29178.725555944191001, 0.0 ], [ 8292.755559772900597, 29177.367071229560679, 0.0 ], [ 8292.802184389089234, 29176.002222962266387, 0.0 ], [ 8292.802184389089234, 28966.002222962266387, 0.0 ], [ 8292.802184389089234, 28966.002222962266387, 0.0 ], [ 8292.755559772900597, 28964.637374694972095, 0.0 ], [ 8292.615903309815621, 28963.278889980341773, 0.0 ], [ 8292.383866142736224, 28961.933102701212192, 0.0 ], [ 8292.06053013604469, 28960.606287539125333, 0.0 ], [ 8291.647402831466025, 28959.304630718845146, 0.0 ], [ 8291.146410419198219, 28958.034201165341074, 0.0 ], [ 8290.559888757135923, 28956.800922207643453, 0.0 ], [ 8289.890572480018818, 28955.610543961556687, 0.0 ], [ 8289.141582249298153, 28954.468616519967327, 0.0 ], [ 8288.316410203176929, 28953.380464075744385, 0.0 ], [ 8287.418903674652029, 28952.351160097892716, 0.0 ], [ 8286.453247253462905, 28951.385503676705412, 0.0 ], [ 8285.423943275609417, 28950.487997148178692, 0.0 ], [ 8284.335790831386475, 28949.662825102059287, 0.0 ], [ 8283.193863389797116, 28948.913834871334984, 0.0 ], [ 8282.003485143712169, 28948.244518594219699, 0.0 ], [ 8280.770206186014548, 28947.657996932157403, 0.0 ], [ 8279.499776632508656, 28947.157004519889597, 0.0 ], [ 8278.198119812230289, 28946.743877215310931, 0.0 ], [ 8276.87130465014161, 28946.420541208619397, 0.0 ], [ 8275.525517371013848, 28946.18850404154, 0.0 ], [ 8274.167032656383526, 28946.048847578455025, 0.0 ], [ 8272.802184389089234, 28946.002222962266387, 0.0 ], [ 8252.802184389089234, 28946.002222962266387, 0.0 ], [ 8252.802184389089234, 29196.002222962266387, 0.0 ] ] ] } },
{ "type": "Feature", "properties": { "Layer": "P-ESTRUCTURA_NUEVA", "PaperSpace": null, "SubClasses": null, "Linetype": null, "EntityHandle": "1C277653", "Text": null }, "geometry": { "type": "LineString", "coordinates": [ [ 25346.480105470960552, 42153.762001295952359, 0.0 ], [ 25346.480105470960552, 37939.565054778257036, 0.0 ], [ 25271.480105470960552, 37939.565054778257036, 0.0 ], [ 25271.480105470960552, 42153.762001295952359, 0.0 ] ] } },
{ "type": "Feature", "properties": { "Layer": "P-ESTRUCTURA_NUEVA", "PaperSpace": null, "SubClasses": null, "Linetype": null, "EntityHandle": "1C27D757", "Text": null }, "geometry": { "type": "LineString", "coordinates": [ [ 12133.865569049190526, 29484.994146633689525, 0.0 ], [ 10133.865569049190526, 29484.994146633689525, 0.0 ], [ 10133.865569049190526, 29034.994146633689525, 0.0 ], [ 12133.865569049190526, 29034.994146633689525, 0.0 ], [ 12133.865569049190526, 29484.994146633689525, 0.0 ] ] } },
{ "type": "Feature", "properties": { "Layer": "P-ESTRUCTURA_NUEVA", "PaperSpace": null, "SubClasses": null, "Linetype": null, "EntityHandle": "1C27D758", "Text": null }, "geometry": { "type": "LineString", "coordinates": [ [ 12153.865569049190526, 29504.994146633689525, 0.0 ], [ 10113.865569049190526, 29504.994146633689525, 0.0 ], [ 10113.865569049190526, 29014.994146633689525, 0.0 ], [ 12153.865569049190526, 29014.994146633689525, 0.0 ], [ 12153.865569049190526, 29504.994146633689525, 0.0 ] ] } },
{ "type": "Feature", "properties": { "Layer": "P-ESTRUCTURA_NUEVA", "PaperSpace": null, "SubClasses": null, "Linetype": null, "EntityHandle": "1C27E084", "Text": null }, "geometry": { "type": "LineString", "coordinates": [ [ 18386.344102167600795, 44822.247296303386975, 0.0 ], [ 18466.344102167600795, 44822.247296303386975, 0.0 ], [ 18466.344102167600795, 42233.926343086772249, 0.0 ], [ 18386.344102167600795, 42233.926343086772249, 0.0 ], [ 18386.344102167600795, 44822.247296303386975, 0.0 ] ] } },
{ "type": "Feature", "properties": { "Layer": "P-ESTRUCTURA_NUEVA", "PaperSpace": null, "SubClasses": null, "Linetype": null, "EntityHandle": "1C27E095", "Text": null }, "geometry": { "type": "LineString", "coordinates": [ [ 18386.344102167600795, 44822.247296303386975, 0.0 ], [ 18386.344102167600795, 44902.247296303386975, 0.0 ], [ 20974.665055384219158, 44902.247296303386975, 0.0 ], [ 20974.665055384219158, 44822.247296303386975, 0.0 ], [ 18386.344102167600795, 44822.247296303386975, 0.0 ] ] } },
{ "type": "Feature", "properties": { "Layer": "P-ESTRUCTURA_NUEVA", "PaperSpace": null, "SubClasses": null, "Linetype": null, "EntityHandle": "1C27E09D", "Text": null }, "geometry": { "type": "LineString", "coordinates": [ [ 20974.665055384219158, 44822.247296303386975, 0.0 ], [ 20974.665055384219158, 44902.247296303386975, 0.0 ], [ 23562.986008600830246, 44902.247296303386975, 0.0 ], [ 23562.986008600830246, 44822.247296303386975, 0.0 ], [ 20974.665055384219158, 44822.247296303386975, 0.0 ] ] } },
{ "type": "Feature", "properties": { "Layer": "P-ESTRUCTURA_NUEVA", "PaperSpace": null, "SubClasses": null, "Linetype": null, "EntityHandle": "1C27E0B5", "Text": null }, "geometry": { "type": "LineString", "coordinates": [ [ 23482.986008600830246, 42153.762001295952359, 0.0 ], [ 23482.986008600830246, 44822.247296303386975, 0.0 ], [ 23562.986008600830246, 44822.247296303386975, 0.0 ], [ 23562.986008600830246, 42233.762001295952359, 0.0 ] ] } },
{ "type": "Feature", "properties": { "Layer": "P-ESTRUCTURA_NUEVA", "PaperSpace": null, "SubClasses": null, "Linetype": null, "EntityHandle": "1C27E0BD", "Text": null }, "geometry": { "type": "LineString", "coordinates": [ [ 23562.986008600830246, 42153.762001295952359, 0.0 ], [ 23482.986008600830246, 42153.762001295952359, 0.0 ] ] } },
{ "type": "Feature", "properties": { "Layer": "P-ESTRUCTURA_NUEVA", "PaperSpace": null, "SubClasses": null, "Linetype": null, "EntityHandle": "1C27E0BE", "Text": null }, "geometry": { "type": "LineString", "coordinates": [ [ 23562.986008600830246, 42233.762001295952359, 0.0 ], [ 25346.480105470960552, 42233.762001295952359, 0.0 ], [ 25346.480105470960552, 42153.762001295952359, 0.0 ] ] } },
{ "type": "Feature", "properties": { "Layer": "P-ESTRUCTURA_NUEVA", "PaperSpace": null, "SubClasses": null, "Linetype": null, "EntityHandle": "1C27E0BF", "Text": null }, "geometry": { "type": "LineString", "coordinates": [ [ 25271.480105470960552, 42153.762001295952359, 0.0 ], [ 23482.986008600830246, 42153.762001295952359, 0.0 ] ] } }
]
}
