{
"type": "FeatureCollection",
"name": "entities",
"features": [
{ "type": "Feature", "properties": { "Layer": "VANO-PUERTAS", "SubClasses": "AcDbEntity:AcDbLine", "EntityHandle": "1C1E1C2C" }, "geometry": { "type": "LineString", "coordinates": [ [ 15.934197776974431, 61.16619560598258, 0.0 ], [ 15.974197776974391, 61.16619560598258, 0.0 ] ] } },
{ "type": "Feature", "properties": { "Layer": "VANO-PUERTAS", "SubClasses": "AcDbEntity:AcDbLine", "EntityHandle": "1C1E1C31" }, "geometry": { "type": "LineString", "coordinates": [ [ 17.454197776974979, 61.16619560598258, 0.0 ], [ 17.414197776974898, 61.16619560598258, 0.0 ] ] } }
]
}
