{
"type": "FeatureCollection",
"name": "SELECT",
"features": [
{ "type": "Feature", "properties": { "Layer": "VENTANAS", "PaperSpace": null, "SubClasses": null, "Linetype": "CONTINUOUS", "EntityHandle": "1C1E3C97", "Text": "1" }, "geometry": { "type": "Point", "coordinates": [ 60874.824267640651669, 18682.123296856920206, 0.0 ] } },
{ "type": "Feature", "properties": { "Layer": "VENTANAS", "PaperSpace": null, "SubClasses": null, "Linetype": "CONTINUOUS", "EntityHandle": "1C1E3C98", "Text": "2" }, "geometry": { "type": "Point", "coordinates": [ 60874.824267640651669, 18989.084399377359659, 0.0 ] } },
{ "type": "Feature", "properties": { "Layer": "VENTANAS", "PaperSpace": null, "SubClasses": null, "Linetype": "CONTINUOUS", "EntityHandle": "1C1E3C99", "Text": "3" }, "geometry": { "type": "Point", "coordinates": [ 60874.824267640651669, 19296.054494724488904, 0.0 ] } },
{ "type": "Feature", "properties": { "Layer": "VENTANAS", "PaperSpace": null, "SubClasses": null, "Linetype": "CONTINUOUS", "EntityHandle": "1C1E3C9A", "Text": "4" }, "geometry": { "type": "Point", "coordinates": [ 60874.824267640651669, 19616.75663447153056, 0.0 ] } },
{ "type": "Feature", "properties": { "Layer": "VENTANAS", "PaperSpace": null, "SubClasses": null, "Linetype": "CONTINUOUS", "EntityHandle": "1C1E3C9B", "Text": "5" }, "geometry": { "type": "Point", "coordinates": [ 60874.824267640651669, 19891.649321582590346, 0.0 ] } },
{ "type": "Feature", "properties": { "Layer": "VENTANAS", "PaperSpace": null, "SubClasses": null, "Linetype": "CONTINUOUS", "EntityHandle": "1C1E3C9C", "Text": "6" }, "geometry": { "type": "Point", "coordinates": [ 60874.824267640651669, 20206.694974146681488, 0.0 ] } },
{ "type": "Feature", "properties": { "Layer": "VENTANAS", "PaperSpace": null, "SubClasses": null, "Linetype": "CONTINUOUS", "EntityHandle": "1C1E3C9D", "Text": "7" }, "geometry": { "type": "Point", "coordinates": [ 60874.824267640651669, 20534.609359871450579, 0.0 ] } },
{ "type": "Feature", "properties": { "Layer": "VENTANAS", "PaperSpace": null, "SubClasses": null, "Linetype": "CONTINUOUS", "EntityHandle": "1C1E3C9E", "Text": "8" }, "geometry": { "type": "Point", "coordinates": [ 60874.824267640651669, 20810.752049715239991, 0.0 ] } },
{ "type": "Feature", "properties": { "Layer": "VENTANAS", "PaperSpace": null, "SubClasses": null, "Linetype": "CONTINUOUS", "EntityHandle": "1C1E3CA0", "Text": "1" }, "geometry": { "type": "Point", "coordinates": [ 83452.65468643407803, 15979.810412454840844, 0.0 ] } },
{ "type": "Feature", "properties": { "Layer": "VENTANAS", "PaperSpace": null, "SubClasses": null, "Linetype": "CONTINUOUS", "EntityHandle": "1C1E3CAD", "Text": "2" }, "geometry": { "type": "Point", "coordinates": [ 83176.208431088889483, 15979.810412454840844, 0.0 ] } },
{ "type": "Feature", "properties": { "Layer": "VENTANAS", "PaperSpace": null, "SubClasses": null, "Linetype": "CONTINUOUS", "EntityHandle": "1C1E3CAE", "Text": "3" }, "geometry": { "type": "Point", "coordinates": [ 82827.545137567314669, 15979.810412454840844, 0.0 ] } },
{ "type": "Feature", "properties": { "Layer": "VENTANAS", "PaperSpace": null, "SubClasses": null, "Linetype": "CONTINUOUS", "EntityHandle": "1C1E3CAF", "Text": "4" }, "geometry": { "type": "Point", "coordinates": [ 82519.26481830389821, 15979.810412454840844, 0.0 ] } },
{ "type": "Feature", "properties": { "Layer": "VENTANAS", "PaperSpace": null, "SubClasses": null, "Linetype": "CONTINUOUS", "EntityHandle": "1C1E3CB0", "Text": "5" }, "geometry": { "type": "Point", "coordinates": [ 82203.639993195538409, 15979.810412454840844, 0.0 ] } },
{ "type": "Feature", "properties": { "Layer": "VENTANAS", "PaperSpace": null, "SubClasses": null, "Linetype": "CONTINUOUS", "EntityHandle": "1C1E3CB1", "Text": "6" }, "geometry": { "type": "Point", "coordinates": [ 81913.709130655348417, 15979.810412454840844, 0.0 ] } },
{ "type": "Feature", "properties": { "Layer": "VENTANAS", "PaperSpace": null, "SubClasses": null, "Linetype": "CONTINUOUS", "EntityHandle": "1C1E3CB2", "Text": "7" }, "geometry": { "type": "Point", "coordinates": [ 81546.69638041043072, 15979.810412454840844, 0.0 ] } },
{ "type": "Feature", "properties": { "Layer": "VENTANAS", "PaperSpace": null, "SubClasses": null, "Linetype": "CONTINUOUS", "EntityHandle": "1C1E3CB3", "Text": "8" }, "geometry": { "type": "Point", "coordinates": [ 81238.41606114723254, 15979.810412454840844, 0.0 ] } },
{ "type": "Feature", "properties": { "Layer": "VENTANAS", "PaperSpace": null, "SubClasses": null, "Linetype": "CONTINUOUS", "EntityHandle": "1C1E3CB4", "Text": "9" }, "geometry": { "type": "Point", "coordinates": [ 80970.518716138016316, 15979.810412454840844, 0.0 ] } },
{ "type": "Feature", "properties": { "Layer": "VENTANAS", "PaperSpace": null, "SubClasses": null, "Linetype": "CONTINUOUS", "EntityHandle": "1C1E3CB5", "Text": "10" }, "geometry": { "type": "Point", "coordinates": [ 80607.166410930280108, 15979.810412454840844, 0.0 ] } },
{ "type": "Feature", "properties": { "Layer": "VENTANAS", "PaperSpace": null, "SubClasses": null, "Linetype": "CONTINUOUS", "EntityHandle": "1C1E3CB6", "Text": "11" }, "geometry": { "type": "Point", "coordinates": [ 80296.500898451165995, 15979.810412454840844, 0.0 ] } },
{ "type": "Feature", "properties": { "Layer": "VENTANAS", "PaperSpace": null, "SubClasses": null, "Linetype": "CONTINUOUS", "EntityHandle": "1C1E3CB7", "Text": "12" }, "geometry": { "type": "Point", "coordinates": [ 79941.721119357622229, 15979.810412454840844, 0.0 ] } },
{ "type": "Feature", "properties": { "Layer": "VENTANAS", "PaperSpace": null, "SubClasses": null, "Linetype": "CONTINUOUS", "EntityHandle": "1C1E3CB8", "Text": "13" }, "geometry": { "type": "Point", "coordinates": [ 79502.940030651065172, 15979.810412454840844, 0.0 ] } }
]
}
